{"type": "Feature", "geometry": {"type": "MultiPolygon", "coordinates": [[[[107.598, -2.812], [107.658, -2.559], [108.128, -2.629], [108.298, -2.849], [108.064, -3.239], [107.837, -3.157], [107.673, -3.209], [107.561, -2.999], [107.598, -2.812]]], [[[105.95, -2.812], [105.788, -2.17], [105.329, -2.128], [105.108, -2.024], [105.397, -1.779], [105.47, -1.561], [105.888, -1.511], [106.135, -1.855], [106.227, -2.3], [106.347, -2.461], [106.755, -2.557], [106.512, -3.115], [106.429, -2.974], [105.95, -2.812]]]]}, "properties": {"name": "Bangka-Belitung Islands", "iso2": "ID-BB", "admin_level": 4, "osm_id": 3797243, "countrylevel_id": "iso2:ID-BB", "osm_data": {"localname": "Kepulauan Bangka Belitung", "official_name": "", "alltags": {"name:en": "Bangka-Belitung Islands", "name:fr": "Îles Bangka Belitung", "name:ja": "バンカ・ブリトゥン", "name:nl": "Bangka-Belitung", "name:ru": "Банка-Белитунг", "name:uk": "Банка-Белітунґ", "name:vi": "Tỉnh Bangka-Belitung", "website": "https://www.babelprov.go.id/", "short_name": "Babel"}}, "center_lat": -2.42, "center_lon": 106.57, "area_m2": 17376740029, "timezone": "Asia/Jakarta", "population": 1372813, "wikidata_id": "Q1866", "wikipedia_id": "id:Kepulauan Bangka Belitung"}}