{"type": "Feature", "geometry": {"type": "MultiPolygon", "coordinates": [[[[110.909, -8.211], [111.256, -7.949], [111.118, -7.414], [111.208, -7.245], [111.457, -7.259], [111.611, -7.142], [111.691, -6.754], [111.961, -6.761], [112.053, -6.887], [112.593, -6.892], [112.669, -7.22], [112.847, -7.287], [112.889, -7.615], [113.339, -7.777], [113.49, -7.697], [113.762, -7.738], [114.236, -7.698], [114.465, -7.825], [114.34, -8.427], [114.221, -8.645], [113.647, -8.495], [113.213, -8.281], [112.671, -8.444], [111.776, -8.258], [111.697, -8.379], [111.449, -8.269], [110.909, -8.211]]], [[[112.772, -7], [112.847, -6.899], [113.908, -6.863], [113.816, -7.133], [113.55, -7.231], [113.101, -7.228], [112.8, -7.158], [112.772, -7]]]]}, "properties": {"name": "East Java", "iso2": "ID-JI", "admin_level": 4, "osm_id": 3438227, "countrylevel_id": "iso2:ID-JI", "osm_data": {"localname": "Jawa Timur", "official_name": "", "alltags": {"name:en": "East Java", "name:ja": "東ジャワ", "name:nl": "Oost-Java", "name:ru": "Восточная Ява", "name:uk": "Східна Ява", "name:vi": "Tỉnh Đông Java", "website": "http://www.jatimprov.go.id/", "population": "37476757", "short_name": "Jatim"}}, "center_lat": -7.72, "center_lon": 112.73, "area_m2": 48241374287, "timezone": "Asia/Jakarta", "wikidata_id": "Q3586", "wikipedia_id": "id:Jawa Timur"}}