{"type": "Feature", "geometry": {"type": "Polygon", "coordinates": [[[108.78, -7.703], [108.722, -7.439], [108.562, -7.171], [108.771, -7.112], [108.838, -6.756], [109.261, -6.872], [109.581, -6.838], [110.008, -6.919], [110.18, -6.848], [110.451, -6.941], [110.735, -6.443], [111.043, -6.425], [111.127, -6.637], [111.379, -6.702], [111.493, -6.621], [111.691, -6.754], [111.611, -7.142], [111.457, -7.259], [111.208, -7.245], [111.118, -7.414], [111.256, -7.949], [110.909, -8.211], [110.835, -8.203], [110.783, -7.874], [110.531, -7.796], [110.459, -7.569], [110.149, -7.647], [110.003, -7.888], [109.287, -7.702], [109.013, -7.779], [108.78, -7.703]]]}, "properties": {"name": "Central Java", "iso2": "ID-JT", "admin_level": 4, "osm_id": 2388357, "countrylevel_id": "iso2:ID-JT", "osm_data": {"localname": "Jawa Tengah", "official_name": "", "alltags": {"name:en": "Central Java", "name:es": "Java Central", "name:ja": "中部ジャワ", "name:nl": "Centraal-Java", "name:ru": "Центральная Ява", "name:vi": "Tỉnh Trung Java", "website": "https://jatengprov.go.id/", "short_name": "Jateng"}}, "center_lat": -7.26, "center_lon": 110.2, "area_m2": 34680319880, "timezone": "Asia/Jakarta", "population": 34897757, "wikidata_id": "Q3557", "wikipedia_id": "id:Jawa Tengah"}}