{"type": "Feature", "geometry": {"type": "MultiPolygon", "coordinates": [[[[116.054, -3.999], [116.006, -3.683], [116.115, -3.304], [116.314, -3.506], [116.271, -3.816], [116.054, -3.999]]], [[[114.351, -3.463], [114.591, -2.821], [114.761, -2.722], [114.914, -2.452], [115.228, -2.224], [115.341, -1.947], [115.311, -1.801], [115.401, -1.435], [115.756, -1.303], [115.629, -1.606], [115.727, -1.787], [115.85, -2.397], [116.011, -2.325], [116.554, -2.419], [116.425, -2.5], [116.371, -2.816], [116.007, -3.433], [115.967, -3.61], [115.024, -4.005], [114.679, -4.178], [114.616, -3.653], [114.351, -3.463]]]]}, "properties": {"name": "South Kalimantan", "iso2": "ID-KS", "admin_level": 4, "osm_id": 2388615, "countrylevel_id": "iso2:ID-KS", "osm_data": {"localname": "Kalimantan Selatan", "official_name": "", "alltags": {"name:en": "South Kalimantan", "name:ja": "南カリマンタン", "name:nl": "Zuid-Kalimantan", "name:ru": "Южный Калимантан", "name:uk": "Південний Калімантан", "website": "http://www.kalselprov.go.id/", "short_name": "Kalsel"}}, "center_lat": -3.0, "center_lon": 115.44, "area_m2": 37577726357, "timezone": "Asia/Makassar", "wikidata_id": "Q3906", "wikipedia_id": "id:Kalimantan Selatan"}}