{"type": "Feature", "geometry": {"type": "Polygon", "coordinates": [[[61.274, 35.605], [61.4, 35.586], [61.588, 35.437], [62.064, 35.434], [62.266, 35.295], [62.733, 35.25], [62.677, 34.964], [63.057, 34.638], [63.448, 34.621], [63.818, 34.513], [64.196, 34.686], [64.469, 34.662], [64.448, 34.508], [64.181, 34.466], [63.981, 34.224], [63.545, 34.27], [63.37, 34.057], [63.535, 33.911], [63.488, 33.657], [63.204, 33.592], [63.067, 33.522], [63.091, 33.163], [62.774, 33.116], [62.075, 32.879], [61.581, 32.862], [61.859, 33.168], [61.859, 33.478], [61.559, 33.549], [61.239, 33.465], [60.929, 33.497], [60.581, 33.597], [60.533, 34], [60.742, 34.527], [60.984, 34.62], [61.14, 35.102], [61.092, 35.264], [61.274, 35.605]]]}, "properties": {"name": "Herat", "iso2": "AF-HER", "admin_level": 4, "osm_id": 1674803, "countrylevel_id": "iso2:AF-HER", "osm_data": {"localname": "هرات", "official_name": "", "alltags": {"is_in": "Afghanistan", "name:cs": "Herát", "name:el": "Χεράτ", "name:en": "Herat", "name:es": "Provincia de Herāt", "name:fa": "ولایت هرات", "name:fr": "Hérât", "name:ja": "ヘラート州", "name:ps": "هرات ولايت", "name:ru": "Герат", "name:tr": "Herat", "name:uk": "Герат", "alt_name": "Hirat;Herat Province", "description": "Herat Province", "is_in:country": "Afghanistan", "is_in:continent": "Asia", "is_in:country_code": "AF"}}, "center_lat": 34.2, "center_lon": 62.13, "area_m2": 54220296121, "timezone": "Asia/Kabul", "population": 1762157, "wikidata_id": "Q182844", "wikipedia_id": "en:Herat Province"}}