{"type": "Feature", "geometry": {"type": "Polygon", "coordinates": [[[65.44, 37.233], [65.644, 37.329], [65.706, 37.539], [66.255, 37.35], [66.511, 37.133], [66.574, 36.789], [66.406, 36.565], [65.799, 36.442], [65.532, 36.244], [65.535, 35.98], [65.179, 35.953], [65.294, 36.356], [65.479, 36.347], [65.448, 36.742], [65.325, 36.949], [65.44, 37.233]]]}, "properties": {"name": "Jowzjan", "iso2": "AF-JOW", "admin_level": 4, "osm_id": 1674800, "countrylevel_id": "iso2:AF-JOW", "osm_data": {"localname": "ولایت جوزجان", "official_name": "", "alltags": {"is_in": "Afghanistan", "name:en": "Jowzjan", "name:es": "Provincia de Jawzjān", "name:fa": "ولایت جوزجان", "name:fr": "Djôzdjân", "name:ja": "ジョウズジャーン州", "name:lt": "Džouzdžano provincija", "name:pl": "Dżozdżan", "name:ps": "جوزجان ولايت", "name:ru": "Джаузджан", "name:tg": "Вилояти Ҷӯзҷон", "name:tr": "Cüzcan", "name:uk": "Джаузджан", "name:uz": "Joʻzjon", "description": "Jowzjan Province", "is_in:country": "Afghanistan", "is_in:continent": "Asia", "is_in:country_code": "AF"}}, "center_lat": 36.82, "center_lon": 65.85, "area_m2": 11310217195, "timezone": "Asia/Kabul", "wikidata_id": "Q183036", "wikipedia_id": "en:Jowzjan Province"}}