{"type": "Feature", "geometry": {"type": "Polygon", "coordinates": [[[69.285, 35.168], [69.704, 35.167], [69.805, 35.076], [69.914, 34.854], [69.593, 34.653], [69.583, 34.901], [69.278, 35.035], [69.285, 35.168]]]}, "properties": {"name": "Kapisa", "iso2": "AF-KAP", "admin_level": 4, "osm_id": 1674767, "countrylevel_id": "iso2:AF-KAP", "osm_data": {"localname": "کاپیس", "official_name": "", "alltags": {"name:ar": "ولاية كابيسا", "name:el": "Καπίσα", "name:en": "Kapisa", "name:es": "Provincia de Kāpīsā", "name:fa": "ولایت کاپیسا", "name:fr": "Kâpîssâ", "name:hi": "कापीसा प्रान्त", "name:ja": "カーピーサー州", "name:lt": "Kapisos provincija", "name:ps": "کاپيسا ولايت", "name:ru": "Каписа", "name:tr": "Kapisa", "name:uk": "Капіса", "name:ur": "صوبہ کاپیس", "name:zh": "卡比萨省", "alt_name": "Kapisa Province;Kapissa", "description": "Kapisa Province", "is_in:country": "Afghanistan", "is_in:continent": "Asia", "is_in:country_code": "AF"}}, "center_lat": 34.96, "center_lon": 69.62, "area_m2": 1897197551, "timezone": "Asia/Kabul", "population": 399500, "wikidata_id": "Q173816", "wikipedia_id": "en:Kapisa Province"}}