{"type": "Feature", "geometry": {"type": "Polygon", "coordinates": [[[9.618, 47.438], [9.571, 47.434], [9.583, 47.41], [9.555, 47.396], [9.573, 47.409], [9.553, 47.427], [9.524, 47.421], [9.51, 47.395], [9.503, 47.347], [9.466, 47.346], [9.431, 47.368], [9.364, 47.384], [9.365, 47.359], [9.344, 47.352], [9.317, 47.316], [9.314, 47.291], [9.343, 47.249], [9.319, 47.248], [9.274, 47.27], [9.233, 47.266], [9.206, 47.276], [9.224, 47.294], [9.213, 47.32], [9.225, 47.343], [9.199, 47.348], [9.232, 47.388], [9.272, 47.401], [9.303, 47.395], [9.372, 47.408], [9.402, 47.401], [9.426, 47.408], [9.453, 47.433], [9.524, 47.451], [9.533, 47.468], [9.58, 47.463], [9.618, 47.438]]]}, "properties": {"name": "Appenzell Ausserrhoden", "iso2": "CH-AR", "admin_level": 4, "osm_id": 1686649, "countrylevel_id": "iso2:CH-AR", "osm_data": {"localname": "Appenzell Ausserrhoden", "official_name": "", "alltags": {"name:be": "Апенцэль — Аўсерродэн", "name:ca": "Appenzell Ausser-Rhoden", "name:eo": "Apencelo Ekstera", "name:es": "Appenzell Rodas Exteriores", "name:fr": "Appenzell Rhodes-Extérieures", "name:it": "Appenzello Esterno", "name:lt": "Apencelis-Auserodenas", "name:rm": "Appenzell Dadora", "name:ru": "Аппенцелль-Аусерроден", "alt_name": "Kanton Appenzell Ausserrhoden", "name:gsw": "Appezell Usserrhode", "name:prefix": "Kanton", "swisstopo:KANTONSNUM": "15"}}, "center_lat": 47.37, "center_lon": 9.37, "area_m2": 242447257, "timezone": "Europe/Zurich", "population": 55234, "wikidata_id": "Q12079", "wikipedia_id": "de:Kanton Appenzell Ausserrhoden"}}