{"type": "Feature", "geometry": {"type": "Polygon", "coordinates": [[[15.996, 46.835], [16.014, 46.885], [16.062, 46.914], [16.122, 46.991], [16.149, 46.994], [16.121, 47.023], [16.12, 47.042], [16.087, 47.074], [16.095, 47.113], [16.115, 47.134], [16.107, 47.178], [16.082, 47.225], [16.088, 47.242], [16.058, 47.313], [16.016, 47.368], [16.063, 47.385], [16.066, 47.398], [16.101, 47.415], [16.172, 47.422], [16.2, 47.422], [16.242, 47.437], [16.257, 47.451], [16.303, 47.467], [16.339, 47.524], [16.309, 47.546], [16.33, 47.582], [16.329, 47.598], [16.368, 47.621], [16.373, 47.643], [16.352, 47.672], [16.309, 47.687], [16.291, 47.729], [16.304, 47.784], [16.269, 47.796], [16.348, 47.816], [16.388, 47.843], [16.358, 47.866], [16.4, 47.876], [16.437, 47.928], [16.487, 47.943], [16.524, 47.934], [16.579, 47.888], [16.632, 47.929], [16.652, 47.956], [16.699, 47.966], [16.701, 48.01], [16.76, 48.014], [16.83, 48.04], [16.874, 48.072], [16.917, 48.068], [16.919, 48.051], [16.969, 48.041], [17.036, 48.084], [17.067, 48.119], [17.093, 48.1], [17.076, 48.086], [17.067, 48.031], [17.11, 48.031], [17.161, 48.007], [17.095, 47.971], [17.117, 47.961], [17.091, 47.934], [17.113, 47.927], [17.078, 47.878], [17.01, 47.858], [17.052, 47.838], [17.072, 47.808], [17.051, 47.794], [17.064, 47.778], [17.07, 47.728], [17.093, 47.708], [17.04, 47.704], [16.913, 47.688], [16.872, 47.69], [16.869, 47.721], [16.839, 47.705], [16.828, 47.683], [16.749, 47.681], [16.721, 47.735], [16.67, 47.741], [16.637, 47.756], [16.599, 47.756], [16.548, 47.752], [16.535, 47.711], [16.481, 47.69], [16.448, 47.692], [16.44, 47.657], [16.514, 47.646], [16.551, 47.632], [16.59, 47.617], [16.635, 47.628], [16.653, 47.622], [16.706, 47.523], [16.652, 47.5], [16.67, 47.474], [16.647, 47.447], [16.588, 47.423], [16.576, 47.406], [16.519, 47.41], [16.497, 47.389], [16.464, 47.413], [16.445, 47.407], [16.457, 47.367], [16.434, 47.353], [16.463, 47.336], [16.489, 47.28], [16.478, 47.263], [16.442, 47.249], [16.435, 47.215], [16.417, 47.205], [16.428, 47.185], [16.453, 47.188], [16.454, 47.142], [16.517, 47.149], [16.529, 47.127], [16.465, 47.099], [16.471, 47.078], [16.52, 47.062], [16.475, 47.027], [16.492, 47.01], [16.48, 46.994], [16.452, 47.003], [16.373, 46.998], [16.302, 46.998], [16.259, 46.964], [16.257, 46.964], [16.255, 46.964], [16.25, 46.961], [16.247, 46.95], [16.195, 46.938], [16.179, 46.907], [16.114, 46.869], [16.071, 46.853], [16.058, 46.839], [15.996, 46.835]]]}, "properties": {"name": "Burgenland", "iso2": "AT-1", "admin_level": 4, "osm_id": 76909, "countrylevel_id": "iso2:AT-1", "osm_data": {"localname": "Burgenland", "official_name": "", "alltags": {"name:ar": "بورغنلاند", "name:be": "Бургенланд", "name:bg": "Бургенланд", "name:br": "Burgenland", "name:ca": "Burgenland", "name:cs": "Hradsko", "name:en": "Burgenland", "name:eo": "Burgenlando", "name:es": "Burgenland", "name:fr": "Burgenland", "name:he": "בורגנלנד", "name:hr": "Gradišće", "name:hu": "Felsőőrvidék", "name:ja": "ブルゲンラント州", "name:mk": "Градиште", "name:nl": "Burgenland", "name:pl": "Burgenland", "name:ru": "Бургенланд", "name:sk": "Burgenland", "name:sl": "Gradiščanska", "name:sr": "Бургенланд", "name:ta": "புர்கென்லான்ட்", "name:uk": "Бургенланд", "name:yi": "בורגנלאנד", "website": "http://www.bgld.gv.at", "name:hsb": "Hrodowska", "place:note": "state:note see here https://www.openstreetmap.org/node/240037510", "ref:at:gkz": "1", "alt_name:cs": "Burgenlandsko", "alt_name:mk": "Бургенланд", "alt_name:sl": "Gradiščansko", "name:be-tarask": "Бургенлянд", "name:prefix:at": "Bundesland"}}, "center_lat": 47.54, "center_lon": 16.52, "area_m2": 3963198394, "timezone": "Europe/Vienna", "population": 291023, "wikidata_id": "Q43210", "wikipedia_id": "de:Burgenland"}}