{"type": "Feature", "geometry": {"type": "Polygon", "coordinates": [[[9.73, 47.534], [9.767, 47.589], [9.802, 47.596], [9.827, 47.58], [9.816, 47.548], [9.853, 47.54], [9.88, 47.548], [9.923, 47.53], [9.959, 47.535], [9.996, 47.503], [10.001, 47.482], [10.037, 47.489], [10.07, 47.456], [10.091, 47.459], [10.106, 47.429], [10.071, 47.408], [10.1, 47.355], [10.119, 47.376], [10.17, 47.371], [10.182, 47.392], [10.237, 47.374], [10.2, 47.326], [10.216, 47.311], [10.172, 47.279], [10.178, 47.27], [10.222, 47.254], [10.199, 47.239], [10.213, 47.204], [10.197, 47.194], [10.222, 47.15], [10.203, 47.142], [10.145, 47.097], [10.135, 47.064], [10.157, 47.049], [10.123, 47.022], [10.159, 46.999], [10.137, 46.972], [10.125, 46.941], [10.098, 46.927], [10.109, 46.896], [10.145, 46.851], [10.105, 46.841], [10.087, 46.861], [10.059, 46.861], [10.026, 46.896], [9.946, 46.912], [9.88, 46.935], [9.875, 46.972], [9.892, 46.989], [9.873, 47.006], [9.831, 47.014], [9.784, 47.039], [9.719, 47.043], [9.68, 47.062], [9.607, 47.061], [9.612, 47.079], [9.633, 47.083], [9.621, 47.111], [9.625, 47.118], [9.626, 47.146], [9.591, 47.165], [9.565, 47.17], [9.567, 47.173], [9.573, 47.188], [9.579, 47.195], [9.585, 47.205], [9.558, 47.231], [9.556, 47.252], [9.531, 47.271], [9.584, 47.313], [9.599, 47.345], [9.624, 47.366], [9.654, 47.368], [9.674, 47.391], [9.652, 47.408], [9.644, 47.436], [9.654, 47.454], [9.593, 47.466], [9.561, 47.5], [9.588, 47.489], [9.629, 47.5], [9.65, 47.487], [9.685, 47.504], [9.75, 47.508], [9.73, 47.534]]]}, "properties": {"name": "Vorarlberg", "iso2": "AT-8", "admin_level": 4, "osm_id": 74942, "countrylevel_id": "iso2:AT-8", "osm_data": {"localname": "Vorarlberg", "official_name": "", "alltags": {"name:ar": "فورارلبرغ", "name:be": "Форарльберг", "name:ca": "Vorarlberg", "name:cs": "Vorarlbersko", "name:en": "Vorarlberg", "name:es": "Vorarlberg", "name:fr": "Vorarlberg", "name:hr": "Vorarlberg", "name:hu": "Vorarlberg", "name:mk": "Предарлска", "name:pl": "Vorarlberg", "name:ru": "Форарльберг", "name:sk": "Vorarlbersko", "name:sl": "Predarlska", "name:ta": "வொரர்ல்பேர்க்", "name:zh": "福拉尔贝格州", "website": "https://www.vorarlberg.gv.at", "ref:at:gkz": "8", "alt_name:mk": "Форарлберг", "is_in:country": "Austria", "name:be-tarask": "Форарльбэрг", "name:prefix:at": "Bundesland", "is_in:continent": "Europe", "is_in:country_code": "AT"}}, "center_lat": 47.24, "center_lon": 9.9, "area_m2": 2568912417, "timezone": "Europe/Vienna", "population": 388711, "wikidata_id": "Q38981", "wikipedia_id": "de:Vorarlberg"}}