{"type": "Feature", "geometry": {"type": "Polygon", "coordinates": [[[-96.453, 43.5], [-93.849, 43.5], [-91.218, 43.501], [-91.058, 43.254], [-91.178, 43.129], [-91.051, 42.737], [-90.72, 42.641], [-90.641, 42.508], [-90.391, 42.225], [-90.163, 42.117], [-90.188, 41.803], [-90.343, 41.588], [-90.656, 41.462], [-91.048, 41.411], [-91.114, 41.241], [-90.947, 41.097], [-91.124, 40.669], [-91.349, 40.61], [-91.42, 40.378], [-91.729, 40.614], [-93.261, 40.581], [-94.489, 40.571], [-95.767, 40.585], [-95.933, 41.464], [-96.09, 41.532], [-96.162, 41.902], [-96.44, 42.49], [-96.624, 42.708], [-96.437, 43.121], [-96.571, 43.239], [-96.453, 43.5]]]}, "properties": {"name": "Iowa", "iso2": "US-IA", "admin_level": 4, "osm_id": 161650, "countrylevel_id": "iso2:US-IA", "osm_data": {"localname": "Iowa", "official_name": "", "alltags": {"name:ar": "آيوا", "name:az": "Ayova", "name:br": "Iowa", "name:el": "Αϊόβα", "name:en": "Iowa", "name:fa": "آیووا", "name:he": "איווה", "name:hi": "आयोवा", "name:hy": "Այովա", "name:ik": "Aioua", "name:ja": "アイオワ州", "name:ka": "აიოვა", "name:ko": "아이오와", "name:la": "Iova", "name:lt": "Ajova", "name:lv": "Aiova", "name:nv": "Áawah Hahoodzo", "name:pl": "Iowa", "name:ru": "Айова", "name:sr": "Ајова", "name:ta": "அயோவா", "name:th": "รัฐไอโอวา", "name:tl": "Ayowa", "name:uk": "Айова", "name:yi": "אייאווע", "name:zh": "艾奥瓦州", "name:haw": "‘Iowa", "ref:fips": "19", "is_in:country_code": "US"}}, "center_lat": 42.07, "center_lon": -93.5, "area_m2": 145850726731, "timezone": "America/Chicago", "population": 3155070, "wikidata_id": "Q1546", "wikipedia_id": "en:Iowa"}}