{"type": "Feature", "geometry": {"type": "Polygon", "coordinates": [[[-93.839, 29.691], [-93.922, 29.822], [-93.696, 30.151], [-93.733, 30.531], [-93.564, 30.989], [-93.823, 31.774], [-94.043, 32.036], [-94.043, 33.019], [-92.069, 33.008], [-91.166, 33.004], [-91.153, 32.641], [-90.976, 32.296], [-91.038, 32.098], [-91.514, 31.532], [-91.519, 31.275], [-91.637, 30.999], [-89.753, 31.002], [-89.844, 30.663], [-89.529, 30.19], [-89.838, 29.945], [-89.407, 29.81], [-89.753, 29.653], [-89.865, 29.461], [-90.056, 29.463], [-90.249, 29.256], [-90.376, 29.438], [-90.557, 29.458], [-90.66, 29.244], [-91.082, 29.307], [-91.265, 29.475], [-91.525, 29.55], [-91.617, 29.722], [-91.975, 29.838], [-92.216, 29.749], [-92.324, 29.531], [-93.214, 29.776], [-93.839, 29.691]]]}, "properties": {"name": "Louisiana", "iso2": "US-LA", "admin_level": 4, "osm_id": 224922, "countrylevel_id": "iso2:US-LA", "osm_data": {"localname": "Louisiana", "official_name": "", "alltags": {"name:an": "Loisiana", "name:ar": "لويزيانا", "name:bg": "Луизиана", "name:bn": "লুইজিয়ানা", "name:br": "Louiziana", "name:el": "Λουιζιάνα", "name:en": "Louisiana", "name:eo": "Luiziano", "name:es": "Luisiana", "name:fa": "لوئیزیانا", "name:fr": "Louisiane", "name:gl": "Luisiana", "name:gn": "Luisiana", "name:he": "לואיזיאנה", "name:hi": "लुईज़ियाना", "name:ht": "Lwiziana", "name:hy": "Լուիզիանա", "name:ja": "ルイジアナ州", "name:ka": "ლუიზიანა", "name:kn": "ಲುವಿಸಿಯಾನಾ", "name:ko": "루이지애나", "name:lt": "Luiziana", "name:lv": "Luiziāna", "name:ml": "ലുയീസിയാന", "name:mn": "Луйзиана", "name:mr": "लुईझियाना", "name:nv": "Liwíízíʼeenah Hahoodzo", "name:oc": "Loïsiana", "name:os": "Луизианæ", "name:pl": "Luizjana", "name:pt": "Luisiana", "name:ru": "Луизиана", "name:sa": "लुईजियाना", "name:sr": "Луизијана", "name:ta": "லூசியானா", "name:th": "รัฐลุยเซียนา", "name:uk": "Луїзіана", "name:ur": "لوزیانا", "name:uz": "Luiziana", "name:yi": "לואיזיאנא", "name:zh": "路易斯安那州", "name:hak": "Lu-yi-sṳ̂-ôn-ná", "name:haw": "Luikiana", "name:lou": "Lwizyàn", "name:szl": "Luizjana", "ref:fips": "22", "is_in:country_code": "US"}}, "center_lat": 31.1, "center_lon": -92.02, "area_m2": 119808600845, "timezone": "America/Chicago", "population": 4648794, "wikidata_id": "Q1588", "wikipedia_id": "en:Louisiana"}}