{"type": "Feature", "geometry": {"type": "MultiPolygon", "coordinates": [[[[-83.455, 41.733], [-84.806, 41.696], [-84.806, 41.76], [-86.826, 41.76], [-86.616, 41.897], [-86.248, 42.489], [-86.254, 43.083], [-86.536, 43.667], [-86.436, 43.795], [-86.504, 44.073], [-86.267, 44.351], [-86.242, 44.702], [-85.744, 45.054], [-85.409, 44.905], [-85.373, 45.269], [-85.038, 45.362], [-85.117, 45.579], [-84.773, 45.79], [-84.213, 45.634], [-83.477, 45.341], [-83.312, 45.127], [-83.453, 45.022], [-83.271, 44.713], [-83.336, 44.333], [-83.614, 44.056], [-83.905, 43.918], [-83.91, 43.675], [-83.684, 43.59], [-83.261, 43.97], [-82.919, 44.069], [-82.616, 43.78], [-82.486, 43.103], [-82.419, 43.003], [-82.525, 42.606], [-82.64, 42.555], [-82.924, 42.352], [-83.04, 42.324], [-83.091, 42.296], [-83.098, 42.287], [-83.131, 42.207], [-83.132, 42.196], [-83.132, 42.193], [-83.128, 42.151], [-83.128, 42.105], [-83.128, 42.102], [-83.149, 42.043], [-83.145, 42.031], [-83.455, 41.733]], [[-82.669, 42.532], [-82.677, 42.524], [-82.678, 42.523], [-82.669, 42.532]]], [[[-87.592, 45.095], [-87.793, 45.5], [-87.809, 45.71], [-88.105, 45.922], [-88.783, 46.016], [-89.092, 46.138], [-90.12, 46.337], [-90.419, 46.566], [-89.834, 46.804], [-89.416, 46.844], [-88.218, 47.45], [-87.801, 47.473], [-88.445, 46.971], [-87.898, 46.909], [-87.633, 46.812], [-87.325, 46.494], [-86.982, 46.528], [-86.639, 46.411], [-86.119, 46.657], [-85.504, 46.676], [-85.036, 46.761], [-85.034, 46.488], [-84.459, 46.472], [-84.111, 46.504], [-84.108, 46.241], [-83.945, 46.058], [-84.393, 45.992], [-85.003, 46.006], [-85.427, 46.102], [-85.658, 45.966], [-86.201, 45.963], [-87.196, 45.639], [-87.592, 45.095]]]]}, "properties": {"name": "Michigan", "iso2": "US-MI", "admin_level": 4, "osm_id": 165789, "countrylevel_id": "iso2:US-MI", "osm_data": {"localname": "Michigan", "official_name": "", "alltags": {"name:ar": "ميشيغان", "name:az": "Miçiqan", "name:be": "Мічыган", "name:bg": "Мичиган", "name:br": "Michigan", "name:en": "Michigan", "name:eo": "Miĉigano", "name:es": "Míchigan", "name:fa": "میشیگان", "name:he": "מישיגן", "name:hy": "Միչիգան", "name:ja": "ミシガン州", "name:ko": "미시간", "name:lt": "Mičiganas", "name:lv": "Mičigana", "name:nv": "Míshigin Hahoodzo", "name:pl": "Michigan", "name:ru": "Мичиган", "name:sr": "Мичиген", "name:ta": "மிச்சிகன்", "name:th": "รัฐมิชิแกน", "name:tl": "Misigan", "name:uk": "Мічиган", "name:yi": "מישיגן", "name:zh": "密歇根州", "name:haw": "Mikikana", "ref:fips": "26", "is_in:country_code": "US"}}, "center_lat": 44.35, "center_lon": -85.43, "area_m2": 151128763973, "timezone": "America/Detroit", "population": 9986857, "wikidata_id": "Q1166", "wikipedia_id": "en:Michigan"}}