{"type": "Feature", "geometry": {"type": "MultiPolygon", "coordinates": [[[[-76.029, 37.954], [-76.029, 37.955], [-76.027, 37.954], [-76.028, 37.954], [-76.029, 37.954]]], [[[-76.005, 37.954], [-76.006, 37.954], [-76.007, 37.955], [-76.003, 37.958], [-76.002, 37.957], [-76.004, 37.954], [-76.005, 37.954]]], [[[-77.191, 38.619], [-77.039, 38.792], [-76.909, 38.893], [-77.12, 38.934], [-77.462, 39.076], [-77.458, 39.225], [-77.719, 39.321], [-77.885, 39.616], [-78.182, 39.695], [-78.472, 39.516], [-78.795, 39.61], [-79.487, 39.206], [-79.477, 39.721], [-77.013, 39.72], [-75.789, 39.722], [-75.733, 38.953], [-75.732, 38.939], [-75.694, 38.46], [-75.049, 38.451], [-75.378, 38.015], [-75.648, 37.966], [-76.282, 38.416], [-76.398, 39.29], [-76.527, 38.728], [-76.382, 38.386], [-76.591, 38.216], [-76.926, 38.295], [-77.002, 38.423], [-77.207, 38.36], [-77.191, 38.619]]]]}, "properties": {"name": "Maryland", "iso2": "US-MD", "admin_level": 4, "osm_id": 162112, "countrylevel_id": "iso2:US-MD", "osm_data": {"localname": "Maryland", "official_name": "", "alltags": {"name:ar": "ماريلاند", "name:az": "Merilend", "name:bg": "Мериленд", "name:bn": "মেরিল্যান্ড", "name:br": "Maryland", "name:el": "Μέριλαντ", "name:en": "Maryland", "name:eo": "Marilando", "name:fa": "مریلند", "name:fy": "Marylân", "name:he": "מרילנד", "name:ht": "Merilann", "name:hy": "Մերիլենդ", "name:ja": "メリーランド州", "name:ka": "მერილენდი", "name:ko": "메릴랜드", "name:kw": "Tir Maria", "name:la": "Terra Mariae", "name:lt": "Merilandas", "name:lv": "Mērilenda", "name:ml": "മെരിലാന്‍‌ഡ്", "name:mn": "Мэрилэнд", "name:mr": "मेरीलँड", "name:nv": "Méelin Hahoodzo", "name:pl": "Maryland", "name:ru": "Мэриленд", "name:sr": "Мериленд", "name:ta": "மேரிலாந்து", "name:th": "รัฐแมริแลนด์", "name:uk": "Меріленд", "name:yi": "מארילאנד", "name:zh": "马里兰州", "name:ang": "Marian land", "name:haw": "Melelana", "ref:fips": "24"}}, "center_lat": 39.04, "center_lon": -76.77, "area_m2": 27233628106, "timezone": "America/New_York", "population": 6045680, "wikidata_id": "Q1391", "wikipedia_id": "en:Maryland"}}