{"type": "Feature", "geometry": {"type": "Polygon", "coordinates": [[[-92.267, 46.651], [-92.294, 46.074], [-92.708, 45.895], [-92.869, 45.718], [-92.646, 45.442], [-92.745, 45.296], [-92.808, 44.752], [-92.215, 44.439], [-91.871, 44.198], [-91.438, 44], [-91.245, 43.775], [-91.218, 43.501], [-93.849, 43.5], [-96.453, 43.5], [-96.453, 45.298], [-96.858, 45.606], [-96.561, 45.935], [-96.6, 46.33], [-96.794, 46.631], [-96.85, 47.591], [-97.147, 48.171], [-97.099, 48.659], [-97.229, 49], [-96.407, 49], [-95.919, 48.999], [-95.866, 48.999], [-95.811, 48.999], [-95.633, 48.999], [-95.153, 48.999], [-95.153, 49.181], [-95.153, 49.384], [-95.15, 49.383], [-95.14, 49.376], [-95.129, 49.37], [-95.116, 49.367], [-95.11, 49.366], [-94.826, 49.294], [-94.588, 48.718], [-93.848, 48.631], [-92.985, 48.624], [-92.289, 48.343], [-91.715, 48.2], [-91.43, 48.049], [-91.055, 48.188], [-91.047, 48.189], [-90.57, 48.107], [-90.557, 48.096], [-90.306, 48.105], [-90.293, 48.099], [-89.899, 47.988], [-89.57, 47.999], [-89.975, 47.831], [-90.526, 47.706], [-91.129, 47.399], [-91.365, 47.201], [-92.168, 46.72], [-92.17, 46.719], [-92.201, 46.706], [-92.202, 46.706], [-92.202, 46.705], [-92.267, 46.651]]]}, "properties": {"name": "Minnesota", "iso2": "US-MN", "admin_level": 4, "osm_id": 165471, "countrylevel_id": "iso2:US-MN", "osm_data": {"localname": "Minnesota", "official_name": "", "alltags": {"name:am": "ሚንሶታ", "name:ar": "مينيسوتا", "name:be": "Мінэсота", "name:bg": "Минесота", "name:bn": "মিনেসোটা", "name:br": "Minnesota", "name:el": "Μινεσότα", "name:en": "Minnesota", "name:eo": "Minesoto", "name:eu": "Minesota", "name:fa": "مینه‌سوتا", "name:he": "מינסוטה", "name:hi": "मिनेसोटा", "name:ht": "Minesota", "name:hy": "Մինեսոտա", "name:ja": "ミネソタ州", "name:ka": "მინესოტა", "name:ko": "미네소타", "name:lt": "Minesota", "name:ml": "മിനസോട്ട", "name:mr": "मिनेसोटा", "name:nv": "Mínisóodah Hahoodzo", "name:oc": "Minnesòta", "name:os": "Миннесотæ", "name:pl": "Minnesota", "name:qu": "Minnesota suyu", "name:ru": "Миннесота", "name:sr": "Минесота", "name:ta": "மினசோட்டா", "name:te": "మిన్నసోటా", "name:th": "รัฐมินนิโซตา", "name:tl": "Minesota", "name:uk": "Міннесота", "name:ur": "منیسوٹا", "name:yi": "מינעסאטע", "name:zh": "明尼蘇達州", "name:arc": "ܡܢܝܣܘܬܐ", "name:hak": "Mìn-nì-sû-tha̍t", "name:haw": "Minekoka", "ref:fips": "27", "is_in:country_code": "US"}}, "center_lat": 46.32, "center_lon": -94.31, "area_m2": 218475065299, "timezone": "America/Chicago", "population": 5639632, "wikidata_id": "Q1527", "wikipedia_id": "en:Minnesota"}}