{"type": "Feature", "geometry": {"type": "MultiPolygon", "coordinates": [[[[-70.081, 42.001], [-69.936, 41.775], [-70.014, 41.673], [-70.634, 41.539], [-70.642, 41.649], [-70.621, 41.657], [-70.619, 41.739], [-70.579, 41.752], [-70.555, 41.773], [-70.495, 41.775], [-70.279, 41.709], [-70.004, 41.806], [-70.081, 42.001]]], [[[-71.226, 41.712], [-71.381, 42.019], [-71.799, 42.008], [-73.487, 42.05], [-73.265, 42.746], [-72.458, 42.727], [-71.295, 42.697], [-70.816, 42.872], [-70.969, 42.247], [-70.761, 42.24], [-70.514, 41.788], [-70.555, 41.776], [-70.577, 41.756], [-70.627, 41.739], [-70.649, 41.719], [-70.736, 41.728], [-70.757, 41.654], [-71.12, 41.497], [-71.196, 41.675], [-71.226, 41.712]]]]}, "properties": {"name": "Massachusetts", "iso2": "US-MA", "admin_level": 4, "osm_id": 61315, "countrylevel_id": "iso2:US-MA", "osm_data": {"localname": "Massachusetts", "official_name": "Commonwealth of Massachusetts", "alltags": {"name:ar": "ماساتشوستس", "name:az": "Massaçusets", "name:bg": "Масачузетс", "name:br": "Massachusetts", "name:el": "Μασαχουσέτη", "name:en": "Massachusetts", "name:eo": "Masaĉuseco", "name:eu": "Masachusets", "name:fa": "ماساچوست", "name:he": "מסצ'וסטס", "name:hi": "मसाचुएट्स", "name:hy": "Մասաչուսեթս", "name:ja": "マサチューセッツ州", "name:ka": "მასაჩუსეტსი", "name:ko": "매사추세츠", "name:lt": "Masačusetsas", "name:lv": "Masačūsetsa", "name:nv": "Méésíchóoshish Hahoodzo", "name:pl": "Massachusetts", "name:ru": "Массачусетс", "name:sr": "Масачусетс", "name:ta": "மாசச்சூசெட்ஸ்", "name:th": "รัฐแมสซาชูเซตส์", "name:uk": "Массачусетс", "name:yi": "מאסאטשוסעטס", "name:zh": "马萨诸塞州", "name:haw": "Makakukeka", "ref:fips": "25", "official_name": "Commonwealth of Massachusetts", "is_in:country_code": "US"}}, "center_lat": 42.26, "center_lon": -71.81, "area_m2": 21011851125, "timezone": "America/New_York", "population": 6892503, "wikidata_id": "Q771", "wikipedia_id": "en:Massachusetts"}}