{"type": "Feature", "geometry": {"type": "Polygon", "coordinates": [[[-75.254, 39.853], [-74.772, 40.216], [-75.06, 40.42], [-75.204, 40.692], [-75.136, 40.976], [-74.695, 41.358], [-73.905, 40.998], [-73.934, 40.882], [-74.277, 40.491], [-73.989, 40.407], [-74.06, 40.01], [-74.192, 39.692], [-74.815, 39.068], [-75.386, 39.357], [-75.543, 39.497], [-75.538, 39.497], [-75.517, 39.582], [-75.537, 39.592], [-75.542, 39.594], [-75.542, 39.595], [-75.543, 39.595], [-75.544, 39.596], [-75.556, 39.606], [-75.558, 39.632], [-75.527, 39.656], [-75.526, 39.657], [-75.514, 39.67], [-75.509, 39.686], [-75.51, 39.694], [-75.505, 39.698], [-75.489, 39.715], [-75.488, 39.715], [-75.477, 39.725], [-75.476, 39.733], [-75.475, 39.734], [-75.475, 39.735], [-75.472, 39.739], [-75.254, 39.853]]]}, "properties": {"name": "New Jersey", "iso2": "US-NJ", "admin_level": 4, "osm_id": 224951, "countrylevel_id": "iso2:US-NJ", "osm_data": {"localname": "New Jersey", "official_name": "", "alltags": {"name:an": "Nueba Jersey", "name:ar": "نيو جيرسي", "name:az": "Nyu-Cersi", "name:bg": "Ню Джърси", "name:bn": "নিউ জার্সি", "name:br": "New Jersey", "name:ca": "Nova Jersey", "name:cv": "Çĕнĕ Джерси", "name:el": "Νιού Τζέρσεϊ", "name:en": "New Jersey", "name:eo": "Nov-Ĵerzejo", "name:es": "Nueva Jersey", "name:fa": "نیوجرسی", "name:fy": "Nij Jersey", "name:gd": "Jersey Nuadh", "name:gn": "Pyahu Jersey", "name:gv": "Jersee Noa", "name:he": "ניו ג'רזי", "name:hi": "नया जर्सी", "name:ht": "Nou Jèze", "name:hy": "Նյու Ջերսի", "name:ik": "Tchiaq Jersey", "name:ja": "ニュージャージー州", "name:ka": "ნიუ-ჯერსი", "name:ko": "뉴저지", "name:kw": "Jersi Nowydh", "name:la": "Nova Caesarea", "name:lt": "Naujasis Džersis", "name:lv": "Ņūdžersija", "name:ml": "ന്യൂ ജെഴ്സി", "name:mr": "न्यू जर्सी", "name:nv": "Niijéízii Hahoodzo", "name:oc": "Nòva Jersey", "name:os": "Нью-Джерси", "name:pl": "New Jersey", "name:pt": "Nova Jérsei", "name:ru": "Нью-Джерси", "name:sr": "Њу Џерзи", "name:ta": "நியூ செர்சி", "name:te": "న్యూజెర్సీ", "name:uk": "Нью-Джерсі", "name:ur": "نیو جرسی", "name:uz": "N'yu-Jersi", "name:yi": "ניו זשערסי", "name:zh": "新泽西州", "name:ang": "Nīwe Cēsarēa", "name:arc": "ܢܝܘ ܓܝܪܣܝ", "name:ast": "Nueva Jersey", "name:hak": "Néu Tset-sî", "name:haw": "Nū ‘Ieleke", "name:lad": "Nueva Jersey", "name:nah": "Yancuīc Jersey", "name:pdc": "Nei-Schaersi", "ref:fips": "34", "is_in:country_code": "US"}}, "center_lat": 40.2, "center_lon": -74.67, "area_m2": 19448360002, "timezone": "America/New_York", "population": 8882190, "wikidata_id": "Q1408", "wikipedia_id": "en:New Jersey"}}