{"type": "Feature", "geometry": {"type": "Polygon", "coordinates": [[[-104.053, 43.001], [-102.487, 43], [-100.901, 42.998], [-98.499, 42.999], [-97.95, 42.77], [-97.845, 42.868], [-97.234, 42.851], [-96.866, 42.729], [-96.617, 42.508], [-96.44, 42.49], [-96.162, 41.902], [-96.09, 41.532], [-95.933, 41.464], [-95.767, 40.585], [-95.308, 40], [-96.594, 40.001], [-98.729, 40.002], [-100.192, 40.002], [-102.052, 40.003], [-102.052, 41.002], [-104.053, 41.002], [-104.053, 43.001]]]}, "properties": {"name": "Nebraska", "iso2": "US-NE", "admin_level": 4, "osm_id": 161648, "countrylevel_id": "iso2:US-NE", "osm_data": {"localname": "Nebraska", "official_name": "", "alltags": {"name:ar": "نبراسكا", "name:bn": "নেব্রাস্কা", "name:br": "Nebraska", "name:el": "Νεμπράσκα", "name:en": "Nebraska", "name:eo": "Nebrasko", "name:fa": "نبراسکا", "name:gl": "Nebrasca", "name:he": "נברסקה", "name:hi": "नेब्रास्का", "name:hy": "Նեբրասկա", "name:ja": "ネブラスカ州", "name:ka": "ნებრასკა", "name:kn": "ನೆಬ್ರಾಸ್ಕ", "name:ko": "네브래스카", "name:ml": "നെബ്രാസ്ക", "name:mr": "नेब्रास्का", "name:nv": "Nabeeskah Hahoodzo", "name:os": "Небраскæ", "name:pl": "Nebraska", "name:qu": "Nebraska suyu", "name:ru": "Небраска", "name:sa": "नेब्रास्‍का", "name:ta": "நெப்ராஸ்கா", "name:th": "รัฐเนแบรสกา", "name:uk": "Небраска", "name:ur": "نیبراسکا", "name:yi": "נעבראסקא", "name:zh": "内布拉斯加州", "name:arc": "ܢܝܒܪܐܣܟܐ", "name:hak": "Nui-pu-lâ-sṳ̂-kâ", "name:haw": "Nepalaka", "name:pnb": "نیبراسکا", "ref:fips": "31", "is_in:country_code": "US"}}, "center_lat": 41.53, "center_lon": -99.81, "area_m2": 200504746142, "timezone": "America/Chicago", "population": 1934408, "wikidata_id": "Q1553", "wikipedia_id": "en:Nebraska"}}