{"type": "Feature", "geometry": {"type": "MultiPolygon", "coordinates": [[[[-73.934, 40.882], [-73.905, 40.998], [-74.695, 41.358], [-74.982, 41.48], [-75.114, 41.843], [-75.36, 42], [-77.904, 41.998], [-79.762, 41.999], [-79.762, 42.269], [-79.152, 42.552], [-78.867, 42.771], [-78.906, 42.905], [-79.07, 43.262], [-78.637, 43.357], [-77.761, 43.341], [-77.541, 43.235], [-76.794, 43.309], [-76.161, 43.652], [-76.131, 43.935], [-76.366, 44.11], [-76.004, 44.346], [-75.661, 44.593], [-75.636, 44.609], [-74.973, 44.983], [-74.668, 45.004], [-74.643, 44.999], [-74.637, 44.999], [-73.517, 45.007], [-73.506, 45.007], [-73.453, 45.009], [-73.452, 45.009], [-73.343, 45.011], [-73.382, 44.589], [-73.311, 44.274], [-73.438, 44.045], [-73.247, 43.516], [-73.265, 42.746], [-73.487, 42.05], [-73.551, 41.295], [-73.66, 40.989], [-73.934, 40.882]]], [[[-72.58, 41], [-72.429, 40.86], [-72.869, 40.739], [-73.993, 40.57], [-73.962, 40.74], [-73.566, 40.916], [-72.58, 41]]]]}, "properties": {"name": "New York", "iso2": "US-NY", "admin_level": 4, "osm_id": 61320, "countrylevel_id": "iso2:US-NY", "osm_data": {"localname": "New York", "official_name": "", "alltags": {"name:ar": "نيويورك", "name:az": "Nyu-York", "name:bg": "Ню Йорк", "name:br": "New York", "name:ca": "Nova York", "name:cv": "Çĕнĕ Йорк", "name:cy": "Efrog Newydd", "name:el": "Νέα Υόρκη", "name:en": "New York", "name:eo": "Nov-Jorkio", "name:es": "Nueva York", "name:ga": "Nua-Eabhrac", "name:gd": "Eabhraig Nuadh", "name:gv": "York Noa", "name:he": "ניו יורק", "name:ik": "Tchiaq York", "name:ja": "ニューヨーク州", "name:ka": "ნიუ-იორკი", "name:ko": "뉴욕", "name:la": "Novum Eboracum", "name:lv": "Ņujorka", "name:nv": "Nííyóó Hahoodzo", "name:pl": "Nowy Jork", "name:pt": "Nova Iorque", "name:ru": "Нью-Йорк", "name:sr": "Њујорк", "name:ta": "நியூ யோர்க்", "name:uk": "Нью-Йорк", "name:yi": "ניו יארק", "name:zh": "纽约州", "alt_name": "New York State", "name:chr": "ᏄᏲᎩ", "name:haw": "Nuioka", "name:nah": "Yancuīc York", "ref:fips": "36", "old_name:vi": "Nữu Ước", "is_in:country_code": "US"}}, "center_lat": 42.95, "center_lon": -75.52, "area_m2": 126109452671, "timezone": "America/New_York", "population": 19453561, "wikidata_id": "Q1384", "wikipedia_id": "en:New York (state)"}}