{"type": "Feature", "geometry": {"type": "MultiPolygon", "coordinates": [[[[-75.912, 36.551], [-75.91, 36.551], [-76.014, 36.55], [-75.984, 36.55], [-75.964, 36.551], [-75.922, 36.551], [-75.912, 36.551]]], [[[-78.542, 33.852], [-79.676, 34.805], [-80.797, 34.82], [-80.935, 35.107], [-81.148, 35.156], [-82.291, 35.2], [-83.109, 35.001], [-84.322, 34.988], [-84.291, 35.224], [-84.093, 35.249], [-83.992, 35.441], [-83.771, 35.562], [-83.486, 35.568], [-82.755, 36.004], [-82.55, 35.964], [-82.289, 36.136], [-82.034, 36.121], [-81.739, 36.395], [-81.677, 36.588], [-80.295, 36.544], [-78.51, 36.541], [-76.916, 36.544], [-76.036, 36.551], [-76.012, 36.185], [-76.46, 36.025], [-75.849, 35.962], [-75.734, 35.63], [-76.09, 35.369], [-76.418, 35.426], [-76.598, 35.074], [-76.347, 34.874], [-76.711, 34.72], [-77.117, 34.687], [-77.7, 34.345], [-77.95, 33.901], [-78.542, 33.852]], [[-75.887, 36.55], [-75.867, 36.55], [-75.892, 36.551], [-75.887, 36.55]]]]}, "properties": {"name": "North Carolina", "iso2": "US-NC", "admin_level": 4, "osm_id": 224045, "countrylevel_id": "iso2:US-NC", "osm_data": {"localname": "North Carolina", "official_name": "", "alltags": {"name:af": "Noord-Carolina", "name:ar": "كارولاينا الشمالية", "name:az": "Şimali Karolina", "name:be": "Паўночная Караліна", "name:bg": "Северна Каролина", "name:bn": "নর্থ ক্যারোলাইনা", "name:br": "Norzh Karolina", "name:bs": "Sjeverna Carolina", "name:ca": "Carolina del Nord", "name:cs": "Severní Karolína", "name:cv": "Çурçĕр Каролина", "name:cy": "Gogledd Carolina", "name:el": "Βόρεια Καρολίνα", "name:en": "North Carolina", "name:eo": "Norda Karolino", "name:es": "Carolina del Norte", "name:et": "Põhja-Carolina", "name:eu": "Ipar Carolina", "name:fa": "کارولینای شمالی", "name:fi": "Pohjois-Carolina", "name:fr": "Caroline du Nord", "name:fy": "Noard Karolina", "name:ga": "Carolina Thuaidh", "name:gd": "Carolina a Tuath", "name:gl": "Carolina do Norte", "name:gv": "Carolina Hwoaie", "name:he": "קרוליינה הצפונית", "name:hi": "उत्तर केरोलाइना", "name:hr": "Sjeverna Karolina", "name:ht": "Karolin dinò", "name:hu": "Észak-Karolina", "name:hy": "Հյուսիսային Կարոլինա", "name:id": "Carolina Utara", "name:is": "Norður-Karólína", "name:it": "Carolina del Nord", "name:ja": "ノースカロライナ州", "name:ka": "ჩრდილოეთი კაროლინა", "name:ko": "노스캐롤라이나", "name:kw": "Karolina Gledh", "name:la": "Carolina Septentrionalis", "name:lt": "Šiaurės Karolina", "name:lv": "Ziemeļkarolīna", "name:mk": "Северна Каролина", "name:ml": "വടക്കന് കരൊലൈന", "name:mr": "नॉर्थ कॅरोलिना", "name:ms": "Carolina Utara", "name:no": "Nord-Carolina", "name:nv": "Náhookǫsjí Kééláanah Hahoodzo", "name:oc": "Carolina del Nòrd", "name:os": "Цæгат Каролинæ", "name:pl": "Karolina Północna", "name:pt": "Carolina do Norte", "name:ru": "Северная Каролина", "name:sk": "Severná Karolína", "name:sl": "Severna Karolina", "name:sr": "Северна Каролина", "name:ta": "வட கரொலைனா", "name:th": "รัฐนอร์ทแคโรไลนา", "name:tr": "Kuzey Karolina", "name:uk": "Північна Кароліна", "name:ur": "شمالی کیرولینا", "name:uz": "Shimoliy Karolina", "name:vi": "Bắc Carolina", "name:yi": "צפון קאראליינע", "name:zh": "北卡羅萊那州", "name:ang": "Norþ Carolīna", "name:ast": "Carolina del Norte", "name:diq": "Karolina Zımey", "name:hak": "Pet Khà-lò-lòi-na̍p", "name:lad": "Carolina del Norte", "name:nah": "Carolina Mictlāmpa", "name:scn": "Carolina dû Nord", "name:szl": "Půłnocno Karolina", "ref:fips": "37", "is_in:country_code": "US"}}, "center_lat": 35.54, "center_lon": -79.37, "area_m2": 129230939864, "timezone": "America/New_York", "population": 10488084, "wikidata_id": "Q1454", "wikipedia_id": "en:North Carolina"}}