{"type": "Feature", "geometry": {"type": "Polygon", "coordinates": [[[-67.001, 17.972], [-67.173, 18.024], [-67.197, 18.291], [-67.091, 18.516], [-65.992, 18.461], [-65.624, 18.359], [-65.831, 18.02], [-66.155, 17.93], [-66.766, 18.007], [-67.001, 17.972]]]}, "properties": {"name": "Puerto Rico", "iso2": "US-PR", "admin_level": 4, "osm_id": 4422604, "countrylevel_id": "iso2:US-PR", "osm_data": {"localname": "Puerto Rico", "official_name": "Estado Libre Asociado de Puerto Rico", "alltags": {"name:ar": "بورتوريكو", "name:br": "Puerto Rico", "name:cs": "Portoriko", "name:en": "Puerto Rico", "name:eo": "Puertoriko", "name:es": "Puerto Rico", "name:fa": "پورتوریکو", "name:fo": "Puerto Riko", "name:fr": "Porto Rico", "name:ga": "Pórtó Ríce", "name:hr": "Portoriko", "name:is": "Púertó Ríkó", "name:mk": "Порторико", "name:ru": "Пуэрто-Рико", "name:sk": "Portoriko", "name:sr": "Порторико", "name:uk": "Пуерто-Рико", "name:vo": "Puertorikeäns", "name:zh": "波多黎各", "ref:fips": "72", "alt_name:eo": "Portoriko;Porto-Riko", "is_in:country": "United States", "official_name": "Estado Libre Asociado de Puerto Rico", "is_in:continent": "North America", "official_name:cs": "Portorické společenství", "official_name:en": "Commonwealth of Puerto Rico", "official_name:es": "Estado Libre Asociado de Puerto Rico", "official_name:ru": "Свободно ассоциированное государство Пуэрто-Рико"}, "iso1": "PR"}, "center_lat": 18.22, "center_lon": -66.47, "area_m2": 8982071480, "timezone": "America/Puerto_Rico", "population": 3411307, "wikidata_id": "Q1183", "wikipedia_id": "en:Puerto Rico"}}