{"type": "Feature", "geometry": {"type": "MultiPolygon", "coordinates": [[[[-71.892, 41.33], [-71.889, 41.329], [-71.895, 41.33], [-71.895, 41.331], [-71.892, 41.33]]], [[[-71.837, 41.367], [-71.799, 42.008], [-71.381, 42.019], [-71.226, 41.712], [-71.408, 41.663], [-71.512, 41.376], [-71.837, 41.367]]]]}, "properties": {"name": "Rhode Island", "iso2": "US-RI", "admin_level": 4, "osm_id": 392915, "countrylevel_id": "iso2:US-RI", "osm_data": {"localname": "Rhode Island", "official_name": "State of Rhode Island and Providence Plantations", "alltags": {"name:ar": "رود آيلاند", "name:az": "Rod-Aylend", "name:bg": "Род Айлънд", "name:el": "Ρόουντ Άιλαντ", "name:en": "Rhode Island", "name:eo": "Rod-Insulo", "name:ga": "Oileán Rhode", "name:gv": "Ellan Rhode", "name:he": "רוד איילנד", "name:hy": "Ռոդ Այլենդ", "name:ik": "Rode Qikiqtaq", "name:ja": "ロードアイランド州", "name:ka": "როდ-აილენდი", "name:ko": "로드아일랜드", "name:kw": "Ynys Rhode", "name:la": "Rhodensis Insula", "name:lt": "Rod Ailandas", "name:lv": "Rodailenda", "name:ms": "Pulau Rhode", "name:nv": "Wóód Áalin Hahoodzo", "name:pl": "Rhode Island", "name:ru": "Род-Айленд", "name:sr": "Роуд Ајланд", "name:ta": "றோட் தீவு", "name:uk": "Род-Айленд", "name:yi": "ראוד איילענד", "name:zh": "羅德島州", "name:haw": "Loke ‘Ailana", "ref:fips": "44", "official_name": "State of Rhode Island and Providence Plantations", "is_in:country_code": "US"}}, "center_lat": 41.68, "center_lon": -71.55, "area_m2": 2820418000, "timezone": "America/New_York", "population": 1059361, "wikidata_id": "Q1387", "wikipedia_id": "en:Rhode Island"}}