{"type": "Feature", "geometry": {"type": "Polygon", "coordinates": [[[-97.146, 25.957], [-97.443, 25.848], [-97.667, 26.024], [-98.249, 26.072], [-98.825, 26.371], [-99.111, 26.427], [-99.209, 26.725], [-99.445, 27.02], [-99.479, 27.479], [-99.728, 27.679], [-99.843, 27.77], [-100.336, 28.43], [-100.795, 29.244], [-101.312, 29.586], [-101.4, 29.76], [-102.074, 29.787], [-102.677, 29.741], [-102.839, 29.359], [-103.153, 28.972], [-103.308, 29.004], [-103.783, 29.264], [-104.161, 29.39], [-104.544, 29.681], [-104.68, 29.92], [-104.687, 30.179], [-104.9, 30.571], [-105.387, 30.854], [-105.955, 31.365], [-106.219, 31.48], [-106.528, 31.784], [-106.619, 32.001], [-104.737, 32], [-103.065, 32], [-103.065, 33], [-103.043, 34.9], [-103.042, 36.5], [-103.002, 36.5], [-101.421, 36.5], [-100, 36.5], [-100, 34.561], [-99.696, 34.381], [-99.287, 34.41], [-99.195, 34.227], [-98.766, 34.136], [-98.169, 34.114], [-97.867, 33.85], [-97.65, 33.993], [-97.123, 33.718], [-96.867, 33.853], [-96.292, 33.771], [-95.918, 33.883], [-95.524, 33.887], [-95.52, 33.891], [-95.211, 33.962], [-94.861, 33.743], [-94.486, 33.638], [-94.388, 33.548], [-94.043, 33.552], [-94.043, 33.019], [-94.043, 32.036], [-93.823, 31.774], [-93.564, 30.989], [-93.733, 30.531], [-93.696, 30.151], [-93.922, 29.822], [-93.839, 29.691], [-94.472, 29.518], [-94.738, 29.79], [-95.016, 29.558], [-94.883, 29.379], [-95.383, 28.869], [-96.154, 28.613], [-96.789, 28.189], [-97.2, 27.621], [-97.364, 27.205], [-97.362, 26.855], [-97.183, 26.239], [-97.146, 25.957]]]}, "properties": {"name": "Texas", "iso2": "US-TX", "admin_level": 4, "osm_id": 114690, "countrylevel_id": "iso2:US-TX", "osm_data": {"localname": "Texas", "official_name": "", "alltags": {"name:ar": "تكساس", "name:be": "Тэхас", "name:bg": "Тексас", "name:bn": "টেক্সাস", "name:br": "Texas", "name:cu": "Тє́ѯасъ", "name:el": "Τέξας", "name:en": "Texas", "name:eo": "Teksaso", "name:fa": "تگزاس", "name:fi": "Teksas", "name:fy": "Teksas", "name:he": "טקסס", "name:hi": "टेक्सास", "name:hr": "Teksas", "name:ht": "Teksas", "name:hy": "Տեխաս", "name:ja": "テキサス州", "name:ka": "ტეხასი", "name:kn": "ಟೆಕ್ಸಸ್", "name:ko": "텍사스", "name:kw": "Teksas", "name:lt": "Teksasas", "name:ml": "ടെക്സസ്", "name:mr": "टेक्सास", "name:nv": "Akałii Bikéyah", "name:oc": "Tèxas", "name:pl": "Teksas", "name:qu": "Texas suyu", "name:ru": "Техас", "name:sl": "Teksas", "name:sr": "Тексас", "name:ta": "டெக்சஸ்", "name:te": "టెక్సస్", "name:th": "รัฐเทกซัส", "name:tr": "Teksas", "name:uk": "Техас", "name:ur": "ٹیکساس", "name:yi": "טעקסעס", "name:zh": "得克萨斯州", "name:hak": "Tet-khiet-sat-sṳ̂", "name:haw": "Kekeka", "name:tzl": "Texas", "ref:fips": "48", "is_in:country_code": "US"}}, "center_lat": 31.47, "center_lon": -99.35, "area_m2": 691226366828, "timezone": "America/Chicago", "population": 28995881, "wikidata_id": "Q1439", "wikipedia_id": "en:Texas"}}