{"type": "Feature", "geometry": {"type": "Polygon", "coordinates": [[[-64.904, 17.68], [-64.871, 17.771], [-64.748, 17.784], [-64.736, 17.704], [-64.904, 17.68]]]}, "properties": {"name": "United States Virgin Islands", "iso2": "US-VI", "admin_level": 4, "osm_id": 286898, "countrylevel_id": "iso2:US-VI", "osm_data": {"localname": "United States Virgin Islands", "official_name": "Virgin Islands of the United States", "alltags": {"name:ar": "جزر العذراء الأمريكية", "name:be": "Амерыканскія Віргінскія астравы", "name:br": "Inizi Gwerc'h ar Stadoù-Unanet", "name:cs": "Americké Panenské ostrovy", "name:da": "Amerikanske Jomfruøer", "name:en": "United States Virgin Islands", "name:eo": "Usonaj Virgulinsuloj", "name:es": "Islas Vírgenes de los Estados Unidos", "name:et": "USA Neitsisaared", "name:fa": "جزایر ویرجین ایالات متحده", "name:fi": "Yhdysvaltain Neitsytsaaret", "name:fo": "Amerikonsku Jómfrúoyggjar", "name:fr": "Îles Vierges des États-Unis", "name:hr": "Američki Djevičanski Otoci", "name:is": "Bandarísku Jómfrúaeyjar", "name:it": "Isole Vergini americane", "name:lt": "JAV Mergelių salos", "name:nl": "Amerikaanse Maagdeneilanden", "name:nn": "Dei amerikanske Jomfruøyane", "name:pt": "Ilhas Virgens dos Estados Unidos", "name:ru": "Американские Виргинские острова", "name:sk": "Americké Panenské ostrovy", "name:sr": "Америчка Девичанска Острва", "name:sv": "Amerikanska Jungfruöarna", "name:tr": "ABD Virjin Adaları", "name:vi": "Quần đảo Virgin thuộc Mỹ", "name:yo": "Àwọn Erékùṣù Wúndíá ti Amẹ́ríkà", "name:zh": "美屬維爾京群島", "alt_name": "U.S. Virgin Islands", "name:war": "Kapuropud-an Birhen han Estados Unidos", "ref:fips": "78", "alt_name:en": "U.S. Virgin Islands", "alt_name:tr": "ABD Virgin Adaları", "alt_name:vi": "Quần đảo Virgin thuộc Mĩ", "is_in:country": "United States", "official_name": "Virgin Islands of the United States", "is_in:continent": "North America", "official_name:en": "Virgin Islands of the United States"}, "iso1": "VI"}, "center_lat": 17.96, "center_lon": -64.8, "area_m2": 349905742, "timezone": "America/St_Thomas", "population": 104901, "wikidata_id": "Q11703", "wikipedia_id": "en:United States Virgin Islands"}}