{"type": "Feature", "geometry": {"type": "MultiPolygon", "coordinates": [[[[-76.001, 37.954], [-75.995, 37.953], [-76.003, 37.954], [-76.001, 37.954]]], [[[-76.029, 37.954], [-76.028, 37.954], [-76.028, 37.953], [-76.028, 37.951], [-76.029, 37.953], [-76.03, 37.953], [-76.029, 37.953], [-76.029, 37.954]]], [[[-75.25, 38.027], [-75.242, 38.027], [-75.253, 38.026], [-75.251, 38.027], [-75.25, 38.027]]], [[[-76.036, 36.551], [-76.916, 36.544], [-78.51, 36.541], [-80.295, 36.544], [-81.677, 36.588], [-83.675, 36.601], [-83.195, 36.739], [-82.879, 36.889], [-82.722, 37.12], [-82.349, 37.268], [-81.968, 37.538], [-81.928, 37.361], [-81.678, 37.201], [-81.362, 37.338], [-81.225, 37.235], [-80.552, 37.474], [-80.3, 37.508], [-80.282, 37.698], [-79.787, 38.275], [-79.649, 38.592], [-79.477, 38.457], [-79.211, 38.493], [-78.994, 38.85], [-78.602, 38.965], [-78.404, 39.167], [-78.347, 39.466], [-77.828, 39.132], [-77.719, 39.321], [-77.458, 39.225], [-77.462, 39.076], [-77.12, 38.934], [-77.039, 38.792], [-77.191, 38.619], [-77.247, 38.592], [-77.257, 38.56], [-77.262, 38.559], [-77.262, 38.556], [-77.276, 38.544], [-77.276, 38.542], [-77.276, 38.541], [-77.288, 38.521], [-77.289, 38.519], [-77.316, 38.478], [-77.317, 38.477], [-77.256, 38.332], [-77.255, 38.332], [-77.251, 38.331], [-77.24, 38.331], [-77.235, 38.332], [-77.213, 38.338], [-77.212, 38.339], [-77.195, 38.34], [-77.193, 38.34], [-77.186, 38.341], [-77.181, 38.341], [-77.18, 38.341], [-77.178, 38.341], [-77.178, 38.342], [-77.177, 38.342], [-77.169, 38.344], [-77.165, 38.345], [-77.162, 38.346], [-77.154, 38.352], [-77.153, 38.353], [-77.151, 38.355], [-77.145, 38.362], [-77.144, 38.363], [-77.138, 38.368], [-77.137, 38.368], [-77.136, 38.368], [-77.085, 38.368], [-77.084, 38.369], [-77.079, 38.371], [-77.074, 38.375], [-77.057, 38.396], [-77.055, 38.397], [-77.051, 38.399], [-77.049, 38.399], [-77.028, 38.389], [-77.014, 38.373], [-77.015, 38.372], [-77.016, 38.37], [-77.016, 38.369], [-77.016, 38.368], [-77.015, 38.36], [-77.015, 38.357], [-77.028, 38.307], [-77.028, 38.306], [-77.027, 38.304], [-77.027, 38.303], [-77.023, 38.301], [-77.022, 38.301], [-77.021, 38.301], [-77.017, 38.299], [-77.016, 38.297], [-77.015, 38.295], [-77.013, 38.293], [-77.01, 38.29], [-77.01, 38.289], [-76.991, 38.274], [-76.99, 38.274], [-76.989, 38.274], [-76.987, 38.274], [-76.986, 38.274], [-76.985, 38.274], [-76.984, 38.274], [-76.983, 38.275], [-76.981, 38.274], [-76.979, 38.272], [-76.978, 38.272], [-76.976, 38.27], [-76.974, 38.267], [-76.973, 38.267], [-76.972, 38.266], [-76.971, 38.266], [-76.969, 38.263], [-76.968, 38.262], [-76.967, 38.261], [-76.965, 38.26], [-76.964, 38.259], [-76.963, 38.258], [-76.962, 38.257], [-76.961, 38.255], [-76.961, 38.254], [-76.961, 38.253], [-76.957, 38.24], [-76.958, 38.235], [-76.958, 38.234], [-76.959, 38.233], [-76.961, 38.231], [-76.898, 38.187], [-76.891, 38.184], [-76.89, 38.183], [-76.888, 38.181], [-76.886, 38.18], [-76.884, 38.178], [-76.883, 38.177], [-76.882, 38.176], [-76.881, 38.175], [-76.88, 38.175], [-76.879, 38.174], [-76.878, 38.174], [-76.878, 38.173], [-76.871, 38.171], [-76.858, 38.17], [-76.845, 38.165], [-76.837, 38.163], [-76.833, 38.163], [-76.808, 38.167], [-76.807, 38.167], [-76.785, 38.169], [-76.784, 38.169], [-76.583, 38.097], [-76.582, 38.097], [-76.581, 38.096], [-76.565, 38.088], [-76.561, 38.087], [-76.546, 38.079], [-76.543, 38.077], [-76.538, 38.076], [-76.535, 38.071], [-76.533, 38.062], [-76.533, 38.061], [-76.528, 38.056], [-76.528, 38.055], [-76.527, 38.054], [-76.507, 38.023], [-76.505, 38.022], [-76.35, 37.949], [-76.318, 37.935], [-76.312, 37.932], [-76.311, 37.932], [-76.287, 37.92], [-76.281, 37.918], [-76.28, 37.917], [-76.279, 37.917], [-76.278, 37.916], [-76.277, 37.916], [-76.275, 37.915], [-76.274, 37.915], [-76.272, 37.914], [-76.271, 37.914], [-76.42, 37.223], [-76.326, 36.963], [-75.993, 36.918], [-75.867, 36.55], [-75.887, 36.55], [-75.943, 36.724], [-75.993, 36.634], [-75.984, 36.55], [-76.014, 36.55], [-76.035, 36.551], [-76.036, 36.551]]]]}, "properties": {"name": "Virginia", "iso2": "US-VA", "admin_level": 4, "osm_id": 224042, "countrylevel_id": "iso2:US-VA", "osm_data": {"localname": "Virginia", "official_name": "", "alltags": {"name:af": "Virginië", "name:an": "Birchinia", "name:ar": "فيرجينيا", "name:az": "Virciniya", "name:be": "Вірджынія", "name:bg": "Вирджиния", "name:bn": "ভার্জিনিয়া", "name:ca": "Virgínia", "name:cs": "Virginie", "name:cv": "Вирджини", "name:el": "Βιρτζίνια", "name:en": "Virginia", "name:eo": "Virginio", "name:fa": "ویرجینیا", "name:fr": "Virginie", "name:fy": "Firginia", "name:gl": "Virxinia", "name:gv": "Yn Virjeeney", "name:he": "וירג'יניה", "name:ht": "Vijini", "name:hy": "Վիրջինիա", "name:is": "Virginía", "name:ja": "バージニア州", "name:ka": "ვირჯინია", "name:kn": "ವರ್ಜೀನಿಯ", "name:ko": "버지니아", "name:kw": "Virjynni", "name:lt": "Virdžinija", "name:lv": "Virdžīnija", "name:mg": "Virjinia", "name:mk": "Вирџинија", "name:ml": "വിര്‍ജീനിയ", "name:mn": "Виржини", "name:mr": "व्हर्जिनिया", "name:nv": "Bijíniyah Hahoodzo", "name:oc": "Virgínia", "name:os": "Вирджини", "name:pl": "Wirginia", "name:pt": "Virgínia", "name:qu": "Virginia suyu", "name:ru": "Виргиния", "name:sk": "Virgínia", "name:sl": "Virginija", "name:sr": "Вирџинија", "name:ta": "வர்ஜீனியா", "name:te": "వర్జీనియా", "name:th": "รัฐเวอร์จิเนีย", "name:tr": "Virjinya", "name:uk": "Вірджинія", "name:ur": "ورجینیا", "name:uz": "Virjiniya", "name:yi": "ווירזשיניע", "name:zh": "維珍尼亞州", "name:hak": "Vì-kit-nì-â", "name:haw": "Wilikinia", "name:pdc": "Wirschini", "name:szl": "Wirgińijo", "ref:fips": "51", "border_type": "state", "is_in:country_code": "US"}}, "center_lat": 37.52, "center_lon": -78.83, "area_m2": 104368710729, "timezone": "America/New_York", "population": 8535519, "wikidata_id": "Q1370", "wikipedia_id": "en:Virginia"}}