{"type": "Feature", "geometry": {"type": "Polygon", "coordinates": [[[-122.758, 49.002], [-122.757, 49.002], [-120.645, 49], [-120.597, 49], [-120.403, 49], [-120.348, 49], [-119.843, 49], [-119.789, 49], [-119.757, 49], [-119.736, 49], [-119.701, 49], [-118.803, 49], [-118.794, 49], [-118.787, 49], [-118.777, 49], [-118.761, 49], [-118.504, 49], [-118.503, 49], [-118.498, 49], [-117.032, 48.999], [-117.042, 47.839], [-117.04, 46.425], [-116.917, 45.997], [-118.987, 46], [-119.623, 45.906], [-120.211, 45.726], [-120.635, 45.746], [-121.085, 45.648], [-121.811, 45.707], [-122.267, 45.544], [-122.764, 45.657], [-122.959, 46.103], [-123.481, 46.274], [-124.022, 46.314], [-123.895, 46.548], [-124.091, 46.744], [-124.047, 46.894], [-124.336, 47.405], [-124.491, 47.82], [-124.687, 48.098], [-124.66, 48.391], [-124.051, 48.178], [-122.801, 48.087], [-122.526, 47.912], [-122.529, 47.293], [-122.324, 47.349], [-122.43, 47.663], [-122.307, 47.949], [-122.509, 48.361], [-122.535, 48.775], [-122.758, 49.002]]]}, "properties": {"name": "Washington", "iso2": "US-WA", "admin_level": 4, "osm_id": 165479, "countrylevel_id": "iso2:US-WA", "osm_data": {"localname": "Washington", "official_name": "", "alltags": {"name:ar": "واشنطن", "name:az": "Vaşinqton", "name:bg": "Вашингтон", "name:bn": "ওয়াশিংটন", "name:el": "Ουάσιγκτων", "name:en": "Washington", "name:eo": "Vaŝingtonio", "name:fa": "واشنگتن", "name:he": "וושינגטון", "name:hi": "वाशिंगटन", "name:ht": "Wachintòn", "name:hy": "Վաշինգտոն", "name:ja": "ワシントン州", "name:ka": "ვაშინგტონი", "name:ko": "워싱턴", "name:lt": "Vašingtonas", "name:lv": "Vašingtona", "name:ml": "വാഷിങ്ടണ്", "name:nv": "Wááshindoon Hahoodzo", "name:pl": "Waszyngton", "name:qu": "Washington suyu", "name:ru": "Вашингтон", "name:sr": "Вашингтон", "name:ta": "வாஷிங்டன்", "name:th": "รัฐวอชิงตัน", "name:tr": "Vaşington", "name:uk": "Вашингтон", "name:yi": "וואשינגטאן", "name:zh": "华盛顿州", "name:ang": "Hƿæsingatūn", "name:haw": "Wakinekona", "ref:fips": "53", "alt_name:el": "Ουάσινγκτον", "alt_name:en": "Washington State", "is_in:country_code": "US"}}, "center_lat": 47.38, "center_lon": -120.44, "area_m2": 174842776399, "timezone": "America/Los_Angeles", "population": 7614893, "wikidata_id": "Q1223", "wikipedia_id": "en:Washington (state)"}}