{"type": "Feature", "geometry": {"type": "Polygon", "coordinates": [[[39.45, -7.183], [39.322, -6.949], [39.054, -6.79], [39.121, -6.566], [39.201, -6.638], [39.202, -6.639], [39.272, -6.755], [39.272, -6.754], [39.274, -6.743], [39.275, -6.743], [39.283, -6.736], [39.286, -6.828], [39.288, -6.828], [39.297, -6.843], [39.298, -6.844], [39.297, -6.845], [39.3, -6.853], [39.296, -6.859], [39.295, -6.859], [39.286, -6.87], [39.294, -6.872], [39.305, -6.858], [39.307, -6.852], [39.296, -6.827], [39.295, -6.826], [39.472, -6.873], [39.552, -7.019], [39.551, -7.019], [39.551, -7.02], [39.55, -7.02], [39.55, -7.022], [39.548, -7.024], [39.548, -7.026], [39.547, -7.028], [39.546, -7.029], [39.546, -7.03], [39.545, -7.032], [39.545, -7.033], [39.545, -7.034], [39.545, -7.036], [39.545, -7.037], [39.546, -7.039], [39.546, -7.04], [39.546, -7.044], [39.546, -7.045], [39.547, -7.048], [39.546, -7.049], [39.546, -7.05], [39.546, -7.067], [39.547, -7.068], [39.547, -7.069], [39.547, -7.07], [39.542, -7.073], [39.524, -7.133], [39.523, -7.134], [39.524, -7.138], [39.524, -7.14], [39.525, -7.141], [39.524, -7.141], [39.515, -7.159], [39.515, -7.16], [39.469, -7.169], [39.467, -7.17], [39.45, -7.183]]]}, "properties": {"name": "Dar es Salaam", "iso2": "TZ-02", "admin_level": 4, "osm_id": 7202037, "countrylevel_id": "iso2:TZ-02", "osm_data": {"localname": "Dar es Salaam", "official_name": "", "alltags": {"name:ar": "دار السلام", "name:da": "Dar es-Salaam", "name:el": "Νταρ ες Σαλάμ", "name:en": "Dar es Salaam", "name:fr": "Dar es Salam", "name:he": "דאר א-סלאם", "name:hi": "दार अस सलाम", "name:ja": "ダルエスサラーム", "name:kn": "ದಾರ್ ಅಸ್ ಸಲಾಮ್", "name:ko": "다르에스살람", "name:lt": "Dar es Salamas", "name:pl": "Dar es Salaam", "name:ru": "Дар-эс-Салам", "name:uk": "Дар-ес-Салам", "name:zh": "達累斯薩拉姆", "alt_name": "Dar Es Salam", "is_in:country": "Tanzania", "is_in:continent": "Africa"}}, "center_lat": -6.89, "center_lon": 39.26, "area_m2": 1686745354, "timezone": "Africa/Dar_es_Salaam", "population": 4364541, "wikidata_id": "Q557539", "wikipedia_id": "en:Dar es Salaam Region"}}