{"type": "Feature", "geometry": {"type": "Polygon", "coordinates": [[[89.863, 26.702], [89.997, 26.728], [90.418, 26.905], [90.691, 26.772], [90.962, 26.789], [91.01, 26.788], [91.724, 26.814], [92.116, 26.894], [92.659, 27.038], [93.019, 26.917], [93.659, 26.967], [94.288, 27.592], [94.586, 27.62], [95.605, 27.955], [95.965, 27.952], [95.778, 27.742], [95.96, 27.31], [95.456, 27.204], [95.195, 27.033], [94.403, 26.611], [94.047, 26.249], [93.901, 25.871], [93.704, 25.852], [93.402, 25.61], [93.471, 25.305], [93.382, 25.24], [93.009, 24.412], [92.679, 24.348], [92.525, 24.172], [92.297, 24.252], [92.215, 24.503], [92.424, 24.853], [92.424, 25.032], [92.792, 25.286], [92.643, 25.535], [92.368, 25.747], [92.144, 25.718], [92.164, 25.971], [91.823, 26.118], [91.552, 25.986], [91.224, 25.723], [90.954, 25.935], [90.632, 25.92], [90.474, 26.009], [90.025, 25.896], [89.894, 25.731], [89.853, 25.467], [89.833, 25.87], [89.719, 26.166], [89.825, 26.373], [89.863, 26.702]]]}, "properties": {"name": "Assam", "iso2": "IN-AS", "admin_level": 4, "osm_id": 2025886, "countrylevel_id": "iso2:IN-AS", "osm_data": {"localname": "Assam", "official_name": "", "alltags": {"name:as": "অসম", "name:bn": "অসম", "name:cs": "Ásám", "name:en": "Assam", "name:eo": "Asamo", "name:es": "Assam", "name:fr": "Assam", "name:hi": "असम", "name:ja": "アッサム", "name:kn": "ಅಸಂ", "name:ku": "Assam", "name:pa": "ਅਸਾਮ", "name:ru": "Ассам", "name:ta": "அசாம்", "name:uk": "Ассам", "name:zh": "阿萨姆邦", "is_in:country": "India", "is_in:continent": "Asia", "is_in:country_code": "IN"}}, "center_lat": 26.36, "center_lon": 92.83, "area_m2": 78864715555, "timezone": "Asia/Kolkata", "population": 31205576, "wikidata_id": "Q1164", "wikipedia_id": "en:Assam"}}