{"type": "Feature", "geometry": {"type": "Polygon", "coordinates": [[[80.661, 21.334], [80.734, 21.728], [80.839, 21.801], [80.908, 22.11], [81.022, 22.134], [81.11, 22.441], [81.427, 22.479], [81.793, 22.766], [81.927, 23.057], [82.159, 23.162], [82.199, 23.314], [81.735, 23.565], [81.824, 23.808], [82.478, 23.806], [82.81, 23.963], [83.142, 23.886], [83.328, 24.102], [83.515, 24.028], [83.772, 23.611], [83.936, 23.569], [84.031, 23.159], [84.148, 22.987], [84.395, 22.927], [84.008, 22.526], [84, 22.374], [83.627, 22.206], [83.443, 21.655], [83.197, 21.147], [82.639, 21.155], [82.559, 20.948], [82.339, 20.849], [82.426, 20.469], [82.4, 20.056], [82.269, 19.977], [81.869, 20.04], [82.061, 19.796], [82.048, 19.538], [82.247, 18.92], [81.962, 18.596], [81.539, 18.27], [81.394, 17.795], [81.082, 17.794], [80.951, 18.089], [80.735, 18.222], [80.612, 18.546], [80.273, 18.724], [80.329, 19.137], [80.481, 19.336], [80.759, 19.291], [80.895, 19.519], [80.554, 19.764], [80.491, 19.901], [80.626, 20.336], [80.627, 20.6], [80.48, 21.171], [80.661, 21.334]]]}, "properties": {"name": "Chhattisgarh", "iso2": "IN-CT", "admin_level": 4, "osm_id": 1972004, "countrylevel_id": "iso2:IN-CT", "osm_data": {"localname": "Chhattisgarh", "official_name": "", "alltags": {"name:ar": "شتيس غره", "name:bn": "ছত্তীসগঢ়", "name:cs": "Čhattísgarh", "name:en": "Chhattisgarh", "name:eo": "Ĉatisgaro", "name:es": "Chhattisgarh", "name:fr": "Chhattisgarh", "name:hi": "छत्तीसगढ़", "name:ja": "チャッティースガル", "name:kn": "ಛತ್ತೀಸ್‌ಘಡ್", "name:ku": "Chhattisgarh", "name:ml": "ഛത്തീസ്‌ഗഢ്", "name:pa": "ਛੱਤੀਸਗੜ੍ਹ", "name:ru": "Чхаттисгарх", "name:ta": "சத்தீசுகர்", "name:uk": "Чхаттісґарх", "name:ur": "چھتیس گڑھ", "name:zh": "恰蒂斯加尔邦", "alt_name": "Chattisgarh", "alt_name:ar": "تشاتيسغار;تشهاتيسجاره", "is_in:country": "India", "is_in:continent": "Asia", "is_in:country_code": "IN"}}, "center_lat": 21.27, "center_lon": 82.04, "area_m2": 135839697893, "timezone": "Asia/Kolkata", "population": 25545198, "wikidata_id": "Q1168", "wikipedia_id": "en:Chhattisgarh"}}