{"type": "Feature", "geometry": {"type": "Polygon", "coordinates": [[[83.328, 24.102], [83.502, 24.526], [83.933, 24.548], [84.296, 24.473], [84.425, 24.33], [84.826, 24.525], [84.915, 24.373], [85.124, 24.401], [85.568, 24.594], [85.736, 24.821], [86.301, 24.56], [86.517, 24.535], [86.943, 24.652], [87.147, 25.021], [87.318, 25.195], [87.713, 25.257], [87.958, 24.973], [87.689, 24.145], [87.291, 23.893], [86.8, 23.687], [86.465, 23.631], [86.289, 23.429], [85.876, 23.481], [85.82, 23.267], [86.225, 22.994], [86.498, 22.993], [86.429, 22.781], [86.766, 22.576], [86.845, 22.4], [86.725, 22.218], [86.444, 22.303], [86.283, 22.448], [85.973, 22.505], [86.009, 22.115], [85.891, 21.978], [85.367, 22.16], [85.253, 22.03], [85.029, 22.161], [84.911, 22.423], [84.481, 22.414], [84.295, 22.343], [84.008, 22.526], [84.395, 22.927], [84.148, 22.987], [84.031, 23.159], [83.936, 23.569], [83.772, 23.611], [83.515, 24.028], [83.328, 24.102]]]}, "properties": {"name": "Jharkhand", "iso2": "IN-JH", "admin_level": 4, "osm_id": 1960191, "countrylevel_id": "iso2:IN-JH", "osm_data": {"localname": "Jharkhand", "official_name": "", "alltags": {"name:ar": "جاركند", "name:cs": "Džhárkhand", "name:en": "Jharkhand", "name:eo": "Ĝarkhando", "name:es": "Jharkhand", "name:fa": "جارکند", "name:fr": "Jharkhand", "name:hi": "झारखण्ड", "name:ja": "ジャールカンド", "name:kn": "ಝಾರ್ಖಂಡ್", "name:ks": "جھارکھنڈ", "name:ku": "Carkand", "name:pa": "ਝਾਰਖੰਡ", "name:ps": "جارکنډ", "name:ru": "Джаркханд", "name:ta": "சார்க்கண்ட்", "name:uk": "Джхаркханд", "name:ur": "جھارکھنڈ", "name:zh": "贾坎德邦", "alt_name": "झारखंड", "name:azb": "جارکند", "name:lrc": "جارکأند", "name:pnb": "جھاڑکھنڈ", "alt_name:ar": "جهارخاند;تجاركاند", "is_in:country": "India", "is_in:continent": "Asia", "is_in:country_code": "IN"}}, "center_lat": 23.66, "center_lon": 85.56, "area_m2": 80209759168, "timezone": "Asia/Kolkata", "population": 32988134, "wikidata_id": "Q1184", "wikipedia_id": "en:Jharkhand"}}