{"type": "Feature", "geometry": {"type": "Polygon", "coordinates": [[[75.366, 34.538], [75.785, 34.514], [77.047, 35.051], [77.007, 35.294], [76.759, 35.518], [76.776, 35.658], [77.381, 35.473], [77.719, 35.461], [78.013, 35.362], [78.049, 35.114], [78.201, 34.973], [78.29, 34.615], [78.71, 34.526], [79.037, 34.335], [78.742, 34], [78.696, 33.688], [78.836, 33.427], [79.163, 33.167], [79.16, 33.015], [79.461, 32.71], [79.399, 32.604], [78.968, 32.336], [78.723, 32.674], [78.395, 32.531], [78.388, 32.755], [78.016, 32.62], [77.731, 32.974], [77.374, 32.825], [76.971, 33.001], [76.772, 33.249], [76.047, 33.931], [75.406, 34.285], [75.366, 34.538]]]}, "properties": {"name": "Ladakh", "iso2": "IN-LA", "admin_level": 4, "osm_id": 5515045, "countrylevel_id": "iso2:IN-LA", "osm_data": {"localname": "Ladakh", "official_name": "", "alltags": {"name:ar": "لداخ", "name:bo": "ལ་དྭགས", "name:en": "Ladakh", "name:fa": "لداخ", "name:hi": "लद्दाख़", "name:ja": "ラダック", "name:ur": "لداخ", "name:zh": "拉達克", "alt_name:ur": "لَدّاخ"}}, "center_lat": 33.97, "center_lon": 77.58, "area_m2": 64930063504, "timezone": "Asia/Kolkata", "population": 274289, "wikidata_id": "Q200667", "wikipedia_id": "en:Ladakh"}}