{"type": "Feature", "geometry": {"type": "Polygon", "coordinates": [[[93.009, 24.412], [93.382, 25.24], [93.471, 25.305], [93.627, 25.242], [93.809, 25.472], [94.022, 25.59], [94.221, 25.492], [94.419, 25.54], [94.682, 25.457], [94.586, 25.268], [94.725, 25.134], [94.714, 24.93], [94.455, 24.57], [94.14, 23.834], [93.757, 24.006], [93.51, 23.946], [93.325, 24.049], [92.992, 24.116], [93.009, 24.412]]]}, "properties": {"name": "Manipur", "iso2": "IN-MN", "admin_level": 4, "osm_id": 2027869, "countrylevel_id": "iso2:IN-MN", "osm_data": {"localname": "Manipur", "official_name": "", "alltags": {"name:as": "মণিপুৰ", "name:bn": "মণিপুর", "name:cs": "Manípur", "name:en": "Manipur", "name:eo": "Manipuro", "name:hi": "मणिपुर", "name:ja": "マニプル", "name:kn": "ಮಣಿಪುರ", "name:ku": "Manîpur", "name:pa": "ਮਣੀਪੁਰ", "name:ru": "Манипур", "name:ta": "மணிப்பூர்", "name:uk": "Маніпур", "name:zh": "曼尼普尔邦", "is_in:country_code": "IN"}}, "center_lat": 24.74, "center_lon": 93.88, "area_m2": 22447083130, "timezone": "Asia/Kolkata", "population": 2855794, "wikidata_id": "Q1193", "wikipedia_id": "en:Manipur"}}