{"type": "Feature", "geometry": {"type": "Polygon", "coordinates": [[[95.195, 27.033], [95.234, 26.682], [95.073, 26.473], [95.12, 26.099], [95.038, 25.74], [94.682, 25.457], [94.419, 25.54], [94.221, 25.492], [94.022, 25.59], [93.809, 25.472], [93.627, 25.242], [93.471, 25.305], [93.402, 25.61], [93.704, 25.852], [93.901, 25.871], [94.047, 26.249], [94.403, 26.611], [95.195, 27.033]]]}, "properties": {"name": "Nagaland", "iso2": "IN-NL", "admin_level": 4, "osm_id": 2027973, "countrylevel_id": "iso2:IN-NL", "osm_data": {"localname": "Nagaland", "official_name": "", "alltags": {"name:as": "নাগালেণ্ড", "name:bn": "নাগাল্যান্ড", "name:cs": "Nágáland", "name:en": "Nagaland", "name:eo": "Nagalando", "name:hi": "नागालैण्ड", "name:ja": "ナガランド", "name:kn": "ನಾಗಲಾಂಡ್", "name:ku": "Nagaland", "name:pa": "ਨਾਗਾਲੈਂਡ", "name:ru": "Нагаленд", "name:ta": "நாகாலாந்து", "name:uk": "Наґаленд", "name:zh": "那加兰邦", "alt_name:hi": "नागालैंड", "is_in:country_code": "IN"}}, "center_lat": 26.06, "center_lon": 94.47, "area_m2": 16639719823, "timezone": "Asia/Kolkata", "population": 1978502, "wikidata_id": "Q1599", "wikipedia_id": "en:Nagaland"}}