{"type": "Feature", "geometry": {"type": "Polygon", "coordinates": [[[70.184, 27.855], [70.506, 28.037], [70.759, 27.721], [71.206, 27.835], [71.666, 27.878], [71.898, 27.961], [71.927, 28.122], [72.206, 28.394], [72.404, 28.783], [72.946, 29.028], [73.282, 29.572], [73.397, 29.946], [73.807, 30.068], [73.973, 30.198], [73.894, 29.974], [74.526, 29.942], [74.614, 29.754], [74.607, 29.355], [74.939, 29.362], [75.119, 29.223], [75.389, 29.261], [75.52, 29.002], [75.562, 28.613], [76.027, 28.275], [75.939, 27.913], [76.365, 28.137], [76.58, 27.979], [76.796, 28.149], [76.97, 28.139], [76.9, 27.678], [77.283, 27.802], [77.342, 27.525], [77.651, 27.234], [77.555, 26.818], [77.81, 26.924], [78.124, 26.949], [78.221, 26.832], [77.272, 26.269], [76.899, 26.092], [76.475, 25.713], [76.599, 25.392], [76.947, 25.281], [77.365, 25.417], [77.393, 25.119], [76.877, 25.042], [77.054, 24.526], [76.676, 24.191], [76.324, 24.246], [76.117, 24.194], [75.938, 23.898], [75.701, 23.967], [75.909, 24.455], [75.785, 24.762], [75.645, 24.685], [75.228, 24.717], [75.338, 24.953], [75.195, 25.033], [74.993, 24.692], [74.744, 24.572], [74.782, 24.339], [74.971, 24.039], [74.936, 23.628], [74.607, 23.453], [74.591, 23.14], [74.319, 23.061], [74.134, 23.265], [73.627, 23.451], [73.354, 23.853], [73.361, 24.083], [73.068, 24.194], [73.148, 24.357], [72.732, 24.363], [72.543, 24.518], [72.052, 24.711], [71.926, 24.635], [71.096, 24.689], [70.888, 25.148], [70.665, 25.397], [70.674, 25.676], [70.269, 25.714], [70.1, 25.938], [70.174, 26.551], [69.886, 26.579], [69.51, 26.744], [69.587, 27.183], [70.026, 27.563], [70.184, 27.855]]]}, "properties": {"name": "Rajasthan", "iso2": "IN-RJ", "admin_level": 4, "osm_id": 1942920, "countrylevel_id": "iso2:IN-RJ", "osm_data": {"localname": "Rajasthan", "official_name": "", "alltags": {"name:ar": "راجستان", "name:cs": "Rádžasthán", "name:en": "Rajasthan", "name:eo": "Raĝastano", "name:es": "Rajastán", "name:fr": "Rajasthan", "name:gu": "રાજસ્થાન", "name:hi": "राजस्थान", "name:ja": "ラージャスターン", "name:kn": "ರಾಜಸ್ಥಾನ", "name:ko": "라자스탄 주", "name:ku": "Racastan", "name:pa": "ਰਾਜਸਥਾਨ", "name:ru": "Раджастхан", "name:ta": "இராசத்தான்", "name:uk": "Раджастхан", "name:ur": "راجستھان", "name:zh": "拉贾斯坦邦", "is_in:country": "India", "is_in:continent": "Asia", "is_in:country_code": "IN"}}, "center_lat": 26.58, "center_lon": 73.85, "area_m2": 343545870931, "timezone": "Asia/Kolkata", "population": 68548437, "wikidata_id": "Q1437", "wikipedia_id": "en:Rajasthan"}}