{"type": "Feature", "geometry": {"type": "Polygon", "coordinates": [[[77.102, 8.289], [77.098, 8.292], [77.261, 8.506], [77.15, 9.01], [77.337, 9.415], [77.168, 9.615], [77.276, 10.189], [77.177, 10.358], [76.986, 10.223], [76.829, 10.307], [76.907, 10.782], [76.662, 10.929], [76.748, 11.136], [76.547, 11.359], [76.285, 11.484], [76.431, 11.666], [76.834, 11.649], [76.907, 11.796], [77.293, 11.809], [77.676, 11.952], [77.731, 12.18], [77.614, 12.362], [77.6, 12.666], [77.832, 12.868], [78.231, 12.761], [78.372, 12.626], [78.557, 12.698], [78.644, 12.949], [78.82, 13.089], [79.081, 13.026], [79.439, 13.217], [79.932, 13.351], [79.972, 13.468], [80.269, 13.563], [80.315, 13.18], [80.315, 13.179], [80.314, 13.177], [80.3, 13.144], [80.3, 13.143], [80.306, 13.101], [80.307, 13.101], [80.255, 12.781], [80.068, 12.349], [80.067, 12.348], [79.875, 12.042], [79.859, 12.009], [79.841, 11.958], [79.692, 11.951], [79.741, 11.906], [79.709, 11.889], [79.74, 11.864], [79.77, 11.875], [79.781, 11.856], [79.801, 11.855], [79.808, 11.845], [79.806, 11.842], [79.806, 11.837], [79.808, 11.836], [79.807, 11.834], [79.807, 11.832], [79.796, 11.785], [79.782, 11.719], [79.781, 11.706], [79.781, 11.705], [79.854, 10.983], [79.852, 10.984], [79.851, 10.988], [79.851, 10.994], [79.747, 11.002], [79.723, 10.93], [79.852, 10.828], [79.882, 10.314], [79.405, 10.318], [79.247, 10.028], [78.934, 9.607], [78.934, 9.606], [78.957, 9.387], [78.96, 9.384], [78.588, 9.139], [78.587, 9.138], [78.21, 8.96], [78.162, 8.793], [78.163, 8.793], [78.077, 8.435], [78.076, 8.434], [77.848, 8.255], [77.846, 8.255], [77.534, 8.078], [77.532, 8.078], [77.525, 8.08], [77.109, 8.284], [77.107, 8.285], [77.102, 8.289]]]}, "properties": {"name": "Tamil Nadu", "iso2": "IN-TN", "admin_level": 4, "osm_id": 96905, "countrylevel_id": "iso2:IN-TN", "osm_data": {"localname": "Tamil Nadu", "official_name": "", "alltags": {"name:ar": "تاميل نادو", "name:cs": "Tamilnádu", "name:en": "Tamil Nadu", "name:eo": "Tamilujo", "name:hi": "तमिलनाडु", "name:ja": "タミル・ナードゥ", "name:kn": "ತಮಿಳುನಾಡು", "name:ko": "타밀나두 주", "name:ku": "Tamil Nadu", "name:ml": "തമിഴ്‌നാട്", "name:pa": "ਤਮਿਲ਼ਨਾਡੂ", "name:ru": "Тамилнад", "name:ta": "தமிழ்நாடு", "name:te": "తమిళనాడు", "name:uk": "Таміл-Наду", "name:ur": "تمل ناڈو", "name:zh": "泰米尔纳德邦", "alt_name:eo": "Tamilnado", "alt_name:pa": "ਤਮਿਲਨਾਡੂ", "is_in:country_code": "IN"}}, "center_lat": 11.01, "center_lon": 78.41, "area_m2": 130855482300, "timezone": "Asia/Kolkata", "population": 72147030, "wikidata_id": "Q1445", "wikipedia_id": "en:Tamil Nadu"}}