{"type": "Feature", "geometry": {"type": "Polygon", "coordinates": [[[78.883, 31.286], [79.075, 31.459], [79.321, 31.139], [79.601, 30.939], [79.857, 30.975], [80.249, 30.72], [80.209, 30.588], [80.607, 30.471], [81.034, 30.197], [80.601, 29.958], [80.303, 29.454], [80.271, 29.146], [80.064, 28.84], [79.707, 28.843], [78.918, 29.136], [78.511, 29.725], [78.332, 29.796], [77.972, 29.58], [77.717, 29.863], [77.946, 30.233], [77.575, 30.398], [77.784, 30.502], [77.719, 30.773], [77.9, 31.151], [78.389, 31.28], [78.489, 31.197], [78.883, 31.286]]]}, "properties": {"name": "Uttarakhand", "iso2": "IN-UT", "admin_level": 4, "osm_id": 9987086, "countrylevel_id": "iso2:IN-UT", "osm_data": {"localname": "Uttarakhand", "official_name": "", "alltags": {"name:ar": "أتراكند", "name:cs": "Uttarákhand", "name:en": "Uttarakhand", "name:eo": "Utarakando", "name:es": "Uttarakhand", "name:fa": "اتراکند", "name:fr": "Uttarakhand", "name:hi": "उत्तराखण्ड", "name:ja": "ウッタラーカンド", "name:kn": "ಉತ್ತರಾಖಂಡ", "name:ku": "Uttarakand", "name:pa": "ਉੱਤਰਾਖੰਡ", "name:ru": "Уттаракханд", "name:ta": "உத்தராகண்டம்", "name:uk": "Уттаракганд", "name:ur": "اتراکھنڈ", "name:zh": "北安恰尔邦", "alt_name": "उत्तराखंड", "alt_name:ar": "أوتاراخند", "alt_name:fa": "اوتاراکند", "old_name:uk": "Уттаракханд", "wikipedia:ur": "اتراکھنڈ"}}, "center_lat": 30.16, "center_lon": 79.21, "area_m2": 53596422730, "timezone": "Asia/Kolkata", "population": 10086292, "wikidata_id": "Q1499", "wikipedia_id": "en:Uttarakhand"}}