{"type": "Feature", "geometry": {"type": "Polygon", "coordinates": [[[-2.952, 35.32], [-2.949, 35.316], [-2.946, 35.316], [-2.946, 35.313], [-2.947, 35.31], [-2.946, 35.308], [-2.941, 35.303], [-2.939, 35.304], [-2.936, 35.3], [-2.937, 35.299], [-2.932, 35.294], [-2.925, 35.293], [-2.925, 35.291], [-2.929, 35.291], [-2.936, 35.292], [-2.935, 35.288], [-2.937, 35.286], [-2.937, 35.282], [-2.935, 35.278], [-2.933, 35.276], [-2.927, 35.274], [-2.929, 35.272], [-2.939, 35.267], [-2.951, 35.266], [-2.954, 35.273], [-2.961, 35.277], [-2.966, 35.281], [-2.968, 35.282], [-2.967, 35.286], [-2.965, 35.289], [-2.97, 35.289], [-2.97, 35.294], [-2.968, 35.301], [-2.966, 35.306], [-2.96, 35.316], [-2.952, 35.32]]]}, "properties": {"name": "Melilla", "iso2": "ES-ML", "admin_level": 4, "osm_id": 1154757, "countrylevel_id": "iso2:ES-ML", "osm_data": {"localname": "Melilla", "official_name": "", "alltags": {"name:ar": "مليلية", "name:be": "Мелілья", "name:bg": "Мелиля", "name:cs": "Melilla", "name:el": "Μελίγια", "name:eo": "Melilo", "name:fa": "ملیلیه", "name:he": "מלייה", "name:hy": "Մելիլյա", "name:ja": "メリリャ", "name:ka": "მელილია", "name:kk": "Мелилья", "name:ko": "멜리야", "name:la": "Rusadir", "name:lt": "Melilja", "name:lv": "Melilja", "name:mk": "Мелилја", "name:mr": "मेलिया", "name:os": "Мелилья", "name:pl": "Melilla", "name:ru": "Мелилья", "name:sk": "Melilla", "name:sr": "Мелиља", "name:su": "Mélilya", "name:ta": "மெலில்லா", "name:th": "เมลียา", "name:uk": "Мелілья", "name:zh": "梅利利亚", "name:zu": "IMelilla", "ine:ccaa": "19", "population": "76034", "border_type": "region", "ine:municipio": "52001", "ine:provincia": "52", "name:be-tarask": "Мэлільля", "population:date": "2009", "addr:country_code": "ES"}}, "center_lat": 35.29, "center_lon": -2.95, "area_m2": 13639690, "timezone": "Africa/Ceuta", "population": 86487, "wikidata_id": "Q5831", "wikipedia_id": "es:Melilla"}}