{"type": "Feature", "geometry": {"type": "Polygon", "coordinates": [[[24.809, 54.887], [24.853, 54.859], [24.975, 54.737], [24.47, 54.641], [24.809, 54.887]]]}, "properties": {"name": "Elektrėnai Municipality", "iso2": "LT-08", "admin_level": 5, "osm_id": 968950, "countrylevel_id": "iso2:LT-08", "osm_data": {"localname": "Elektrėnų savivaldybė", "official_name": "", "alltags": {"name:ca": "Municipi d'Elektrėnai", "name:en": "Elektrėnai Municipality", "name:fi": "Elektrėnain kunta", "name:fr": "Municipalité d'Elektrėnai", "name:it": "Comune di Elektrėnai", "name:lt": "Elektrėnų savivaldybė", "name:lv": "Elektrēnu pašvaldība", "name:nn": "Elektrėnai kommune", "name:pl": "rejon elektreński", "name:ru": "Электренское самоуправление", "name:zh": "埃萊克特倫艾區", "name:sco": "Elektrėnai Municipality", "name:bat-smg": "Elektrienu savėvaldībė"}}, "center_lat": 54.75, "center_lon": 24.72, "area_m2": 507254421, "timezone": "Europe/Vilnius", "population": 28093, "wikidata_id": "Q2089777", "wikipedia_id": "lt:Elektrėnų savivaldybė"}}