{"type": "Feature", "geometry": {"type": "Polygon", "coordinates": [[[23.642, 54.804], [24.124, 54.744], [24.457, 54.631], [24.414, 54.533], [24.17, 54.536], [24.019, 54.624], [23.972, 54.493], [23.755, 54.469], [23.657, 54.645], [23.642, 54.804]]]}, "properties": {"name": "Prienai District Municipality", "iso2": "LT-36", "admin_level": 5, "osm_id": 1312644, "countrylevel_id": "iso2:LT-36", "osm_data": {"localname": "Prienų rajono savivaldybė", "official_name": "", "alltags": {"name:ca": "Districte municipal de Prienai", "name:en": "Prienai District Municipality", "name:es": "Distrito Municipio de Prienai", "name:fi": "Prienain kunnallispiiri", "name:fr": "Municipalité du district de Prienai", "name:it": "Comune distrettuale di Prienai", "name:ka": "პრიენაის რაიონი", "name:lt": "Prienų rajono savivaldybė", "name:lv": "Prienu rajona pašvaldība", "name:pl": "Rejon preński", "name:ru": "Пренайский район", "name:zh": "普列奈地區", "name:bat-smg": "Prėinū rajuons"}}, "center_lat": 54.64, "center_lon": 23.98, "area_m2": 1030585818, "timezone": "Europe/Vilnius", "population": 28181, "wikidata_id": "Q47090", "wikipedia_id": "lt:Prienų rajono savivaldybė"}}