{"type": "Feature", "geometry": {"type": "Polygon", "coordinates": [[[120.424, 22.477], [120.423, 22.519], [120.443, 22.562], [120.446, 22.598], [120.435, 22.613], [120.436, 22.662], [120.455, 22.716], [120.454, 22.771], [120.469, 22.831], [120.476, 22.838], [120.51, 22.829], [120.553, 22.828], [120.605, 22.873], [120.645, 22.885], [120.661, 22.86], [120.677, 22.857], [120.706, 22.881], [120.725, 22.881], [120.755, 22.865], [120.779, 22.835], [120.824, 22.866], [120.865, 22.843], [120.869, 22.817], [120.903, 22.8], [120.893, 22.766], [120.895, 22.738], [120.884, 22.717], [120.849, 22.717], [120.838, 22.699], [120.798, 22.689], [120.786, 22.661], [120.761, 22.629], [120.746, 22.591], [120.74, 22.551], [120.764, 22.491], [120.752, 22.459], [120.777, 22.449], [120.79, 22.418], [120.756, 22.403], [120.743, 22.367], [120.785, 22.346], [120.796, 22.317], [120.778, 22.309], [120.798, 22.276], [120.839, 22.244], [120.866, 22.23], [120.896, 22.246], [120.891, 22.11], [120.892, 22.109], [120.893, 22.063], [120.892, 22.061], [120.9, 22.034], [120.874, 21.999], [120.846, 21.988], [120.841, 21.95], [120.86, 21.918], [120.847, 21.911], [120.846, 21.914], [120.822, 21.935], [120.774, 21.95], [120.773, 21.951], [120.765, 21.959], [120.764, 21.959], [120.745, 21.943], [120.739, 21.92], [120.711, 21.934], [120.716, 21.973], [120.696, 22.002], [120.687, 22.031], [120.717, 22.095], [120.693, 22.178], [120.685, 22.193], [120.685, 22.194], [120.672, 22.234], [120.651, 22.252], [120.637, 22.312], [120.607, 22.34], [120.593, 22.365], [120.543, 22.399], [120.542, 22.4], [120.519, 22.41], [120.453, 22.447], [120.424, 22.477]]]}, "properties": {"name": "Pingtung County", "iso2": "TW-PIF", "admin_level": 6, "osm_id": 2775815, "countrylevel_id": "iso2:TW-PIF", "osm_data": {"localname": "屏東縣", "official_name": "", "alltags": {"name:ar": "مقاطعة بينغتونغ", "name:en": "Pingtung County", "name:es": "Condado de Pingtung", "name:fr": "Comté de Pingtung", "name:id": "Kabupaten Pingtung", "name:it": "Contea di Pingtung", "name:ja": "屏東県", "name:ko": "핑둥 현", "name:pl": "Pingdong", "name:ru": "Пиндун", "name:vi": "Huyện Bình Đông", "name:zh": "屏東縣", "nat_ref": "10013", "name:cdo": "Bìng-dĕ̤ng", "name:frr": "Pingtung", "name:hak": "Phìn-tûng-yen", "name:nan": "Pîn-tong-koān", "name:yue": "屏東縣"}}, "center_lat": 22.48, "center_lon": 120.68, "area_m2": 2800700712, "timezone": "Asia/Taipei", "population": 825406, "wikidata_id": "Q194989", "wikipedia_id": "zh:屏東縣"}}