{"type": "Feature", "geometry": {"type": "Polygon", "coordinates": [[[19.986, 44.642], [19.989, 44.645], [19.995, 44.653], [20.003, 44.662], [20.008, 44.665], [20.02, 44.674], [20.038, 44.683], [20.069, 44.69], [20.075, 44.693], [20.08, 44.694], [20.091, 44.695], [20.107, 44.699], [20.113, 44.702], [20.121, 44.708], [20.129, 44.712], [20.124, 44.715], [20.118, 44.714], [20.11, 44.72], [20.106, 44.723], [20.102, 44.724], [20.105, 44.727], [20.112, 44.729], [20.116, 44.727], [20.122, 44.728], [20.121, 44.732], [20.119, 44.732], [20.121, 44.736], [20.125, 44.736], [20.132, 44.739], [20.112, 44.752], [20.114, 44.758], [20.124, 44.757], [20.124, 44.76], [20.135, 44.761], [20.135, 44.765], [20.136, 44.767], [20.132, 44.768], [20.128, 44.773], [20.121, 44.772], [20.115, 44.774], [20.105, 44.78], [20.099, 44.78], [20.097, 44.781], [20.095, 44.786], [20.088, 44.787], [20.091, 44.796], [20.093, 44.797], [20.097, 44.806], [20.097, 44.807], [20.122, 44.804], [20.139, 44.803], [20.142, 44.811], [20.146, 44.83], [20.146, 44.857], [20.153, 44.859], [20.16, 44.863], [20.166, 44.869], [20.163, 44.885], [20.169, 44.891], [20.171, 44.895], [20.169, 44.907], [20.201, 44.909], [20.225, 44.907], [20.221, 44.915], [20.234, 44.921], [20.27, 44.935], [20.275, 44.93], [20.296, 44.938], [20.295, 44.94], [20.301, 44.943], [20.29, 44.957], [20.287, 44.967], [20.286, 44.975], [20.289, 44.982], [20.294, 44.988], [20.298, 44.992], [20.305, 44.995], [20.311, 44.997], [20.322, 44.998], [20.346, 45.003], [20.355, 45.007], [20.36, 45.011], [20.363, 45.016], [20.363, 45.021], [20.361, 45.032], [20.359, 45.042], [20.358, 45.045], [20.352, 45.055], [20.338, 45.07], [20.333, 45.073], [20.343, 45.079], [20.346, 45.079], [20.358, 45.086], [20.363, 45.089], [20.373, 45.097], [20.378, 45.097], [20.383, 45.095], [20.405, 45.088], [20.414, 45.084], [20.42, 45.081], [20.421, 45.078], [20.422, 45.076], [20.419, 45.074], [20.417, 45.07], [20.419, 45.063], [20.417, 45.06], [20.416, 45.054], [20.419, 45.05], [20.422, 45.049], [20.422, 45.046], [20.423, 45.041], [20.427, 45.037], [20.428, 45.034], [20.431, 45.034], [20.439, 45.031], [20.443, 45.028], [20.444, 45.025], [20.452, 45.023], [20.453, 45.022], [20.459, 45.019], [20.461, 45.016], [20.464, 45.015], [20.469, 45.008], [20.474, 45.001], [20.477, 44.996], [20.482, 44.993], [20.485, 44.994], [20.487, 44.993], [20.49, 44.989], [20.5, 44.989], [20.508, 44.987], [20.513, 44.985], [20.519, 44.981], [20.522, 44.979], [20.523, 44.976], [20.518, 44.975], [20.518, 44.972], [20.522, 44.966], [20.524, 44.965], [20.528, 44.959], [20.531, 44.957], [20.533, 44.952], [20.535, 44.949], [20.554, 44.941], [20.567, 44.94], [20.568, 44.942], [20.572, 44.943], [20.576, 44.942], [20.577, 44.94], [20.575, 44.938], [20.576, 44.936], [20.582, 44.937], [20.588, 44.936], [20.593, 44.935], [20.599, 44.93], [20.602, 44.926], [20.607, 44.922], [20.611, 44.917], [20.617, 44.914], [20.622, 44.909], [20.622, 44.907], [20.618, 44.902], [20.62, 44.896], [20.619, 44.894], [20.614, 44.888], [20.616, 44.882], [20.623, 44.871], [20.623, 44.868], [20.609, 44.868], [20.603, 44.868], [20.598, 44.866], [20.597, 44.865], [20.591, 44.862], [20.592, 44.861], [20.596, 44.861], [20.599, 44.861], [20.617, 44.858], [20.623, 44.856], [20.622, 44.854], [20.608, 44.855], [20.597, 44.855], [20.59, 44.854], [20.586, 44.853], [20.576, 44.849], [20.583, 44.846], [20.59, 44.839], [20.591, 44.833], [20.595, 44.829], [20.6, 44.827], [20.606, 44.828], [20.614, 44.83], [20.617, 44.829], [20.619, 44.825], [20.615, 44.822], [20.614, 44.818], [20.617, 44.815], [20.624, 44.81], [20.631, 44.802], [20.629, 44.799], [20.629, 44.787], [20.627, 44.782], [20.627, 44.768], [20.628, 44.764], [20.637, 44.751], [20.646, 44.745], [20.66, 44.741], [20.677, 44.731], [20.688, 44.715], [20.694, 44.71], [20.711, 44.691], [20.729, 44.678], [20.738, 44.673], [20.764, 44.665], [20.768, 44.661], [20.774, 44.659], [20.781, 44.658], [20.799, 44.659], [20.819, 44.658], [20.817, 44.654], [20.812, 44.653], [20.806, 44.65], [20.803, 44.649], [20.801, 44.647], [20.801, 44.644], [20.803, 44.637], [20.802, 44.635], [20.804, 44.631], [20.803, 44.627], [20.798, 44.623], [20.797, 44.62], [20.793, 44.618], [20.792, 44.612], [20.796, 44.612], [20.798, 44.611], [20.802, 44.608], [20.802, 44.606], [20.807, 44.606], [20.808, 44.603], [20.813, 44.602], [20.813, 44.598], [20.818, 44.596], [20.818, 44.589], [20.82, 44.587], [20.819, 44.584], [20.813, 44.585], [20.806, 44.583], [20.805, 44.584], [20.799, 44.581], [20.793, 44.58], [20.791, 44.578], [20.789, 44.579], [20.783, 44.578], [20.782, 44.577], [20.781, 44.574], [20.778, 44.573], [20.775, 44.574], [20.774, 44.57], [20.767, 44.565], [20.767, 44.564], [20.764, 44.562], [20.762, 44.563], [20.757, 44.562], [20.752, 44.56], [20.751, 44.557], [20.745, 44.555], [20.744, 44.553], [20.746, 44.549], [20.745, 44.544], [20.748, 44.543], [20.754, 44.543], [20.758, 44.542], [20.763, 44.544], [20.769, 44.54], [20.767, 44.537], [20.769, 44.534], [20.77, 44.527], [20.772, 44.523], [20.771, 44.521], [20.778, 44.522], [20.782, 44.521], [20.788, 44.518], [20.796, 44.516], [20.797, 44.517], [20.803, 44.516], [20.806, 44.516], [20.805, 44.512], [20.808, 44.508], [20.806, 44.508], [20.808, 44.505], [20.807, 44.502], [20.811, 44.499], [20.816, 44.498], [20.817, 44.496], [20.82, 44.497], [20.823, 44.495], [20.827, 44.493], [20.827, 44.491], [20.831, 44.489], [20.834, 44.488], [20.838, 44.482], [20.836, 44.48], [20.837, 44.476], [20.844, 44.475], [20.847, 44.473], [20.851, 44.468], [20.85, 44.466], [20.853, 44.465], [20.851, 44.46], [20.849, 44.457], [20.849, 44.453], [20.844, 44.453], [20.843, 44.449], [20.846, 44.447], [20.845, 44.446], [20.841, 44.445], [20.841, 44.443], [20.835, 44.44], [20.831, 44.439], [20.826, 44.44], [20.825, 44.442], [20.822, 44.442], [20.818, 44.44], [20.814, 44.444], [20.811, 44.445], [20.803, 44.446], [20.8, 44.447], [20.799, 44.449], [20.792, 44.451], [20.792, 44.448], [20.788, 44.449], [20.784, 44.448], [20.779, 44.442], [20.779, 44.441], [20.773, 44.441], [20.769, 44.435], [20.769, 44.43], [20.77, 44.429], [20.766, 44.427], [20.761, 44.416], [20.761, 44.414], [20.759, 44.412], [20.757, 44.409], [20.756, 44.409], [20.753, 44.401], [20.748, 44.399], [20.754, 44.398], [20.756, 44.396], [20.76, 44.387], [20.764, 44.385], [20.77, 44.384], [20.77, 44.377], [20.771, 44.376], [20.776, 44.376], [20.78, 44.374], [20.785, 44.374], [20.789, 44.371], [20.795, 44.372], [20.798, 44.375], [20.801, 44.376], [20.803, 44.375], [20.801, 44.372], [20.8, 44.372], [20.798, 44.369], [20.801, 44.368], [20.799, 44.365], [20.795, 44.367], [20.79, 44.364], [20.785, 44.364], [20.782, 44.363], [20.78, 44.361], [20.787, 44.359], [20.784, 44.358], [20.779, 44.355], [20.779, 44.353], [20.775, 44.353], [20.774, 44.351], [20.777, 44.35], [20.781, 44.35], [20.784, 44.349], [20.786, 44.345], [20.784, 44.343], [20.789, 44.339], [20.787, 44.33], [20.784, 44.327], [20.774, 44.327], [20.77, 44.329], [20.767, 44.331], [20.763, 44.334], [20.759, 44.335], [20.752, 44.344], [20.744, 44.348], [20.74, 44.349], [20.735, 44.347], [20.729, 44.347], [20.723, 44.348], [20.717, 44.349], [20.721, 44.355], [20.723, 44.359], [20.721, 44.359], [20.717, 44.361], [20.713, 44.359], [20.711, 44.358], [20.708, 44.359], [20.707, 44.356], [20.703, 44.357], [20.701, 44.36], [20.7, 44.361], [20.697, 44.359], [20.69, 44.357], [20.683, 44.356], [20.676, 44.353], [20.674, 44.353], [20.668, 44.35], [20.661, 44.351], [20.655, 44.353], [20.66, 44.359], [20.657, 44.362], [20.65, 44.363], [20.649, 44.366], [20.646, 44.364], [20.643, 44.367], [20.642, 44.369], [20.639, 44.371], [20.639, 44.374], [20.635, 44.374], [20.636, 44.378], [20.638, 44.38], [20.635, 44.381], [20.636, 44.383], [20.636, 44.387], [20.632, 44.387], [20.633, 44.39], [20.635, 44.391], [20.634, 44.398], [20.629, 44.398], [20.625, 44.401], [20.617, 44.401], [20.616, 44.396], [20.614, 44.395], [20.609, 44.395], [20.604, 44.393], [20.6, 44.393], [20.595, 44.391], [20.591, 44.389], [20.585, 44.388], [20.582, 44.389], [20.576, 44.387], [20.571, 44.387], [20.565, 44.384], [20.562, 44.381], [20.559, 44.381], [20.556, 44.378], [20.551, 44.379], [20.549, 44.383], [20.549, 44.387], [20.546, 44.39], [20.548, 44.394], [20.547, 44.397], [20.544, 44.399], [20.545, 44.403], [20.547, 44.405], [20.546, 44.408], [20.547, 44.413], [20.549, 44.417], [20.545, 44.417], [20.542, 44.419], [20.539, 44.419], [20.533, 44.42], [20.528, 44.422], [20.523, 44.421], [20.52, 44.423], [20.516, 44.424], [20.511, 44.421], [20.508, 44.422], [20.506, 44.419], [20.503, 44.421], [20.496, 44.421], [20.491, 44.427], [20.487, 44.426], [20.482, 44.434], [20.478, 44.434], [20.475, 44.435], [20.474, 44.437], [20.469, 44.439], [20.466, 44.442], [20.464, 44.442], [20.454, 44.442], [20.452, 44.443], [20.444, 44.438], [20.443, 44.435], [20.438, 44.428], [20.433, 44.424], [20.427, 44.427], [20.425, 44.424], [20.421, 44.424], [20.419, 44.422], [20.416, 44.421], [20.414, 44.416], [20.415, 44.414], [20.422, 44.412], [20.42, 44.406], [20.421, 44.404], [20.421, 44.401], [20.427, 44.398], [20.432, 44.395], [20.437, 44.393], [20.44, 44.393], [20.444, 44.391], [20.443, 44.388], [20.447, 44.387], [20.449, 44.384], [20.452, 44.384], [20.456, 44.381], [20.451, 44.38], [20.444, 44.378], [20.438, 44.376], [20.433, 44.371], [20.433, 44.369], [20.429, 44.366], [20.428, 44.364], [20.426, 44.363], [20.426, 44.361], [20.424, 44.359], [20.421, 44.358], [20.42, 44.356], [20.418, 44.35], [20.415, 44.35], [20.415, 44.345], [20.412, 44.341], [20.413, 44.337], [20.409, 44.334], [20.407, 44.329], [20.407, 44.325], [20.405, 44.319], [20.4, 44.313], [20.395, 44.317], [20.39, 44.318], [20.39, 44.314], [20.381, 44.312], [20.377, 44.314], [20.376, 44.31], [20.368, 44.31], [20.367, 44.308], [20.368, 44.303], [20.368, 44.299], [20.366, 44.298], [20.362, 44.298], [20.361, 44.292], [20.357, 44.293], [20.353, 44.288], [20.349, 44.288], [20.349, 44.286], [20.339, 44.28], [20.333, 44.278], [20.332, 44.275], [20.33, 44.274], [20.325, 44.275], [20.323, 44.274], [20.317, 44.277], [20.312, 44.276], [20.31, 44.278], [20.311, 44.28], [20.307, 44.281], [20.303, 44.276], [20.301, 44.27], [20.301, 44.263], [20.298, 44.263], [20.289, 44.266], [20.282, 44.268], [20.276, 44.272], [20.278, 44.274], [20.28, 44.276], [20.278, 44.279], [20.273, 44.278], [20.267, 44.277], [20.265, 44.281], [20.26, 44.282], [20.259, 44.286], [20.257, 44.287], [20.251, 44.287], [20.25, 44.291], [20.253, 44.293], [20.251, 44.295], [20.247, 44.295], [20.244, 44.294], [20.24, 44.297], [20.241, 44.299], [20.241, 44.302], [20.238, 44.302], [20.236, 44.303], [20.233, 44.301], [20.232, 44.307], [20.228, 44.308], [20.227, 44.31], [20.229, 44.311], [20.227, 44.317], [20.217, 44.317], [20.214, 44.322], [20.208, 44.324], [20.209, 44.325], [20.216, 44.324], [20.214, 44.327], [20.215, 44.329], [20.211, 44.332], [20.213, 44.335], [20.209, 44.336], [20.207, 44.334], [20.206, 44.332], [20.204, 44.331], [20.203, 44.333], [20.199, 44.335], [20.2, 44.341], [20.199, 44.343], [20.195, 44.341], [20.192, 44.347], [20.196, 44.35], [20.206, 44.351], [20.212, 44.352], [20.229, 44.351], [20.232, 44.353], [20.228, 44.355], [20.224, 44.357], [20.223, 44.359], [20.218, 44.362], [20.217, 44.364], [20.215, 44.366], [20.213, 44.369], [20.217, 44.37], [20.214, 44.374], [20.21, 44.374], [20.206, 44.377], [20.206, 44.379], [20.21, 44.38], [20.208, 44.383], [20.207, 44.386], [20.211, 44.385], [20.215, 44.386], [20.209, 44.389], [20.211, 44.391], [20.217, 44.389], [20.219, 44.387], [20.22, 44.391], [20.218, 44.392], [20.219, 44.395], [20.217, 44.395], [20.216, 44.398], [20.212, 44.398], [20.209, 44.401], [20.21, 44.402], [20.216, 44.404], [20.219, 44.403], [20.223, 44.408], [20.219, 44.409], [20.219, 44.412], [20.221, 44.415], [20.228, 44.422], [20.231, 44.42], [20.235, 44.421], [20.24, 44.425], [20.243, 44.426], [20.242, 44.429], [20.248, 44.429], [20.246, 44.433], [20.244, 44.433], [20.245, 44.436], [20.242, 44.438], [20.244, 44.441], [20.248, 44.443], [20.244, 44.449], [20.24, 44.448], [20.237, 44.45], [20.238, 44.451], [20.236, 44.454], [20.237, 44.456], [20.242, 44.458], [20.238, 44.461], [20.234, 44.459], [20.233, 44.462], [20.234, 44.464], [20.237, 44.466], [20.24, 44.468], [20.245, 44.468], [20.245, 44.472], [20.241, 44.473], [20.242, 44.476], [20.245, 44.48], [20.242, 44.483], [20.243, 44.486], [20.241, 44.488], [20.245, 44.491], [20.246, 44.493], [20.244, 44.495], [20.24, 44.495], [20.236, 44.498], [20.24, 44.5], [20.241, 44.503], [20.237, 44.506], [20.236, 44.509], [20.233, 44.509], [20.231, 44.511], [20.229, 44.509], [20.225, 44.512], [20.22, 44.512], [20.22, 44.51], [20.217, 44.51], [20.213, 44.511], [20.214, 44.515], [20.21, 44.515], [20.211, 44.516], [20.208, 44.519], [20.209, 44.522], [20.213, 44.522], [20.213, 44.525], [20.213, 44.528], [20.22, 44.532], [20.215, 44.536], [20.211, 44.536], [20.209, 44.538], [20.212, 44.542], [20.212, 44.545], [20.209, 44.547], [20.207, 44.546], [20.205, 44.548], [20.206, 44.553], [20.209, 44.555], [20.207, 44.557], [20.209, 44.56], [20.208, 44.564], [20.205, 44.564], [20.202, 44.567], [20.201, 44.569], [20.198, 44.568], [20.194, 44.565], [20.189, 44.566], [20.188, 44.564], [20.191, 44.56], [20.19, 44.559], [20.189, 44.553], [20.19, 44.551], [20.189, 44.549], [20.19, 44.546], [20.188, 44.543], [20.186, 44.543], [20.184, 44.54], [20.18, 44.539], [20.176, 44.534], [20.168, 44.529], [20.167, 44.525], [20.16, 44.523], [20.16, 44.521], [20.155, 44.518], [20.154, 44.517], [20.154, 44.514], [20.148, 44.511], [20.14, 44.515], [20.138, 44.517], [20.136, 44.523], [20.134, 44.525], [20.13, 44.53], [20.122, 44.537], [20.123, 44.537], [20.118, 44.54], [20.12, 44.541], [20.119, 44.546], [20.114, 44.548], [20.114, 44.545], [20.112, 44.543], [20.11, 44.544], [20.11, 44.548], [20.106, 44.547], [20.1, 44.548], [20.096, 44.547], [20.082, 44.546], [20.082, 44.544], [20.079, 44.541], [20.079, 44.537], [20.08, 44.536], [20.079, 44.533], [20.074, 44.528], [20.072, 44.527], [20.062, 44.521], [20.053, 44.525], [20.053, 44.527], [20.049, 44.527], [20.046, 44.529], [20.039, 44.53], [20.036, 44.532], [20.034, 44.534], [20.03, 44.536], [20.032, 44.54], [20.029, 44.541], [20.025, 44.538], [20.021, 44.539], [20.018, 44.539], [20.019, 44.533], [20.011, 44.533], [20.013, 44.537], [20.009, 44.542], [20.007, 44.545], [20.002, 44.547], [20, 44.546], [19.996, 44.55], [19.993, 44.554], [19.989, 44.559], [19.988, 44.564], [19.99, 44.572], [19.992, 44.575], [19.995, 44.578], [19.993, 44.583], [19.991, 44.586], [19.994, 44.586], [19.995, 44.588], [20, 44.59], [19.998, 44.593], [19.991, 44.602], [19.988, 44.604], [19.986, 44.609], [19.983, 44.609], [19.98, 44.612], [19.976, 44.614], [19.976, 44.617], [19.977, 44.62], [19.978, 44.627], [19.981, 44.629], [19.986, 44.628], [19.986, 44.634], [19.985, 44.635], [19.988, 44.636], [19.988, 44.641], [19.986, 44.642]]]}, "properties": {"name": "City of Belgrade", "iso2": "RS-00", "admin_level": 6, "osm_id": 1677007, "countrylevel_id": "iso2:RS-00", "osm_data": {"localname": "Град Београд", "official_name": "", "alltags": {"name:af": "Belgrado", "name:am": "በልግራድ", "name:an": "Belgrado", "name:ar": "بلغراد", "name:az": "Belqrad", "name:be": "Горад Бялград", "name:bg": "Град Белград", "name:bn": "বেলগ্রেড", "name:bo": "བེལ་གེ་རེ་ཌི།", "name:br": "Beograd", "name:bs": "Grad Beograd", "name:ca": "Belgrad", "name:cs": "Bělehrad", "name:cu": "Бѣлъ Градъ · Срьбїи", "name:cv": "Белград", "name:cy": "Beograd", "name:da": "Beograd", "name:el": "Πόλη του Βελιγραδίου", "name:en": "City of Belgrade", "name:eo": "Beogrado", "name:es": "Belgrado", "name:fa": "بلگراد", "name:fo": "Beograd", "name:fr": "Ville de Belgrade", "name:fy": "Belgrado", "name:ga": "Béalgrád", "name:gd": "Belgrade", "name:gl": "Belgrado", "name:gv": "Belgraaid", "name:he": "בלגרד", "name:hi": "बॅलग्रेड", "name:hr": "Grad Beograd", "name:ht": "Bèlgrad", "name:hu": "Belgrád", "name:hy": "Բելգրադ", "name:id": "Beograd", "name:ie": "Beograd", "name:io": "Belgrade", "name:it": "Belgrado", "name:ja": "ベオグラード", "name:jv": "Beograd", "name:ka": "ბელგრადი", "name:kk": "Белград", "name:ko": "베오그라드", "name:kv": "Белград", "name:la": "Belgradum", "name:li": "Belgrado", "name:lt": "Belgradas", "name:lv": "Belgrada", "name:mi": "Belgrade", "name:mk": "Град Белград", "name:ml": "ബെൽഗ്രേഡ്", "name:mn": "Белград", "name:mr": "बेलग्रेड", "name:ms": "Belgrade", "name:nl": "Stad Belgrado", "name:nn": "Beograd", "name:no": "Beograd", "name:os": "Белград", "name:pl": "Belgrad", "name:pt": "Cidade de Belgrado", "name:qu": "Beograd", "name:ro": "Belgrad", "name:ru": "Город Белград", "name:sc": "Belgrado", "name:sh": "Beograd", "name:sk": "Belehgrad", "name:sl": "Beograd", "name:sm": "Belgrade", "name:so": "Belgaraad", "name:sq": "Belgradi", "name:sr": "Град Београд", "name:sv": "Belgrad", "name:ta": "பெல்கிறேட்", "name:tg": "Белград", "name:th": "เบลเกรด", "name:tl": "Belgrade", "name:tt": "Белград", "name:ty": "Beograd", "name:ug": "بېلگراد", "name:uk": "Белград", "name:ur": "بلغراد", "name:vi": "Beograd", "name:vo": "Beograd", "name:yi": "בעלגראד", "name:yo": "Belgrade", "name:zh": "贝尔格莱德市", "website": "http://www.beograd.rs/", "name:ace": "Belgrade", "name:ast": "Belgráu", "name:ckb": "بێلگراد", "name:dsb": "Běłogrod", "name:ext": "Belgradu", "name:frp": "Bèlgrade", "name:hif": "Belgrade", "name:hsb": "Běłohród", "name:jbo": "be'ograd", "name:lad": "Belogrado", "name:lij": "Belgraddo", "name:nan": "Belgrade", "name:nov": "Beograd", "name:pap": "Belgrado", "name:pnb": "بلغراد", "name:sah": "Белград", "name:scn": "Belgradu", "name:sco": "Belgrade", "name:udm": "Белград", "name:vec": "Belgrado", "name:war": "Belgrade", "name:wuu": "贝尔格莱德", "name:yue": "貝爾格萊德", "description": "Boundary of the City of Belgrade", "name:bat-smg": "Belgrads", "name:roa-rup": "Biligrad", "name:sr-Latn": "Grad Beograd", "name:be-tarask": "Бялград"}}, "center_lat": 44.65, "center_lon": 20.42, "area_m2": 3230633588, "timezone": "Europe/Belgrade", "population": 1659440, "wikidata_id": "Q2074197", "wikipedia_id": "sr:Град Београд"}}