{"type": "Feature", "geometry": {"type": "Polygon", "coordinates": [[[28.504, 6.462], [28.808, 6.369], [29.022, 6.508], [29.011, 6.729], [28.831, 7.167], [28.986, 7.237], [29.466, 7.797], [29.686, 7.824], [29.938, 7.764], [30.271, 7.059], [30.814, 7.071], [31.215, 6.76], [31.483, 6.309], [31.646, 5.924], [31.045, 5.893], [30.636, 6.23], [30.382, 6.069], [30.254, 6.059], [30.145, 6.334], [29.823, 6.322], [29.843, 6.141], [29.681, 5.958], [29.623, 5.637], [29.027, 5.694], [28.767, 5.898], [28.506, 6.267], [28.504, 6.462]]]}, "properties": {"name": "Lakes", "iso2": "SS-LK", "admin_level": 4, "osm_id": 2190480, "countrylevel_id": "iso2:SS-LK", "osm_data": {"localname": "Lakes", "official_name": "", "alltags": {"name:ar": "البحيرات", "name:en": "Lakes", "name:es": "Lagos", "name:fr": "Lacs", "name:pl": "Lakes", "name:ru": "Озёрный", "name:uk": "Озерний", "is_in:country": "South Sudan", "is_in:continent": "Africa", "is_in:country_code": "SS"}}, "center_lat": 6.63, "center_lon": 29.92, "area_m2": 43038554043, "timezone": "Africa/Juba", "population": 695730, "wikidata_id": "Q491096", "wikipedia_id": "en:Lakes, Sudan"}}