{"type": "Feature", "geometry": {"type": "MultiPolygon", "coordinates": [[[[-88.001, 30.226], [-87.961, 30.234], [-87.937, 30.261], [-87.895, 30.239], [-87.859, 30.241], [-87.818, 30.255], [-87.768, 30.263], [-87.738, 30.278], [-87.653, 30.28], [-87.624, 30.3], [-87.591, 30.295], [-87.553, 30.301], [-87.559, 30.272], [-87.657, 30.25], [-87.832, 30.228], [-87.932, 30.231], [-88.001, 30.226]]], [[[-88.396, 30.385], [-88.402, 30.511], [-88.419, 30.867], [-88.439, 31.259], [-88.464, 31.698], [-88.473, 31.894], [-88.424, 32.286], [-88.4, 32.483], [-88.369, 32.749], [-88.348, 32.931], [-88.3, 33.326], [-88.252, 33.72], [-88.211, 34.029], [-88.166, 34.383], [-88.134, 34.623], [-88.118, 34.724], [-88.098, 34.892], [-88.131, 34.905], [-88.155, 34.923], [-88.2, 34.996], [-88.203, 35.008], [-88, 35.006], [-87.664, 35.004], [-87.429, 35.003], [-86.862, 34.992], [-86.528, 34.991], [-86.397, 34.992], [-86.061, 34.99], [-85.824, 34.988], [-85.605, 34.985], [-85.595, 34.924], [-85.561, 34.75], [-85.512, 34.518], [-85.47, 34.328], [-85.428, 34.114], [-85.357, 33.75], [-85.304, 33.483], [-85.232, 33.108], [-85.183, 32.859], [-85.153, 32.847], [-85.168, 32.812], [-85.125, 32.779], [-85.142, 32.761], [-85.119, 32.724], [-85.111, 32.685], [-85.087, 32.656], [-85.091, 32.635], [-85.067, 32.581], [-85.002, 32.52], [-84.994, 32.451], [-84.972, 32.443], [-84.964, 32.422], [-84.979, 32.412], [-84.984, 32.362], [-85.007, 32.337], [-84.999, 32.322], [-84.943, 32.303], [-84.888, 32.261], [-84.902, 32.257], [-84.93, 32.219], [-84.968, 32.219], [-84.964, 32.195], [-85.009, 32.182], [-85.062, 32.13], [-85.047, 32.09], [-85.056, 32.074], [-85.055, 32.011], [-85.087, 31.958], [-85.082, 31.945], [-85.141, 31.857], [-85.131, 31.818], [-85.142, 31.782], [-85.119, 31.733], [-85.126, 31.695], [-85.092, 31.66], [-85.074, 31.63], [-85.057, 31.619], [-85.058, 31.571], [-85.041, 31.541], [-85.045, 31.521], [-85.072, 31.468], [-85.066, 31.431], [-85.092, 31.365], [-85.084, 31.328], [-85.09, 31.295], [-85.111, 31.282], [-85.113, 31.264], [-85.097, 31.226], [-85.107, 31.203], [-85.1, 31.165], [-85.077, 31.157], [-85.055, 31.121], [-85.036, 31.108], [-85.028, 31.077], [-85.011, 31.054], [-85.002, 31.001], [-85.244, 31.001], [-85.5, 30.997], [-85.875, 30.994], [-86.061, 30.993], [-86.405, 30.994], [-86.52, 30.993], [-86.563, 30.995], [-86.704, 30.995], [-86.724, 30.997], [-87.121, 31], [-87.255, 30.998], [-87.599, 30.997], [-87.589, 30.966], [-87.62, 30.887], [-87.635, 30.867], [-87.626, 30.847], [-87.545, 30.778], [-87.53, 30.742], [-87.503, 30.722], [-87.478, 30.713], [-87.406, 30.674], [-87.393, 30.627], [-87.408, 30.584], [-87.447, 30.526], [-87.431, 30.498], [-87.436, 30.481], [-87.415, 30.457], [-87.389, 30.451], [-87.402, 30.424], [-87.431, 30.417], [-87.447, 30.401], [-87.463, 30.362], [-87.487, 30.343], [-87.511, 30.34], [-87.54, 30.306], [-87.596, 30.317], [-87.626, 30.301], [-87.653, 30.281], [-87.724, 30.279], [-87.741, 30.299], [-87.8, 30.326], [-87.837, 30.366], [-87.819, 30.391], [-87.83, 30.415], [-87.854, 30.379], [-87.909, 30.414], [-87.921, 30.474], [-87.937, 30.483], [-87.905, 30.537], [-87.903, 30.564], [-87.915, 30.586], [-87.915, 30.646], [-87.957, 30.671], [-88.005, 30.681], [-88.02, 30.678], [-88.038, 30.648], [-88.06, 30.651], [-88.054, 30.613], [-88.065, 30.588], [-88.084, 30.572], [-88.085, 30.528], [-88.102, 30.51], [-88.097, 30.472], [-88.109, 30.451], [-88.104, 30.421], [-88.107, 30.379], [-88.128, 30.339], [-88.192, 30.319], [-88.188, 30.366], [-88.216, 30.368], [-88.261, 30.382], [-88.31, 30.378], [-88.337, 30.405], [-88.363, 30.405], [-88.396, 30.385]]]]}, "properties": {"name": "Alabama", "iso2": "US-AL", "admin_level": 4, "osm_id": 161950, "countrylevel_id": "iso2:US-AL", "osm_data": {"localname": "Alabama", "official_name": "", "alltags": {"name:ar": "ألاباما", "name:bg": "Алабама", "name:bn": "আলাবামা", "name:br": "Alabama", "name:el": "Αλαμπάμα", "name:en": "Alabama", "name:eo": "Alabamo", "name:fa": "آلاباما", "name:he": "אלבמה", "name:hi": "अलाबामा", "name:hu": "Alabama", "name:hy": "Ալաբամա", "name:ja": "アラバマ州", "name:ka": "ალაბამა", "name:kn": "ಅಲಬಾಮ", "name:ko": "앨라배마", "name:lt": "Alabama", "name:ml": "അലബാമ", "name:mr": "अलाबामा", "name:nv": "Élábéemah Hahoodzo", "name:os": "Алабамæ", "name:pl": "Alabama", "name:ru": "Алабама", "name:sr": "Алабама", "name:ta": "அலபாமா", "name:te": "అలబామా", "name:th": "รัฐแอละแบมา", "name:uk": "Алабама", "name:ur": "الاباما", "name:yi": "אלאבאמא", "name:zh": "亚拉巴马州", "name:arc": "ܐܠܒܐܡܐ", "name:hak": "Â-lâ-pâ-mâ", "name:haw": "‘Alapama", "ref:fips": "01", "is_in:country_code": "US"}}, "center_lat": 32.79, "center_lon": -86.83, "area_m2": 134172341016, "timezone": "America/Chicago", "population": 4903185, "wikidata_id": "Q173", "wikipedia_id": "en:Alabama"}}