{"type": "Feature", "geometry": {"type": "Polygon", "coordinates": [[[-73.66, 40.989], [-73.655, 41.013], [-73.728, 41.101], [-73.483, 41.213], [-73.551, 41.295], [-73.521, 41.62], [-73.511, 41.759], [-73.49, 42], [-73.487, 42.05], [-73.433, 42.051], [-73.037, 42.039], [-72.814, 42.037], [-72.817, 41.998], [-72.767, 42.003], [-72.756, 42.036], [-72.699, 42.037], [-72.573, 42.03], [-72.532, 42.035], [-72.143, 42.031], [-72.063, 42.027], [-71.801, 42.024], [-71.799, 42.008], [-71.798, 41.935], [-71.787, 41.656], [-71.798, 41.417], [-71.842, 41.41], [-71.831, 41.378], [-71.837, 41.367], [-71.831, 41.346], [-71.862, 41.327], [-71.881, 41.346], [-71.905, 41.332], [-71.974, 41.343], [-71.99, 41.32], [-72.042, 41.325], [-72.088, 41.323], [-72.113, 41.299], [-72.167, 41.306], [-72.183, 41.331], [-72.224, 41.302], [-72.252, 41.299], [-72.261, 41.284], [-72.306, 41.28], [-72.343, 41.268], [-72.39, 41.264], [-72.398, 41.276], [-72.453, 41.279], [-72.546, 41.249], [-72.568, 41.267], [-72.663, 41.272], [-72.69, 41.247], [-72.715, 41.262], [-72.752, 41.267], [-72.895, 41.242], [-72.906, 41.27], [-72.96, 41.252], [-72.976, 41.234], [-73.004, 41.221], [-73.014, 41.206], [-73.066, 41.198], [-73.1, 41.181], [-73.112, 41.151], [-73.131, 41.147], [-73.173, 41.169], [-73.218, 41.153], [-73.261, 41.119], [-73.293, 41.127], [-73.309, 41.116], [-73.357, 41.107], [-73.378, 41.11], [-73.393, 41.083], [-73.412, 41.088], [-73.437, 41.057], [-73.453, 41.063], [-73.511, 41.039], [-73.532, 41.038], [-73.557, 41.018], [-73.644, 41.007], [-73.66, 40.989]]]}, "properties": {"name": "Connecticut", "iso2": "US-CT", "admin_level": 4, "osm_id": 165794, "countrylevel_id": "iso2:US-CT", "osm_data": {"localname": "Connecticut", "official_name": "", "alltags": {"name:ar": "كونيتيكت", "name:az": "Konnektikut", "name:bg": "Кънектикът", "name:br": "Connecticut", "name:en": "Connecticut", "name:eo": "Konektikuto", "name:he": "קונטיקט", "name:hy": "Կոնեկտիկուտ", "name:ja": "コネチカット州", "name:ka": "კონექტიკუტი", "name:ko": "코네티컷", "name:mg": "Kaonektikioty", "name:nv": "Kanédiki' Hahoodzo", "name:pl": "Connecticut", "name:ru": "Коннектикут", "name:sr": "Конектикат", "name:ta": "கனெடிகட்", "name:uk": "Коннектикут", "name:yi": "קאנעטיקעט", "name:zh": "康涅狄格州", "name:haw": "Konekikuka", "ref:fips": "09", "border_type": "state", "is_in:country": "United States of America", "is_in:country_code": "US"}}, "center_lat": 41.62, "center_lon": -72.73, "area_m2": 12889351377, "timezone": "America/New_York", "population": 3565287, "wikidata_id": "Q779", "wikipedia_id": "en:Connecticut"}}