{"type": "Feature", "geometry": {"type": "Polygon", "coordinates": [[[-109.045, 36.999], [-108.638, 37], [-108.129, 37], [-107.867, 37], [-107.421, 37], [-106.877, 37], [-106.87, 36.992], [-106.476, 36.994], [-106.202, 36.994], [-105.81, 36.996], [-105.375, 36.996], [-105.081, 36.995], [-104.823, 36.994], [-104.483, 36.994], [-104.158, 36.996], [-103.696, 36.997], [-103.442, 36.998], [-103.086, 36.998], [-103.002, 37], [-103.002, 36.704], [-103.002, 36.5], [-103.042, 36.5], [-103.041, 36.083], [-103.041, 35.739], [-103.042, 35.471], [-103.042, 35.212], [-103.043, 34.9], [-103.043, 34.671], [-103.044, 34.376], [-103.044, 33.975], [-103.053, 33.571], [-103.06, 33.219], [-103.065, 33], [-103.065, 32.827], [-103.065, 32.523], [-103.065, 32.204], [-103.065, 32], [-103.327, 32], [-103.748, 32], [-104.172, 32], [-104.36, 32], [-104.737, 32], [-105.188, 32], [-105.429, 32.001], [-105.731, 32.002], [-106.126, 32.003], [-106.201, 32.002], [-106.619, 32.001], [-106.638, 31.978], [-106.626, 31.958], [-106.624, 31.925], [-106.646, 31.895], [-106.636, 31.866], [-106.605, 31.827], [-106.577, 31.81], [-106.547, 31.807], [-106.528, 31.784], [-107.001, 31.784], [-107.29, 31.784], [-107.637, 31.784], [-107.866, 31.784], [-108.208, 31.784], [-108.208, 31.333], [-108.756, 31.333], [-109.05, 31.332], [-109.05, 31.593], [-109.049, 31.994], [-109.048, 32.385], [-109.048, 32.618], [-109.047, 32.977], [-109.048, 33.136], [-109.047, 33.365], [-109.047, 33.617], [-109.046, 33.875], [-109.047, 34.166], [-109.046, 34.39], [-109.046, 34.771], [-109.046, 35.02], [-109.047, 35.364], [-109.046, 35.661], [-109.046, 36.117], [-109.046, 36.428], [-109.045, 36.795], [-109.045, 36.999]]]}, "properties": {"name": "New Mexico", "iso2": "US-NM", "admin_level": 4, "osm_id": 162014, "countrylevel_id": "iso2:US-NM", "osm_data": {"localname": "New Mexico", "official_name": "", "alltags": {"name:ar": "نيومكسيكو", "name:az": "Nyu-Meksiko", "name:bg": "Ню Мексико", "name:br": "Mec'hiko Nevez", "name:bs": "Novi Meksiko", "name:ca": "Nou Mèxic", "name:cs": "Nové Mexiko", "name:cv": "Çĕнĕ Мексика", "name:cy": "Mecsico Newydd", "name:el": "Νέο Μεξικό", "name:en": "New Mexico", "name:eo": "Nov-Meksiko", "name:es": "Nuevo México", "name:eu": "Mexiko Berria", "name:fa": "نیومکزیکو", "name:fr": "Nouveau-Mexique", "name:ga": "Nua-Mheicsiceo", "name:gd": "Meagsago Nuadh", "name:gl": "Novo México", "name:gn": "Pyahu Méjiko", "name:gv": "Meksico Noa", "name:he": "ניו מקסיקו", "name:hi": "नया मेक्सिको", "name:hr": "Novi Meksiko", "name:ht": "Nou Meksiko", "name:hu": "Új-Mexikó", "name:hy": "Նյու Մեքսիկո", "name:ik": "Tchiaq Mexiqo", "name:is": "Nýja Mexíkó", "name:it": "Nuovo Messico", "name:ja": "ニューメキシコ州", "name:ka": "ნიუ-მექსიკო", "name:kn": "ನ್ಯೂ ಮೆಕ್ಸಿಕೋ", "name:ko": "뉴멕시코", "name:ku": "Nû Meksîko", "name:kw": "Meksiko Nowydh", "name:la": "Novum Mexicum", "name:lt": "Naujoji Meksika", "name:lv": "Ņūmeksika", "name:ml": "ന്യൂ മെക്സിക്കോ", "name:mr": "न्यू मेक्सिको", "name:nl": "Nieuw-Mexico", "name:nv": "Yootó Hahoodzo", "name:oc": "Nòu Mexic", "name:pl": "Nowy Meksyk", "name:pt": "Novo México", "name:ru": "Нью-Мексико", "name:sh": "Novi Meksiko", "name:sk": "Nové Mexiko", "name:sl": "Nova Mehika", "name:sq": "Nju Meksiko", "name:sr": "Нови Мексико", "name:ta": "நியூ மெக்சிகோ", "name:th": "รัฐนิวเม็กซิโก", "name:tl": "Bagong Mehiko", "name:tr": "Yeni Meksika", "name:uk": "Нью-Мексико", "name:ur": "نیو میکسیکو", "name:yi": "ניו מעקסיקא", "name:zh": "新墨西哥州", "name:ang": "Nīwe Mexico", "name:arc": "ܢܝܘ ܡܝܟܣܝܟܘ", "name:ast": "Nuevu Méxicu", "name:bcl": "Nueva Mehiko", "name:frp": "Novél-Mexique", "name:hak": "Néu Me̍t-sî-kô", "name:haw": "Nū Mekiko", "name:lmo": "Növ Messich", "name:nah": "Yancuīc Mēxihco", "name:pms": "Neuv Méssich", "ref:fips": "35", "is_in:country_code": "US"}}, "center_lat": 34.42, "center_lon": -106.11, "area_m2": 315695326603, "timezone": "America/Denver", "population": 2096829, "wikidata_id": "Q1522", "wikipedia_id": "en:New Mexico"}}