{"type": "Feature", "geometry": {"type": "Polygon", "coordinates": [[[-80.519, 41.977], [-80.519, 41.675], [-80.519, 41.268], [-80.519, 40.994], [-80.519, 40.639], [-80.582, 40.615], [-80.603, 40.625], [-80.627, 40.62], [-80.664, 40.591], [-80.667, 40.575], [-80.627, 40.535], [-80.618, 40.502], [-80.597, 40.476], [-80.611, 40.441], [-80.614, 40.407], [-80.632, 40.386], [-80.609, 40.373], [-80.612, 40.343], [-80.601, 40.318], [-80.623, 40.262], [-80.662, 40.231], [-80.669, 40.199], [-80.704, 40.154], [-80.709, 40.1], [-80.739, 40.075], [-80.731, 40.047], [-80.742, 40.008], [-80.74, 39.971], [-80.764, 39.948], [-80.756, 39.913], [-80.794, 39.919], [-80.809, 39.904], [-80.793, 39.864], [-80.827, 39.842], [-80.827, 39.798], [-80.861, 39.777], [-80.865, 39.753], [-80.832, 39.719], [-80.84, 39.701], [-80.866, 39.687], [-80.866, 39.653], [-80.876, 39.627], [-80.892, 39.617], [-80.933, 39.615], [-81.02, 39.555], [-81.092, 39.496], [-81.134, 39.445], [-81.184, 39.432], [-81.224, 39.386], [-81.273, 39.385], [-81.34, 39.349], [-81.375, 39.342], [-81.392, 39.351], [-81.407, 39.388], [-81.428, 39.405], [-81.457, 39.409], [-81.51, 39.369], [-81.546, 39.354], [-81.56, 39.336], [-81.57, 39.268], [-81.647, 39.277], [-81.683, 39.271], [-81.697, 39.256], [-81.691, 39.228], [-81.728, 39.214], [-81.756, 39.181], [-81.744, 39.149], [-81.747, 39.096], [-81.776, 39.078], [-81.814, 39.079], [-81.809, 39.055], [-81.764, 39.015], [-81.782, 38.968], [-81.756, 38.934], [-81.784, 38.926], [-81.818, 38.947], [-81.844, 38.929], [-81.848, 38.903], [-81.885, 38.876], [-81.899, 38.875], [-81.927, 38.901], [-81.899, 38.926], [-81.901, 38.939], [-81.933, 38.987], [-81.976, 38.992], [-82.006, 39.029], [-82.034, 39.026], [-82.052, 38.994], [-82.09, 38.975], [-82.129, 38.908], [-82.143, 38.898], [-82.139, 38.865], [-82.147, 38.837], [-82.191, 38.815], [-82.222, 38.786], [-82.2, 38.759], [-82.182, 38.707], [-82.191, 38.683], [-82.173, 38.631], [-82.177, 38.604], [-82.196, 38.593], [-82.249, 38.599], [-82.274, 38.594], [-82.293, 38.576], [-82.296, 38.539], [-82.315, 38.464], [-82.331, 38.444], [-82.39, 38.434], [-82.403, 38.439], [-82.536, 38.404], [-82.577, 38.409], [-82.593, 38.422], [-82.614, 38.475], [-82.657, 38.497], [-82.692, 38.538], [-82.725, 38.558], [-82.8, 38.563], [-82.842, 38.588], [-82.854, 38.611], [-82.859, 38.657], [-82.877, 38.691], [-82.87, 38.727], [-82.895, 38.756], [-82.938, 38.746], [-82.969, 38.729], [-83.032, 38.724], [-83.052, 38.697], [-83.118, 38.666], [-83.135, 38.632], [-83.153, 38.619], [-83.21, 38.618], [-83.246, 38.628], [-83.287, 38.599], [-83.317, 38.608], [-83.329, 38.638], [-83.366, 38.658], [-83.468, 38.675], [-83.491, 38.693], [-83.521, 38.703], [-83.615, 38.684], [-83.637, 38.667], [-83.644, 38.638], [-83.669, 38.626], [-83.723, 38.647], [-83.766, 38.653], [-83.784, 38.695], [-83.841, 38.723], [-83.849, 38.747], [-83.873, 38.762], [-83.92, 38.77], [-83.947, 38.784], [-83.979, 38.787], [-84.043, 38.771], [-84.091, 38.774], [-84.134, 38.789], [-84.213, 38.806], [-84.23, 38.826], [-84.235, 38.893], [-84.293, 38.963], [-84.307, 39.007], [-84.327, 39.027], [-84.361, 39.041], [-84.411, 39.047], [-84.433, 39.067], [-84.435, 39.1], [-84.472, 39.121], [-84.511, 39.094], [-84.554, 39.098], [-84.573, 39.082], [-84.602, 39.074], [-84.633, 39.076], [-84.654, 39.094], [-84.688, 39.102], [-84.718, 39.137], [-84.756, 39.146], [-84.784, 39.118], [-84.82, 39.105], [-84.82, 39.113], [-84.82, 39.119], [-84.82, 39.256], [-84.82, 39.257], [-84.82, 39.258], [-84.815, 39.532], [-84.814, 39.814], [-84.811, 39.995], [-84.804, 40.31], [-84.804, 40.407], [-84.802, 40.597], [-84.802, 40.801], [-84.803, 40.999], [-84.804, 41.271], [-84.806, 41.696], [-84.36, 41.707], [-84.173, 41.712], [-83.709, 41.725], [-83.455, 41.733], [-83.477, 41.699], [-83.432, 41.691], [-83.352, 41.687], [-83.338, 41.704], [-83.215, 41.639], [-83.154, 41.619], [-83.102, 41.612], [-83.067, 41.596], [-83.039, 41.564], [-82.97, 41.524], [-82.928, 41.515], [-82.893, 41.52], [-82.863, 41.539], [-82.852, 41.56], [-82.86, 41.577], [-82.834, 41.587], [-82.793, 41.546], [-82.716, 41.541], [-82.727, 41.512], [-82.762, 41.504], [-82.806, 41.506], [-82.882, 41.489], [-82.963, 41.486], [-82.974, 41.469], [-83.021, 41.463], [-83.001, 41.439], [-82.976, 41.454], [-82.955, 41.426], [-82.923, 41.419], [-82.88, 41.443], [-82.832, 41.454], [-82.829, 41.473], [-82.754, 41.444], [-82.701, 41.462], [-82.666, 41.442], [-82.512, 41.383], [-82.475, 41.382], [-82.43, 41.397], [-82.364, 41.426], [-82.295, 41.428], [-82.256, 41.434], [-82.193, 41.465], [-82.116, 41.49], [-82.012, 41.516], [-81.995, 41.515], [-81.943, 41.492], [-81.864, 41.483], [-81.813, 41.495], [-81.732, 41.491], [-81.665, 41.532], [-81.628, 41.544], [-81.525, 41.616], [-81.498, 41.626], [-81.446, 41.673], [-81.375, 41.715], [-81.284, 41.763], [-81.243, 41.762], [-81.13, 41.811], [-81.004, 41.853], [-80.905, 41.868], [-80.814, 41.898], [-80.728, 41.919], [-80.581, 41.958], [-80.519, 41.977]]]}, "properties": {"name": "Ohio", "iso2": "US-OH", "admin_level": 4, "osm_id": 162061, "countrylevel_id": "iso2:US-OH", "osm_data": {"localname": "Ohio", "official_name": "", "alltags": {"name:ar": "أوهايو", "name:az": "Ohayo", "name:be": "Агаё", "name:bg": "Охайо", "name:bn": "ওহাইও", "name:br": "Ohio", "name:cv": "Огайо", "name:el": "Οχάιο", "name:en": "Ohio", "name:eo": "Ohio", "name:fa": "اوهایو", "name:he": "אוהיו", "name:ht": "Owayo", "name:hy": "Օհայո", "name:ja": "オハイオ州", "name:ka": "ოჰაიო", "name:kn": "ಒಹೈಹೊ", "name:ko": "오하이오 주", "name:la": "Ohium", "name:lt": "Ohajas", "name:lv": "Ohaio", "name:ml": "ഒഹായോ", "name:mn": "Охайо", "name:mr": "ओहायो", "name:os": "Огайо", "name:pl": "Ohio", "name:ru": "Огайо", "name:sr": "Охајо", "name:ta": "ஒகையோ", "name:th": "รัฐโอไฮโอ", "name:ug": "Oxayo", "name:uk": "Огайо", "name:ur": "اوہائیو", "name:uz": "Ogayo", "name:yi": "אהאיא", "name:zh": "俄亥俄州", "name:arc": "ܐܘܗܐܝܘ", "name:bpy": "ওহাইও", "name:hak": "Ngò-hài-ngò", "name:haw": "‘Ohaio", "name:see": "Ohi:yo’", "name:yue": "俄亥俄州", "ref:fips": "39", "border_type": "state", "name:i-mingo": "Uhíyu’", "is_in:country_code": "US"}}, "center_lat": 40.29, "center_lon": -82.79, "area_m2": 106984934953, "timezone": "America/New_York", "population": 11689100, "wikidata_id": "Q1397", "wikipedia_id": "en:Ohio"}}