{"type": "Feature", "geometry": {"type": "Polygon", "coordinates": [[[-73.343, 45.011], [-73.065, 45.016], [-72.967, 45.014], [-72.847, 45.017], [-72.635, 45.015], [-72.555, 45.008], [-72.442, 45.008], [-72.433, 45.008], [-72.424, 45.008], [-72.416, 45.007], [-72.413, 45.007], [-72.411, 45.007], [-72.312, 45.004], [-71.914, 45.008], [-71.754, 45.011], [-71.501, 45.013], [-71.541, 44.985], [-71.516, 44.964], [-71.516, 44.935], [-71.501, 44.905], [-71.546, 44.866], [-71.551, 44.837], [-71.574, 44.821], [-71.569, 44.807], [-71.613, 44.759], [-71.631, 44.753], [-71.627, 44.729], [-71.599, 44.704], [-71.585, 44.657], [-71.563, 44.652], [-71.552, 44.593], [-71.558, 44.565], [-71.598, 44.554], [-71.572, 44.537], [-71.601, 44.486], [-71.648, 44.473], [-71.664, 44.438], [-71.702, 44.415], [-71.792, 44.4], [-71.815, 44.381], [-71.812, 44.358], [-71.872, 44.337], [-71.9, 44.347], [-71.93, 44.337], [-71.985, 44.336], [-72.033, 44.32], [-72.033, 44.302], [-72.068, 44.272], [-72.048, 44.24], [-72.066, 44.189], [-72.04, 44.156], [-72.038, 44.103], [-72.049, 44.069], [-72.069, 44.054], [-72.117, 43.994], [-72.1, 43.957], [-72.119, 43.944], [-72.118, 43.923], [-72.172, 43.885], [-72.185, 43.864], [-72.185, 43.804], [-72.232, 43.748], [-72.272, 43.733], [-72.305, 43.695], [-72.303, 43.668], [-72.329, 43.636], [-72.332, 43.6], [-72.38, 43.574], [-72.381, 43.539], [-72.399, 43.513], [-72.38, 43.491], [-72.415, 43.364], [-72.39, 43.356], [-72.411, 43.331], [-72.396, 43.311], [-72.422, 43.263], [-72.437, 43.256], [-72.439, 43.201], [-72.45, 43.193], [-72.453, 43.139], [-72.433, 43.119], [-72.444, 43.102], [-72.437, 43.08], [-72.468, 43.053], [-72.463, 43.026], [-72.444, 43.01], [-72.476, 42.971], [-72.532, 42.955], [-72.525, 42.915], [-72.551, 42.886], [-72.557, 42.853], [-72.541, 42.807], [-72.477, 42.76], [-72.458, 42.727], [-72.846, 42.737], [-73.265, 42.746], [-73.276, 42.746], [-73.291, 42.802], [-73.279, 42.833], [-73.27, 43.03], [-73.257, 43.258], [-73.247, 43.516], [-73.241, 43.533], [-73.26, 43.566], [-73.297, 43.588], [-73.302, 43.624], [-73.366, 43.623], [-73.399, 43.568], [-73.431, 43.588], [-73.418, 43.622], [-73.429, 43.637], [-73.402, 43.693], [-73.37, 43.725], [-73.37, 43.744], [-73.351, 43.77], [-73.393, 43.822], [-73.372, 43.845], [-73.374, 43.874], [-73.409, 43.933], [-73.411, 44.027], [-73.438, 44.045], [-73.429, 44.079], [-73.411, 44.113], [-73.391, 44.189], [-73.362, 44.209], [-73.35, 44.23], [-73.324, 44.244], [-73.311, 44.274], [-73.324, 44.31], [-73.334, 44.372], [-73.315, 44.389], [-73.293, 44.437], [-73.307, 44.5], [-73.343, 44.552], [-73.382, 44.589], [-73.39, 44.617], [-73.37, 44.666], [-73.366, 44.742], [-73.333, 44.786], [-73.335, 44.804], [-73.38, 44.839], [-73.361, 44.897], [-73.34, 44.916], [-73.338, 44.965], [-73.354, 44.989], [-73.343, 45.011]]]}, "properties": {"name": "Vermont", "iso2": "US-VT", "admin_level": 4, "osm_id": 60759, "countrylevel_id": "iso2:US-VT", "osm_data": {"localname": "Vermont", "official_name": "", "alltags": {"name:ar": "فيرمونت", "name:bg": "Върмонт", "name:bn": "ভার্মন্ট", "name:el": "Βερμόντ", "name:en": "Vermont", "name:eo": "Vermonto", "name:fa": "ورمانت", "name:fy": "Fermont", "name:he": "ורמונט", "name:hi": "वर्मांट", "name:ht": "Vèmont", "name:hy": "Վերմոնտ", "name:ja": "バーモント州", "name:ka": "ვერმონტი", "name:ko": "버몬트", "name:lt": "Vermontas", "name:lv": "Vērmonta", "name:ml": "വെര്‍മോണ്ട്", "name:mr": "व्हरमाँट", "name:nv": "Bimáá' Hahoodzo", "name:pl": "Vermont", "name:ru": "Вермонт", "name:sr": "Вермонт", "name:ta": "வெர்மான்ட்", "name:th": "รัฐเวอร์มอนต์", "name:uk": "Вермонт", "name:ur": "ورمونٹ", "name:yi": "ווערמאנט", "name:zh": "佛蒙特州", "name:arc": "ܒܝܪܡܘܢܬ", "name:frp": "Vèrmont", "name:hak": "Fu-mùng-thi̍t", "name:haw": "Welemoneka", "ref:fips": "50"}}, "center_lat": 44.08, "center_lon": -72.66, "area_m2": 24902012076, "timezone": "America/New_York", "population": 623989, "wikidata_id": "Q16551", "wikipedia_id": "en:Vermont"}}