{"type": "Feature", "geometry": {"type": "Polygon", "coordinates": [[[-104.058, 44.997], [-104.056, 44.7], [-104.056, 44.474], [-104.055, 44.18], [-104.055, 43.853], [-104.055, 43.416], [-104.053, 43.001], [-104.053, 42.755], [-104.053, 42.5], [-104.053, 42.125], [-104.053, 41.915], [-104.053, 41.623], [-104.052, 41.418], [-104.054, 41.157], [-104.053, 41.002], [-104.645, 41.001], [-104.855, 40.998], [-105.136, 40.998], [-105.664, 40.997], [-106.191, 40.998], [-106.436, 41.002], [-106.89, 41.003], [-107.318, 41.003], [-107.626, 41.002], [-107.915, 41.001], [-108.467, 41.001], [-108.825, 41.001], [-109.05, 41.001], [-109.336, 41], [-109.657, 40.998], [-110.089, 40.997], [-110.274, 40.995], [-110.505, 40.995], [-111.047, 40.998], [-111.047, 41.252], [-111.046, 41.578], [-111.046, 42], [-111.047, 42.213], [-111.047, 42.514], [-111.044, 42.723], [-111.044, 42.875], [-111.044, 43.205], [-111.046, 43.62], [-111.047, 43.908], [-111.049, 44.133], [-111.045, 44.48], [-111.052, 44.555], [-111.055, 44.666], [-111.055, 45], [-110.507, 45.002], [-110.002, 45.003], [-109.639, 45.002], [-109.103, 45.006], [-109.082, 44.999], [-108.621, 45], [-108.359, 45], [-107.911, 45.001], [-107.645, 45.001], [-106.264, 44.994], [-105.928, 44.994], [-105.913, 45], [-105.09, 45], [-104.058, 44.997]]]}, "properties": {"name": "Wyoming", "iso2": "US-WY", "admin_level": 4, "osm_id": 161991, "countrylevel_id": "iso2:US-WY", "osm_data": {"localname": "Wyoming", "official_name": "", "alltags": {"name:ar": "وايومنغ", "name:az": "Vayominq", "name:bg": "Уайоминг", "name:br": "Wyoming", "name:el": "Ουαϊόμινγκ", "name:en": "Wyoming", "name:eo": "Vajomingo", "name:fa": "وایومینگ", "name:he": "ויומינג", "name:hy": "Վայոմինգ", "name:ja": "ワイオミング州ワイオミング州", "name:ka": "ვაიომინგი", "name:ko": "와이오밍", "name:la": "Vyomina", "name:lt": "Vajomingas", "name:lv": "Vaiominga", "name:nv": "Wááʼóómii Hahoodzo", "name:pl": "Wyoming", "name:ru": "Вайоминг", "name:sr": "Вајоминг", "name:ta": "வயோமிங்", "name:th": "รัฐไวโอมิง", "name:uk": "Вайомінг", "name:yi": "וויאמינג", "name:zh": "懷俄明州", "name:haw": "Waiomina", "ref:fips": "56", "is_in:country_code": "US"}}, "center_lat": 43.0, "center_lon": -107.55, "area_m2": 253469176469, "timezone": "America/Denver", "population": 578759, "wikidata_id": "Q1214", "wikipedia_id": "en:Wyoming"}}