{"type": "Feature", "geometry": {"type": "Polygon", "coordinates": [[[71.967, 40.245], [72.223, 40.485], [72.669, 40.523], [72.801, 40.677], [73.138, 40.828], [73.817, 41.126], [74.332, 40.703], [74.838, 40.522], [74.79, 40.354], [74.345, 40.094], [73.983, 40.049], [73.832, 39.782], [73.874, 39.483], [73.6, 39.46], [72.959, 39.347], [72.621, 39.399], [72.342, 39.332], [72.226, 39.177], [71.566, 39.457], [71.504, 39.611], [71.677, 39.76], [72.254, 39.657], [72.545, 39.797], [72.366, 39.959], [72.187, 40.306], [71.967, 40.245]], [[72.728, 40.516], [72.861, 40.475], [72.861, 40.542], [72.795, 40.576], [72.728, 40.516]]]}, "properties": {"name": "Osh Region", "iso2": "KG-O", "admin_level": 4, "osm_id": 178020, "countrylevel_id": "iso2:KG-O", "osm_data": {"localname": "Ошская область", "official_name": "", "alltags": {"is_in": "Kyrgyzstan", "name:en": "Osh Region", "name:es": "Provincia de Osh", "name:fr": "Province d'Och", "name:ja": "オシ", "name:ky": "Ош областы", "name:lt": "Ošo sritis", "name:ru": "Ошская область", "is_in:country": "Kyrgyzstan", "is_in:continent": "Asia", "is_in:country_code": "KG"}}, "center_lat": 40.12, "center_lon": 73.22, "area_m2": 28889764728, "timezone": "Asia/Bishkek", "population": 1299500, "wikidata_id": "Q231987", "wikipedia_id": "ru:Ошская область"}}