{"type": "Feature", "geometry": {"type": "Polygon", "coordinates": [[[75.642, 42.445], [75.803, 42.585], [76.194, 42.646], [76.471, 42.783], [77.135, 42.811], [77.223, 42.917], [77.779, 42.915], [77.968, 42.851], [78.492, 42.901], [79.182, 42.698], [79.505, 42.46], [79.968, 42.432], [80.174, 42.211], [80.138, 42.031], [79.409, 41.841], [78.645, 41.469], [78.189, 41.394], [77.907, 41.183], [77.419, 41.381], [77.226, 41.586], [76.746, 41.584], [76.633, 41.923], [76.207, 42.03], [75.916, 42.399], [75.642, 42.445]]]}, "properties": {"name": "Issyk-Kul Region", "iso2": "KG-Y", "admin_level": 4, "osm_id": 178025, "countrylevel_id": "iso2:KG-Y", "osm_data": {"localname": "Иссык-Кульская область", "official_name": "", "alltags": {"is_in": "Kyrgyzstan", "name:en": "Issyk-Kul Region", "name:es": "Provincia de Ysyk-Kol", "name:fr": "Province d'Yssykköl", "name:ja": "イシク・クル", "name:ky": "Ысык-Көл областы", "name:lt": "Isyk Kulio sritis", "name:ru": "Иссык-Кульская область", "is_in:country": "Kyrgyzstan", "is_in:continent": "Asia", "is_in:country_code": "KG"}}, "center_lat": 42.17, "center_lon": 77.93, "area_m2": 42095188783, "timezone": "Asia/Bishkek", "population": 450700, "wikidata_id": "Q487413", "wikipedia_id": "ru:Иссык-Кульская область"}}