{"type": "Feature", "geometry": {"type": "Polygon", "coordinates": [[[23.515, 53.956], [23.835, 53.953], [24.202, 53.97], [24.448, 53.904], [24.836, 54.149], [25.513, 54.308], [25.638, 54.477], [25.752, 54.824], [26.209, 54.997], [26.282, 54.941], [26.505, 54.761], [26.649, 54.446], [26.186, 54.025], [26.313, 53.704], [26.549, 53.536], [26.358, 53.364], [25.708, 53.399], [25.606, 53.082], [25.069, 52.858], [24.616, 52.941], [24.531, 52.75], [23.939, 52.778], [23.915, 53.162], [23.549, 53.768], [23.515, 53.956]]]}, "properties": {"name": "Hrodna Region", "iso2": "BY-HR", "admin_level": 4, "osm_id": 59275, "countrylevel_id": "iso2:BY-HR", "osm_data": {"localname": "Гродненская область", "official_name": "", "alltags": {"name:be": "Гродзенская вобласць", "name:en": "Hrodna Region", "name:eo": "Grodna regiono", "name:es": "Provincia de Grodno", "name:fr": "Voblast de Hrodna", "name:hr": "Grodnenska oblast", "name:ja": "フロドナ州", "name:lt": "Gardino sritis", "name:pl": "obwód grodzieński", "name:ru": "Гродненская область", "name:sk": "Hrodnianska oblasť", "name:uk": "Гродненська область", "website": "http://region.grodno.by/", "int_name": "Hrodzienskaja voblasć", "ref:COATO": "4000000000", "population": "1043681", "alt_name:eo": "Hrodna regiono", "addr:country": "BY", "is_in:country": "Belarus", "name:be-tarask": "Гарадзенская вобласьць", "is_in:continent": "Europe", "population:date": "2018-01-01", "is_in:country_code": "BY"}}, "center_lat": 53.72, "center_lon": 25.17, "area_m2": 25072286626, "timezone": "Europe/Minsk", "population": 1025800, "wikidata_id": "Q191061", "wikipedia_id": "ru:Гродненская область"}}