{"type": "Feature", "geometry": {"type": "Polygon", "coordinates": [[[25.028, -28.073], [25.277, -27.795], [25.827, -27.567], [26.075, -27.621], [26.268, -27.416], [26.423, -27.407], [26.474, -27.154], [26.621, -27.003], [26.947, -26.892], [27.174, -26.968], [27.408, -26.926], [27.59, -26.738], [28.008, -26.77], [28.244, -26.885], [28.585, -27.036], [29.039, -27.022], [29.136, -27.154], [29.443, -27.267], [29.619, -27.506], [29.759, -27.443], [29.617, -28.047], [29.663, -28.177], [28.874, -28.771], [28.817, -28.776], [28.612, -28.597], [28.223, -28.704], [28.012, -28.879], [27.766, -28.916], [27.648, -29.096], [27.512, -29.283], [27.455, -29.298], [27.454, -29.298], [27.37, -29.449], [27.295, -29.534], [27.065, -29.609], [27.109, -29.756], [27.177, -29.902], [27.394, -30.142], [27.377, -30.327], [27.284, -30.503], [27.004, -30.538], [26.943, -30.662], [26.629, -30.694], [26.163, -30.483], [25.779, -30.676], [25.467, -30.624], [25.307, -30.577], [24.902, -30.208], [24.796, -30.045], [24.348, -29.654], [24.902, -28.648], [24.828, -28.627], [25.028, -28.073]]]}, "properties": {"name": "Free State", "iso2": "ZA-FS", "admin_level": 4, "osm_id": 92417, "countrylevel_id": "iso2:ZA-FS", "osm_data": {"localname": "Free State", "official_name": "", "alltags": {"name:af": "Vrystaat", "name:ar": "فري ستيت", "name:en": "Free State", "name:eo": "Liberŝtato", "name:es": "Estado Libre", "name:fr": "État-Libre", "name:nl": "Vrijstaat", "name:pt": "Estado Livre", "name:ru": "Фри-Стейт"}}, "center_lat": -28.61, "center_lon": 26.87, "area_m2": 130298163569, "timezone": "Africa/Johannesburg", "population": 2753200, "wikidata_id": "Q160284", "wikipedia_id": "en:Free State (province)"}}