{"type": "Feature", "geometry": {"type": "Polygon", "coordinates": [[[42.341, 9.721], [42.32, 9.708], [42.274, 9.669], [42.263, 9.653], [42.243, 9.659], [42.203, 9.656], [42.144, 9.623], [42.127, 9.617], [42.136, 9.585], [42.155, 9.559], [42.141, 9.537], [42.07, 9.477], [42.054, 9.494], [42.021, 9.511], [41.984, 9.511], [41.941, 9.482], [41.916, 9.475], [41.862, 9.49], [41.817, 9.479], [41.775, 9.493], [41.737, 9.474], [41.73, 9.491], [41.751, 9.603], [41.752, 9.637], [41.776, 9.656], [41.811, 9.643], [41.876, 9.686], [41.909, 9.682], [42.021, 9.62], [42.033, 9.621], [42.188, 9.776], [42.216, 9.786], [42.253, 9.786], [42.296, 9.76], [42.341, 9.721]]]}, "properties": {"name": "Dire Dawa", "iso2": "ET-DD", "admin_level": 4, "osm_id": 1707654, "countrylevel_id": "iso2:ET-DD", "osm_data": {"localname": "ድሬ ዳዋ", "official_name": "", "alltags": {"name:am": "ድሬ ዳዋ", "name:ar": "ديرة داوا", "name:en": "Dire Dawa", "name:es": "Dire Dawa", "name:fr": "Diré Daoua", "name:ru": "Дыре-Дауа", "name:uk": "Дире-Дауа", "alt_name:fr": "Dire Dawa", "is_in:country": "Ethiopia", "is_in:continent": "Africa", "is_in:country_code": "ET"}}, "center_lat": 9.61, "center_lon": 42.01, "area_m2": 1059182624, "timezone": "Africa/Addis_Ababa", "population": 277000, "wikidata_id": "Q193486", "wikipedia_id": "en:Dire Dawa"}}