{"type": "Feature", "geometry": {"type": "Polygon", "coordinates": [[[42.062, 9.253], [42.077, 9.332], [42.103, 9.354], [42.132, 9.392], [42.15, 9.391], [42.172, 9.366], [42.191, 9.365], [42.225, 9.383], [42.256, 9.387], [42.273, 9.364], [42.262, 9.338], [42.269, 9.313], [42.253, 9.273], [42.275, 9.218], [42.263, 9.196], [42.237, 9.189], [42.201, 9.223], [42.152, 9.21], [42.116, 9.234], [42.077, 9.224], [42.062, 9.253]]]}, "properties": {"name": "Harari Region", "iso2": "ET-HA", "admin_level": 4, "osm_id": 1707700, "countrylevel_id": "iso2:ET-HA", "osm_data": {"localname": "ሀረሪ ሁስኒ", "official_name": "", "alltags": {"name:am": "ሀረሪ ሁስኒ", "name:en": "Harari Region", "name:es": "Harar", "name:fr": "Harar", "name:ru": "Харари", "name:so": "Adari", "name:uk": "Гарарі", "alt_name": "Harer", "is_in:country": "Ethiopia", "is_in:continent": "Africa", "is_in:country_code": "ET"}}, "center_lat": 9.29, "center_lon": 42.17, "area_m2": 377318828, "timezone": "Africa/Addis_Ababa", "population": 175900, "wikidata_id": "Q1033855", "wikipedia_id": "en:Harari Region"}}