{"type": "Feature", "geometry": {"type": "Polygon", "coordinates": [[[-40.958, -21.312], [-40.958, -21.311], [-40.959, -21.311], [-40.959, -21.31], [-40.959, -21.303], [-40.977, -21.289], [-40.996, -21.286], [-41.008, -21.252], [-41.095, -21.222], [-41.549, -21.182], [-41.734, -21.098], [-41.76, -20.805], [-41.875, -20.766], [-41.758, -20.207], [-41.411, -20.207], [-41.169, -19.672], [-40.945, -19.461], [-40.923, -19.203], [-41.111, -18.839], [-41.02, -18.46], [-41.052, -18.165], [-40.517, -17.894], [-40.223, -17.98], [-39.669, -18.348], [-39.742, -18.937], [-39.689, -19.304], [-39.81, -19.652], [-40.134, -19.962], [-40.199, -20.216], [-40.424, -20.627], [-40.757, -20.862], [-40.958, -21.311], [-40.958, -21.312]]]}, "properties": {"name": "Espírito Santo", "iso2": "BR-ES", "admin_level": 4, "osm_id": 54882, "countrylevel_id": "iso2:BR-ES", "osm_data": {"localname": "Espírito Santo", "official_name": "", "alltags": {"flag": "https://upload.wikimedia.org/wikipedia/commons/4/43/Bandeira_do_Esp%C3%ADrito_Santo.svg", "name:ar": "إسبيريتو سانتو", "name:be": "Эспірыту-Санту", "name:bg": "Еспирито Санто", "name:en": "Espírito Santo", "name:eo": "Espirito-Santo", "name:fa": "اسپیریتو سانتو", "name:he": "אספיריטו סאנטו", "name:hi": "एस्पिरितो सान्तो", "name:hy": "Էսպիրիտու Սանտու", "name:ja": "エスピリト サント", "name:ka": "ესპირიტუ-სანტუ", "name:ko": "이스피리투산투", "name:ku": "Espirito Santo", "name:la": "Spiritus Sanctus", "name:lv": "Espiritu Santu", "name:mk": "Еспирито Санто", "name:mr": "एस्पिरितो सांतो", "name:os": "Эспириту-Санту", "name:pl": "Espírito Santo", "name:pt": "Espírito Santo", "name:qu": "Ch'uya Ispiritu", "name:ru": "Эспириту-Санту", "name:sh": "Espiritu Santu", "name:sr": "Еспирито Санто", "name:tg": "Эспириту Санту", "name:th": "เอสปีรีตูซานตู", "name:uk": "Еспіріту-Санту", "name:uz": "Espiritu-Santu", "name:zh": "圣埃斯皮里图", "website": "http://www.es.gov.br/", "short_name": "ES", "is_in:country": "Brazil", "IBGE:GEOCODIGO": "32"}}, "center_lat": -19.57, "center_lon": -40.67, "area_m2": 46283936268, "timezone": "America/Sao_Paulo", "population": 3885049, "wikidata_id": "Q43233", "wikipedia_id": "pt:Espírito Santo (estado)"}}