{"type": "Feature", "geometry": {"type": "Polygon", "coordinates": [[[-58.17, -20.167], [-57.858, -19.97], [-58.131, -19.758], [-57.784, -19.033], [-57.557, -18.24], [-57.791, -17.587], [-57.746, -17.551], [-57.516, -17.863], [-57.103, -17.773], [-56.666, -17.337], [-56.174, -17.188], [-55.681, -17.339], [-55.224, -17.616], [-54.862, -17.624], [-54.58, -17.471], [-54.342, -17.66], [-53.95, -17.459], [-53.68, -17.254], [-53.704, -17.663], [-53.955, -17.883], [-53.774, -18], [-53.073, -18.035], [-53.101, -18.31], [-52.82, -18.31], [-52.962, -18.54], [-52.747, -18.692], [-52.449, -18.691], [-52.344, -18.822], [-51.652, -19.136], [-51.056, -19.332], [-50.934, -19.467], [-51.045, -19.737], [-50.998, -20.089], [-51.058, -20.233], [-51.35, -20.363], [-51.628, -20.725], [-51.628, -20.949], [-51.879, -21.137], [-51.861, -21.337], [-52.054, -21.673], [-52.484, -22.213], [-53.058, -22.536], [-53.105, -22.621], [-53.607, -22.951], [-53.771, -23.372], [-53.981, -23.456], [-54.098, -23.946], [-54.282, -24.073], [-54.668, -23.817], [-55.063, -23.993], [-55.446, -23.917], [-55.543, -23.524], [-55.666, -22.852], [-55.625, -22.628], [-55.853, -22.28], [-56.213, -22.276], [-56.419, -22.08], [-56.826, -22.296], [-57.237, -22.251], [-57.689, -22.088], [-57.994, -22.09], [-57.896, -21.704], [-57.968, -21.523], [-57.853, -21.32], [-57.817, -20.98], [-58.014, -20.606], [-57.996, -20.448], [-58.17, -20.167]]]}, "properties": {"name": "Mato Grosso do Sul", "iso2": "BR-MS", "admin_level": 4, "osm_id": 334051, "countrylevel_id": "iso2:BR-MS", "osm_data": {"localname": "Mato Grosso do Sul", "official_name": "", "alltags": {"flag": "https://upload.wikimedia.org/wikipedia/commons/6/64/Bandeira_de_Mato_Grosso_do_Sul.svg", "name:ar": "ماتو غروسو دو سول", "name:be": "Мату-Гросу-ду-Сул", "name:bg": "Мато Гросо до Сул", "name:en": "Mato Grosso do Sul", "name:eo": "Suda Mato-Groso", "name:es": "Mato Grosso del Sur", "name:eu": "Hegoaldeko Mato Grosso", "name:fa": "ماتوگروسو جنوبی", "name:gl": "Mato Groso do Sur", "name:he": "מאטו גרוסו דו סול", "name:hi": "मातो ग्रोसो दो सुल", "name:hy": "Մատու Գրոսու դու Սուլ", "name:ja": "マットグロッソ・ド・スル", "name:ka": "მატუ-გროსუ-დუ-სული", "name:ko": "마투그로수두술", "name:la": "Silva Crassa Meridionalis", "name:lt": "Pietų Mato Grosas", "name:lv": "Matugrosu du Sula", "name:mk": "Јужна Мато Грошо", "name:mr": "मातो ग्रोसो दो सुल", "name:os": "Мату-Гросу-ду-Сул", "name:pl": "Mato Grosso do Sul", "name:pt": "Mato Grosso do Sul", "name:qu": "Urin Mato Grosso", "name:ru": "Мату-Гросу-ду-Сул", "name:sh": "Matu Grosu du Sul", "name:sr": "Мато Гросо до Сул", "name:tg": "Мату Гросу ду Сул", "name:th": "มาตูโกรสซูโดซูล", "name:uk": "Мату-Гросу-ду-Сул", "name:uz": "Matu-Grosu-du-Sul", "name:zh": "南马托格罗索", "website": "http://www.ms.gov.br/", "short_name": "MS", "is_in:country": "Brazil", "IBGE:GEOCODIGO": "50"}}, "center_lat": -20.33, "center_lon": -54.85, "area_m2": 358958426041, "timezone": "America/Campo_Grande", "population": 2713147, "wikidata_id": "Q43319", "wikipedia_id": "pt:Mato Grosso do Sul"}}