{"type": "Feature", "geometry": {"type": "Polygon", "coordinates": [[[-41.358, -8.708], [-40.979, -8.399], [-40.781, -8.303], [-40.544, -7.965], [-40.715, -7.488], [-40.524, -7.318], [-40.127, -7.382], [-39.741, -7.326], [-39.054, -7.819], [-38.715, -7.622], [-38.608, -7.739], [-38.327, -7.694], [-38.039, -7.748], [-37.234, -7.274], [-37.026, -7.386], [-37.198, -7.635], [-37.309, -7.934], [-37.16, -8.17], [-36.96, -8.3], [-36.629, -8.111], [-36.628, -7.986], [-36.395, -7.808], [-35.874, -7.75], [-35.52, -7.64], [-35.494, -7.482], [-35.249, -7.375], [-34.9, -7.546], [-34.898, -7.546], [-34.834, -7.547], [-34.836, -7.547], [-34.82, -7.926], [-35.003, -8.549], [-35.153, -8.914], [-35.518, -8.817], [-35.748, -8.917], [-35.911, -8.861], [-36.126, -8.955], [-36.265, -9.166], [-36.607, -9.341], [-37.233, -9.206], [-37.417, -9.007], [-37.658, -8.993], [-37.755, -8.846], [-37.984, -9.155], [-38.238, -9.33], [-38.319, -8.992], [-38.541, -8.824], [-39.232, -8.707], [-39.416, -8.541], [-39.673, -8.784], [-39.892, -8.827], [-39.967, -9.054], [-40.276, -9.085], [-40.354, -9.375], [-40.747, -9.442], [-40.667, -9.159], [-40.821, -9.079], [-40.921, -8.835], [-41.131, -8.704], [-41.358, -8.708]]]}, "properties": {"name": "Pernambuco", "iso2": "BR-PE", "admin_level": 4, "osm_id": 303702, "countrylevel_id": "iso2:BR-PE", "osm_data": {"localname": "Pernambuco", "official_name": "", "alltags": {"flag": "https://upload.wikimedia.org/wikipedia/commons/5/59/Bandeira_de_Pernambuco.svg", "name:ar": "بيرنامبوكو", "name:be": "Пернамбуку", "name:bg": "Пернамбуко", "name:en": "Pernambuco", "name:eo": "Pernambuko", "name:fa": "پرنامبوکو", "name:fr": "Pernambouc", "name:he": "פרנמבוקו", "name:hi": "पेरनाम्बुको", "name:hy": "Պերնամբուկու", "name:ja": "ペルナンブーコ", "name:ka": "პერნამბუკუ", "name:ko": "페르남부쿠", "name:la": "Pernambucum", "name:lt": "Pernambukas", "name:lv": "Pernambuku", "name:mk": "Пернамбуко", "name:mr": "पर्नांबुको", "name:os": "Пернамбуку", "name:pl": "Pernambuco", "name:pt": "Pernambuco", "name:ru": "Пернамбуку", "name:sr": "Пернамбуко", "name:tg": "Пернамбуку", "name:th": "เปร์นัมบูกู", "name:uk": "Пернамбуку", "name:uz": "Prenambuku", "name:zh": "伯南布哥", "website": "http://www.pe.gov.br/", "short_name": "PE", "is_in:country": "Brazil", "IBGE:GEOCODIGO": "26"}}, "center_lat": -8.33, "center_lon": -38.0, "area_m2": 98705428919, "timezone": "America/Recife", "population": 9473266, "wikidata_id": "Q40942", "wikipedia_id": "pt:Pernambuco"}}