{"type": "Feature", "geometry": {"type": "Polygon", "coordinates": [[[-48.596, -25.975], [-49.168, -26], [-49.503, -26.221], [-49.869, -26.033], [-50.373, -26.078], [-50.593, -26.03], [-50.694, -26.179], [-51.243, -26.324], [-51.239, -26.629], [-51.998, -26.568], [-52.68, -26.353], [-53.093, -26.392], [-53.376, -26.242], [-53.639, -26.251], [-53.843, -25.932], [-53.862, -25.659], [-54.161, -25.541], [-54.594, -25.593], [-54.342, -24.707], [-54.261, -24.37], [-54.282, -24.073], [-54.098, -23.946], [-53.981, -23.456], [-53.771, -23.372], [-53.607, -22.951], [-53.105, -22.621], [-52.604, -22.572], [-52.197, -22.658], [-52.127, -22.519], [-51.559, -22.697], [-51.311, -22.673], [-50.888, -22.796], [-50.793, -22.905], [-50.127, -22.94], [-49.68, -23.166], [-49.511, -23.926], [-49.237, -24.379], [-49.312, -24.664], [-49.011, -24.657], [-48.503, -24.747], [-48.601, -25.01], [-48.278, -25.033], [-48.081, -25.244], [-48.39, -25.287], [-48.497, -25.501], [-48.437, -25.652], [-48.596, -25.975]]]}, "properties": {"name": "Paraná", "iso2": "BR-PR", "admin_level": 4, "osm_id": 297640, "countrylevel_id": "iso2:BR-PR", "osm_data": {"localname": "Paraná", "official_name": "", "alltags": {"flag": "https://upload.wikimedia.org/wikipedia/commons/9/93/Bandeira_do_Paran%C3%A1.svg", "name:af": "Paraná", "name:ar": "بارانا", "name:ay": "Parana Istadu", "name:az": "Parana ştatı", "name:be": "Парана", "name:bg": "Парана", "name:br": "Paraná", "name:bs": "Paraná", "name:ca": "Paranà", "name:cs": "Paraná", "name:cy": "Paraná", "name:da": "Paraná", "name:el": "Παρανά", "name:en": "Paraná", "name:eo": "Paranao", "name:es": "Estado de Paraná", "name:et": "Paraná osariik", "name:eu": "Paraná", "name:fa": "پارانا", "name:fi": "Paraná", "name:fr": "Paraná", "name:gl": "Estado do Paraná", "name:gn": "Parana", "name:he": "פרנה", "name:hi": "पाराना", "name:hr": "Paraná", "name:hu": "Paraná", "name:hy": "Պարանա", "name:ia": "Parana", "name:io": "Paraná", "name:is": "Paraná", "name:it": "Paraná", "name:ja": "パラナ", "name:ka": "პარანა", "name:ko": "파라나", "name:la": "Parana", "name:li": "Paraná", "name:lt": "Parana", "name:lv": "Parana", "name:mk": "Парана", "name:mr": "पाराना", "name:ms": "Paraná", "name:nl": "Paraná", "name:nn": "Delstaten Paraná", "name:no": "Paraná", "name:oc": "Estat del Paraná", "name:os": "Парана", "name:pl": "Parana", "name:pt": "Paraná", "name:qu": "Paraná suyu", "name:ru": "Парана", "name:sk": "Paraná", "name:sr": "Парана", "name:sv": "Paraná", "name:sw": "Paraná", "name:ta": "பரானா", "name:tg": "Парана", "name:th": "ปารานา", "name:tr": "Paraná", "name:tt": "Парана", "name:uk": "Парана", "name:ur": "پارانا", "name:uz": "Parana", "name:vi": "Paraná", "name:yi": "פאראנא", "name:yo": "Paraná", "name:zh": "巴拉那", "website": "http://www.pr.gov.br/", "short_name": "PR", "is_in:country": "Brazil", "IBGE:GEOCODIGO": "41"}}, "center_lat": -24.63, "center_lon": -51.63, "area_m2": 199540603177, "timezone": "America/Sao_Paulo", "population": 11320892, "wikidata_id": "Q15499", "wikipedia_id": "pt:Paraná"}}