{"type": "Feature", "geometry": {"type": "Polygon", "coordinates": [[[-34.834, -7.547], [-34.898, -7.546], [-34.9, -7.546], [-35.249, -7.375], [-35.494, -7.482], [-35.52, -7.64], [-35.874, -7.75], [-36.395, -7.808], [-36.628, -7.986], [-36.629, -8.111], [-36.96, -8.3], [-37.16, -8.17], [-37.309, -7.934], [-37.198, -7.635], [-37.026, -7.386], [-37.234, -7.274], [-38.039, -7.748], [-38.327, -7.694], [-38.608, -7.739], [-38.715, -7.622], [-38.535, -7.29], [-38.752, -6.997], [-38.642, -6.791], [-38.563, -6.356], [-38.257, -6.483], [-37.859, -6.374], [-37.742, -6.189], [-37.459, -6.145], [-37.256, -6.028], [-37.162, -6.16], [-37.377, -6.344], [-37.485, -6.71], [-37.193, -6.826], [-36.835, -6.731], [-36.604, -6.93], [-36.5, -6.358], [-36.005, -6.481], [-35.395, -6.494], [-35.146, -6.553], [-35.095, -6.497], [-35.057, -6.527], [-35.028, -6.506], [-34.991, -6.501], [-34.977, -6.487], [-34.971, -6.487], [-34.969, -6.487], [-34.97, -6.489], [-34.97, -6.49], [-34.969, -6.49], [-34.969, -6.488], [-34.968, -6.488], [-34.832, -6.965], [-34.832, -7.547], [-34.834, -7.547]]]}, "properties": {"name": "Paraíba", "iso2": "BR-PB", "admin_level": 4, "osm_id": 301464, "countrylevel_id": "iso2:BR-PB", "osm_data": {"localname": "Paraíba", "official_name": "", "alltags": {"flag": "https://upload.wikimedia.org/wikipedia/commons/b/bb/Bandeira_da_Para%C3%ADba.svg", "name:ar": "بارايبا", "name:be": "Параіба", "name:bg": "Параиба", "name:en": "Paraíba", "name:eo": "Paraibo", "name:fa": "پارائیبا", "name:gn": "Parayva", "name:he": "פאראיבה", "name:hi": "परेबा", "name:hy": "Պարաիբա", "name:ja": "パライバ", "name:ka": "პარაიბა", "name:ko": "파라이바", "name:la": "Parahyba", "name:lt": "Paraiba", "name:lv": "Paraiba", "name:mk": "Параиба", "name:mr": "परैबा", "name:os": "Параибæ", "name:pl": "Paraíba", "name:pt": "Paraíba", "name:ru": "Параиба", "name:sh": "Paraiba", "name:sr": "Параиба", "name:tg": "Параиба", "name:th": "ปาราอีบา", "name:uk": "Параїба", "name:uz": "Paraiba", "name:zh": "帕拉伊巴", "website": "http://www.paraiba.pb.gov.br/", "short_name": "PB", "is_in:country": "Brazil", "IBGE:GEOCODIGO": "25"}}, "center_lat": -7.12, "center_lon": -36.83, "area_m2": 56854170561, "timezone": "America/Fortaleza", "population": 4025558, "wikidata_id": "Q38088", "wikipedia_id": "pt:Paraíba"}}