{"type": "Feature", "geometry": {"type": "Polygon", "coordinates": [[[-64.646, 4.192], [-64.274, 4.143], [-64.035, 3.935], [-63.7, 3.945], [-63.512, 3.848], [-63.393, 3.981], [-62.984, 3.61], [-62.729, 3.805], [-62.701, 4.031], [-62.389, 4.178], [-62.148, 4.079], [-61.56, 4.252], [-61.462, 4.437], [-61.269, 4.54], [-60.964, 4.544], [-60.584, 4.956], [-60.738, 5.202], [-60.434, 5.182], [-60.219, 5.269], [-60.101, 5.173], [-59.982, 5.083], [-60.026, 4.706], [-60.161, 4.518], [-59.805, 4.466], [-59.669, 4.376], [-59.595, 3.796], [-59.851, 3.604], [-59.805, 3.357], [-59.955, 3.082], [-59.991, 2.683], [-59.905, 2.376], [-59.72, 2.237], [-59.746, 1.852], [-59.566, 1.736], [-59.253, 1.389], [-58.895, 1.227], [-58.895, 0.263], [-60.037, 0.264], [-60.205, -0.03], [-60.4, -0.518], [-60.304, -0.701], [-60.536, -0.87], [-60.736, -0.852], [-60.807, -0.696], [-61.131, -0.497], [-61.457, -0.654], [-61.582, -0.937], [-61.604, -1.448], [-61.883, -1.4], [-62.031, -1.127], [-62.504, -0.78], [-62.287, -0.634], [-62.188, -0.33], [-62.414, 0.075], [-62.532, 0.509], [-62.457, 0.786], [-62.471, 1.087], [-62.62, 1.404], [-62.801, 1.587], [-62.705, 1.937], [-63.023, 2.015], [-63.141, 2.173], [-63.379, 2.213], [-63.438, 2.436], [-63.931, 2.456], [-63.983, 2.715], [-64.226, 3.136], [-64.281, 3.709], [-64.477, 3.793], [-64.802, 4.174], [-64.646, 4.192]]]}, "properties": {"name": "Roraima", "iso2": "BR-RR", "admin_level": 4, "osm_id": 326287, "countrylevel_id": "iso2:BR-RR", "osm_data": {"localname": "Roraima", "official_name": "", "alltags": {"flag": "https://upload.wikimedia.org/wikipedia/commons/9/98/Bandeira_de_Roraima.svg", "name:ar": "رورايما", "name:be": "Рарайма", "name:bg": "Рорайма", "name:en": "Roraima", "name:eo": "Rorajmo", "name:fa": "رورایما", "name:he": "רוריימה", "name:hi": "रोरैमा", "name:hy": "Ռորայմա", "name:ja": "ロライマ", "name:ka": "რორაიმა", "name:ko": "호라이마", "name:mk": "Рораима", "name:mr": "रोराईमा", "name:os": "Рораймæ", "name:pl": "Roraima", "name:pt": "Roraima", "name:ru": "Рорайма", "name:sh": "Rorajma", "name:sr": "Рораима", "name:tg": "Рорайма", "name:th": "รอไรมา", "name:uk": "Рорайма", "name:uz": "Rorayma", "name:zh": "羅賴馬", "website": "http://www.rr.gov.br/", "short_name": "RR", "IBGE:GEOCODIGO": "14"}}, "center_lat": 2.08, "center_lon": -61.39, "area_m2": 225448570657, "timezone": "America/Boa_Vista", "population": 1805788, "wikidata_id": "Q42508", "wikipedia_id": "pt:Roraima"}}