{"type": "Feature", "geometry": {"type": "Polygon", "coordinates": [[[-44.724, -23.367], [-44.888, -23.224], [-44.743, -22.947], [-44.296, -22.827], [-44.184, -22.637], [-44.641, -22.559], [-44.809, -22.405], [-44.434, -22.251], [-44.154, -22.227], [-43.775, -22.066], [-43.35, -22.003], [-43.074, -22.093], [-42.868, -21.953], [-42.27, -21.717], [-42.369, -21.619], [-42.164, -21.101], [-41.875, -20.766], [-41.76, -20.805], [-41.734, -21.098], [-41.549, -21.182], [-41.095, -21.222], [-41.008, -21.252], [-40.996, -21.286], [-40.977, -21.289], [-40.959, -21.303], [-40.959, -21.31], [-40.959, -21.311], [-40.958, -21.311], [-40.958, -21.312], [-41.064, -21.488], [-40.986, -22.005], [-41.687, -22.299], [-41.973, -22.549], [-41.909, -22.779], [-42.038, -22.967], [-42.361, -22.935], [-43.039, -22.975], [-43.038, -22.692], [-43.278, -22.781], [-43.191, -22.99], [-43.563, -23.053], [-43.846, -22.902], [-44.578, -23.054], [-44.724, -23.367]]]}, "properties": {"name": "Rio de Janeiro", "iso2": "BR-RJ", "admin_level": 4, "osm_id": 57963, "countrylevel_id": "iso2:BR-RJ", "osm_data": {"localname": "Rio de Janeiro", "official_name": "", "alltags": {"flag": "https://upload.wikimedia.org/wikipedia/commons/7/73/Bandeira_do_estado_do_Rio_de_Janeiro.svg", "name:am": "ሪዮ ዴ ጃኔይሮ", "name:ar": "ريو دي جانيرو", "name:az": "Rio de Janeyro", "name:ba": "Рио-де-Жанейро", "name:be": "Рыа-дэ-Жанэйра", "name:bg": "Рио де Жанейро", "name:bn": "রিউ দি জানেইরু", "name:ce": "Рио-де-Жанейро", "name:cv": "Рио-де-Жанейро", "name:el": "Ρίο ντε Τζανέιρο", "name:en": "Rio de Janeiro", "name:eo": "Rio-de-Ĵanejro", "name:es": "Río de Janeiro", "name:fa": "ریودو ژانیرو", "name:fy": "Rio de Janêro", "name:gl": "Río de Xaneiro", "name:he": "ריו דה ז'ניירו", "name:hi": "रियो डि जेनेरो", "name:hy": "Ռիո դե Ժանեյրո", "name:ja": "リオ デ ジャネイロ", "name:ka": "რიო-დე-ჟანეირო", "name:kk": "Рио-де-Жанейро", "name:ko": "리우데자네이루", "name:ky": "Рио-де-Жанейро", "name:la": "Flumen Ianuarii", "name:lt": "Rio de Žaneiras", "name:lv": "Riodežaneiro", "name:mk": "Рио де Жанеиро", "name:ml": "റിയോ ഡി ജനീറോ", "name:mn": "Рио-де-Жанейро", "name:mr": "रियो दि जानेरो", "name:os": "Рио-де-Жанейро", "name:pa": "ਰਿਓ ਡੀ ਜਨੇਰੋ", "name:pl": "Rio de Janeiro", "name:pt": "Rio de Janeiro", "name:ru": "Рио-де-Жанейро", "name:sh": "Rio de Žaneiro", "name:sq": "Rio de Zhaneiro", "name:sr": "Рио де Жанеиро", "name:ta": "இரியோ டி செனீரோ", "name:tg": "Рио-де-Жанейро", "name:th": "รีโอเดจาเนโร", "name:tk": "Rio-de-Žaneýro", "name:tt": "Рио-де-Жанейро", "name:ug": "Rio dé Janéyro", "name:uk": "Ріо-де-Жанейро", "name:ur": "ریو دے جینیرو", "name:uz": "Rio-de-Janeyro", "name:yi": "ריא דע זשאנערא", "name:zh": "里約熱內盧", "website": "http://www.rj.gov.br/", "short_name": "RJ", "alt_name:gl": "Rio de Janeiro", "wikipedia:gl": "Estado do Río de Xaneiro", "is_in:country": "Brazil", "IBGE:GEOCODIGO": "33"}}, "center_lat": -22.2, "center_lon": -42.66, "area_m2": 43944108924, "timezone": "America/Sao_Paulo", "population": 16718956, "wikidata_id": "Q41428", "wikipedia_id": "pt:Rio de Janeiro (estado)"}}