{"type": "Feature", "geometry": {"type": "Polygon", "coordinates": [[[-49.711, -29.325], [-49.962, -29.199], [-49.961, -28.772], [-49.747, -28.536], [-50.592, -28.382], [-50.862, -28.141], [-50.928, -27.968], [-51.504, -27.556], [-51.876, -27.481], [-52.038, -27.346], [-52.48, -27.236], [-53.836, -27.17], [-53.682, -26.917], [-53.742, -26.648], [-53.639, -26.251], [-53.376, -26.242], [-53.093, -26.392], [-52.68, -26.353], [-51.998, -26.568], [-51.239, -26.629], [-51.243, -26.324], [-50.694, -26.179], [-50.593, -26.03], [-50.373, -26.078], [-49.869, -26.033], [-49.503, -26.221], [-49.168, -26], [-48.596, -25.975], [-48.505, -26.24], [-48.688, -26.673], [-48.554, -27.366], [-48.647, -27.484], [-48.628, -28.078], [-48.826, -28.606], [-49.195, -28.809], [-49.711, -29.325]]]}, "properties": {"name": "Santa Catarina", "iso2": "BR-SC", "admin_level": 4, "osm_id": 296584, "countrylevel_id": "iso2:BR-SC", "osm_data": {"localname": "Santa Catarina", "official_name": "", "alltags": {"flag": "https://upload.wikimedia.org/wikipedia/commons/1/1a/Bandeira_de_Santa_Catarina.svg", "name:ar": "سانتا كاتارينا", "name:ay": "Santa Catarina Istadu", "name:az": "Santa-Katarina", "name:be": "Санта-Катарына", "name:bg": "Санта Катарина", "name:br": "Santa Catarina", "name:bs": "Santa Catarina", "name:ca": "Estat de Santa Catarina", "name:cs": "Santa Catarina", "name:el": "Σάντα Καταρίνα", "name:en": "Santa Catarina", "name:eo": "Sankta Katarino", "name:et": "Santa Catarina osariik", "name:fa": "سانتا کاتارینا", "name:gl": "Santa Catarina, Brasil", "name:he": "סנטה קטרינה", "name:hi": "सांता कातारीना", "name:hr": "Santa Catarina", "name:hu": "Santa Catarina", "name:hy": "Սանտա Կատարինա", "name:is": "Santa Catarina", "name:ja": "サンタ カタリーナ", "name:ka": "სანტა-კატარინა", "name:kk": "Санта Катарина", "name:ko": "산타카타리나", "name:kw": "Santa Catarina", "name:la": "Sancta Catharina", "name:lt": "Santa Katarina", "name:lv": "Santakatarina", "name:mk": "Санта Катарина", "name:mr": "सांता कातारिना", "name:ms": "Santa Catarina", "name:nl": "Santa Catarina", "name:no": "Santa Catarina", "name:os": "Сантæ-Катаринæ", "name:pl": "Santa Catarina", "name:pt": "Santa Catarina", "name:qu": "Santa Catarina suyu", "name:ru": "Санта-Катарина", "name:sr": "Санта Катарина", "name:sv": "Santa Catarina", "name:tg": "Санта Катарина", "name:th": "ซันตากาตารีนา", "name:tr": "Santa Catarina", "name:tt": "Санта-Катарина", "name:uk": "Санта-Катаріна", "name:ur": "سانتا کاتارینا", "name:uz": "Santa-Katarina", "name:vi": "Santa Catarina", "name:yo": "Santa Catarina", "name:zh": "圣卡塔琳娜", "website": "http://www.sc.gov.br/", "short_name": "SC", "is_in:country": "Brasil", "IBGE:GEOCODIGO": "42"}}, "center_lat": -27.25, "center_lon": -50.49, "area_m2": 95548404630, "timezone": "America/Sao_Paulo", "population": 7001161, "wikidata_id": "Q41115", "wikipedia_id": "pt:Santa Catarina"}}