{"type": "Feature", "geometry": {"type": "Polygon", "coordinates": [[[45.31, 42.569], [45.776, 42.488], [45.648, 42.186], [46.422, 41.908], [46.181, 41.734], [46.345, 41.57], [46.65, 41.375], [46.658, 41.13], [46.106, 41.176], [45.757, 41.253], [45.308, 41.472], [45.048, 41.848], [45.127, 42.283], [45.31, 42.569]]]}, "properties": {"name": "Kakheti", "iso2": "GE-KA", "admin_level": 4, "osm_id": 2000091, "countrylevel_id": "iso2:GE-KA", "osm_data": {"localname": "კახეთი", "official_name": "", "alltags": {"name:ab": "Кахеҭи", "name:ar": "منطقة كاخيتي", "name:az": "Kaxeti", "name:be": "Кахетыя", "name:bg": "Кахетия", "name:br": "Kac'hethi", "name:ca": "Kakhètia", "name:ce": "КӀахети", "name:cs": "Kachetie", "name:el": "Καχέτι", "name:en": "Kakheti", "name:eo": "Kaĥeti", "name:es": "Kajetia", "name:et": "Kahhethi", "name:eu": "Kakheti", "name:fa": "کاختی", "name:fi": "Kakheti", "name:fr": "Kakhétie", "name:gl": "Kakheti", "name:he": "קאחתי", "name:hu": "Kaheti", "name:hy": "Կախեթի մարզ", "name:it": "Cachezia", "name:ja": "カヘティ州", "name:ka": "კახეთის მხარე", "name:ko": "카헤티주", "name:ku": "Kaxêtî", "name:lt": "Kachetija", "name:lv": "Kahetija", "name:mk": "Кахетија", "name:ml": "കാഖേറ്റി", "name:nl": "Kacheti", "name:nn": "Kakheti", "name:no": "Kakheti", "name:os": "Къахет", "name:pl": "Kachetia", "name:pt": "Cachétia", "name:qu": "Kakheti suyu", "name:ru": "Кахетия", "name:sr": "Кахетија", "name:sv": "Kachetien", "name:tr": "Kaheti", "name:uk": "Кахеті", "name:ur": "کاختی", "name:vi": "Kakheti", "name:zh": "卡赫季州", "int_name": "Kakheti"}}, "center_lat": 41.77, "center_lon": 45.77, "area_m2": 11356490824, "timezone": "Asia/Tbilisi", "population": 318400, "wikidata_id": "Q169674", "wikipedia_id": "en:Kakheti"}}