{"type": "Feature", "geometry": {"type": "Polygon", "coordinates": [[[16.95, 48.536], [17.234, 48.569], [17.514, 48.175], [17.247, 48.012], [17.161, 48.007], [17.067, 48.119], [16.843, 48.351], [16.95, 48.536]]]}, "properties": {"name": "Region of Bratislava", "iso2": "SK-BL", "admin_level": 4, "osm_id": 388265, "countrylevel_id": "iso2:SK-BL", "osm_data": {"localname": "Bratislavský kraj", "official_name": "", "alltags": {"NUTS3": "SK010", "name:ar": "إقليم براتيسلافا", "name:en": "Region of Bratislava", "name:es": "Región de Bratislava", "name:fr": "Région de Bratislava", "name:hr": "Bratislavski kraj", "name:hu": "Pozsonyi kerület", "name:pl": "Kraj bratysławski", "name:ru": "Братиславский край", "name:uk": "Братиславський край", "old_name:de": "Bratislavaer Landschaftsverband", "is_in:country": "Slovakia", "is_in:continent": "Europe", "is_in:country_code": "SK"}}, "center_lat": 48.32, "center_lon": 17.18, "area_m2": 2050271615, "timezone": "Europe/Bratislava", "population": 650838, "wikidata_id": "Q183498", "wikipedia_id": "sk:Bratislavský kraj"}}