{"type": "Feature", "geometry": {"type": "Polygon", "coordinates": [[[16.94, 48.617], [17.093, 48.799], [17.396, 48.813], [17.979, 48.613], [17.855, 48.35], [17.887, 47.91], [17.705, 47.759], [17.247, 48.012], [17.514, 48.175], [17.234, 48.569], [16.95, 48.536], [16.94, 48.617]]]}, "properties": {"name": "Region of Trnava", "iso2": "SK-TA", "admin_level": 4, "osm_id": 388266, "countrylevel_id": "iso2:SK-TA", "osm_data": {"localname": "Trnavský kraj", "official_name": "", "alltags": {"NUTS3": "SK021", "name:ar": "إقليم ترنافا", "name:en": "Region of Trnava", "name:es": "Región de Trnava", "name:fi": "Trnavan alue", "name:fr": "Région de Trnava", "name:hr": "Trnavski kraj", "name:hu": "Nagyszombati kerület", "name:lt": "Trnavos kraštas", "name:pl": "Kraj trnawski", "name:ru": "Трнавский край", "name:uk": "Трнавський край", "is_in:country": "Slovakia", "is_in:continent": "Europe", "is_in:country_code": "SK"}}, "center_lat": 48.35, "center_lon": 17.53, "area_m2": 4142827522, "timezone": "Europe/Bratislava", "population": 562372, "wikidata_id": "Q181342", "wikipedia_id": "sk:Trnavský kraj"}}