{"type": "Feature", "geometry": {"type": "Polygon", "coordinates": [[[120.389, 23.494], [120.389, 23.497], [120.39, 23.499], [120.392, 23.5], [120.395, 23.501], [120.399, 23.499], [120.401, 23.502], [120.404, 23.504], [120.408, 23.503], [120.408, 23.499], [120.412, 23.499], [120.413, 23.502], [120.417, 23.505], [120.425, 23.506], [120.426, 23.509], [120.428, 23.509], [120.433, 23.509], [120.434, 23.511], [120.433, 23.513], [120.435, 23.517], [120.437, 23.515], [120.439, 23.512], [120.441, 23.512], [120.442, 23.514], [120.441, 23.518], [120.444, 23.517], [120.448, 23.518], [120.449, 23.517], [120.453, 23.516], [120.457, 23.516], [120.457, 23.514], [120.456, 23.512], [120.458, 23.509], [120.46, 23.507], [120.462, 23.504], [120.462, 23.502], [120.464, 23.499], [120.468, 23.499], [120.47, 23.5], [120.471, 23.504], [120.475, 23.507], [120.478, 23.505], [120.482, 23.505], [120.483, 23.505], [120.485, 23.502], [120.485, 23.499], [120.484, 23.497], [120.486, 23.493], [120.489, 23.491], [120.494, 23.491], [120.494, 23.49], [120.5, 23.491], [120.503, 23.484], [120.505, 23.479], [120.509, 23.475], [120.509, 23.472], [120.507, 23.472], [120.505, 23.47], [120.504, 23.467], [120.5, 23.465], [120.501, 23.461], [120.497, 23.458], [120.497, 23.455], [120.495, 23.453], [120.489, 23.452], [120.486, 23.456], [120.482, 23.458], [120.481, 23.46], [120.477, 23.462], [120.469, 23.462], [120.465, 23.458], [120.465, 23.456], [120.461, 23.455], [120.457, 23.453], [120.457, 23.451], [120.455, 23.45], [120.455, 23.448], [120.453, 23.445], [120.45, 23.444], [120.447, 23.443], [120.442, 23.44], [120.44, 23.44], [120.436, 23.444], [120.438, 23.445], [120.435, 23.449], [120.433, 23.45], [120.43, 23.453], [120.429, 23.461], [120.426, 23.461], [120.424, 23.461], [120.415, 23.46], [120.413, 23.463], [120.412, 23.465], [120.408, 23.464], [120.407, 23.464], [120.402, 23.463], [120.394, 23.463], [120.394, 23.466], [120.397, 23.468], [120.399, 23.471], [120.399, 23.474], [120.399, 23.478], [120.397, 23.48], [120.394, 23.481], [120.393, 23.484], [120.395, 23.491], [120.39, 23.491], [120.389, 23.494]]]}, "properties": {"name": "Chiayi", "iso2": "TW-CYI", "admin_level": 6, "osm_id": 2790418, "countrylevel_id": "iso2:TW-CYI", "osm_data": {"localname": "嘉義市", "official_name": "", "alltags": {"name:ar": "شيا يي", "name:en": "Chiayi", "name:fr": "Chiayi", "name:id": "Kota Chiayi", "name:it": "Chiayi", "name:ja": "嘉義市", "name:ko": "자이 시", "name:pl": "Jiayi", "name:ru": "Цзяи", "name:th": "นครเจียอี้", "name:zh": "嘉義市", "nat_ref": "10020", "name:cdo": "Gă-ngiê", "name:ceb": "Chiayi", "name:hak": "Kâ-ngi-sṳ", "name:nan": "Ka-gī-chhī", "name:yue": "嘉義市", "wikipedia:ru": "Цзяи"}}, "center_lat": 23.48, "center_lon": 120.45, "area_m2": 59966589, "timezone": "Asia/Taipei", "population": 268622, "wikidata_id": "Q249995", "wikipedia_id": "zh:嘉義市"}}