{"type": "Feature", "geometry": {"type": "Polygon", "coordinates": [[[68.825, 24.316], [68.434, 24.123], [68.08, 24.126], [67.886, 24.215], [67.743, 24.069], [67.511, 24.156], [67.579, 24.356], [67.383, 24.537], [67.422, 24.791], [66.724, 24.919], [66.723, 24.92], [67.024, 25.11], [67.183, 25.466], [67.414, 25.802], [67.454, 26.09], [67.2, 26.512], [67.144, 27.3], [67.212, 27.555], [67.424, 27.892], [67.924, 28.011], [68.504, 28.446], [69.349, 28.457], [69.508, 28.493], [69.785, 28.355], [69.836, 28.088], [70.184, 27.855], [70.026, 27.563], [69.587, 27.183], [69.51, 26.744], [69.886, 26.579], [70.174, 26.551], [70.1, 25.938], [70.269, 25.714], [70.674, 25.676], [70.665, 25.397], [70.888, 25.148], [71.096, 24.689], [70.986, 24.365], [70.644, 24.225], [70.573, 24.422], [70.11, 24.295], [70.025, 24.171], [69.732, 24.171], [69.594, 24.292], [68.895, 24.258], [68.895, 24.257], [68.828, 24.316], [68.827, 24.317], [68.825, 24.316]]]}, "properties": {"name": "Sindh", "iso2": "PK-SD", "admin_level": 3, "osm_id": 357981, "countrylevel_id": "iso2:PK-SD", "osm_data": {"localname": "سنڌ", "official_name": "", "alltags": {"name:ar": "السند", "name:en": "Sindh", "name:es": "Sind", "name:fr": "Sind", "name:ja": "シンド", "name:kn": "ಸಿಂಧ್", "name:pl": "Sindh", "name:ru": "Синд", "name:sd": "سنڌ", "name:uk": "Сінд", "name:ur": "سندھ", "name:zh": "信德省", "border_type": "province", "is_in:country": "Pakistan", "is_in:continent": "Asia", "is_in:country_code": "PK"}}, "center_lat": 26.09, "center_lon": 68.82, "area_m2": 135432710234, "timezone": "Asia/Karachi", "population": 55245497, "wikidata_id": "Q37211", "wikipedia_id": "en:Sindh"}}