{"type": "Feature", "geometry": {"type": "MultiPolygon", "coordinates": [[[[-63.186, 18.265], [-63.191, 18.268], [-63.187, 18.269], [-63.184, 18.268], [-63.18, 18.265], [-63.186, 18.265]]], [[[-63.169, 18.263], [-63.171, 18.261], [-63.174, 18.262], [-63.174, 18.264], [-63.171, 18.266], [-63.169, 18.265], [-63.169, 18.263]]], [[[-63.424, 18.589], [-63.426, 18.585], [-63.428, 18.581], [-63.429, 18.581], [-63.428, 18.588], [-63.428, 18.591], [-63.425, 18.593], [-63.423, 18.595], [-63.422, 18.591], [-63.424, 18.589]]], [[[-62.926, 18.291], [-62.928, 18.289], [-62.931, 18.289], [-62.934, 18.286], [-62.939, 18.287], [-62.942, 18.285], [-62.943, 18.284], [-62.947, 18.284], [-62.948, 18.28], [-62.95, 18.278], [-62.953, 18.277], [-62.956, 18.275], [-62.96, 18.276], [-62.959, 18.279], [-62.956, 18.28], [-62.956, 18.284], [-62.958, 18.288], [-62.957, 18.29], [-62.955, 18.291], [-62.95, 18.291], [-62.948, 18.293], [-62.948, 18.295], [-62.946, 18.297], [-62.942, 18.294], [-62.936, 18.295], [-62.933, 18.293], [-62.932, 18.293], [-62.93, 18.291], [-62.926, 18.291]]], [[[-63.235, 18.283], [-63.236, 18.28], [-63.24, 18.28], [-63.242, 18.277], [-63.246, 18.276], [-63.249, 18.275], [-63.251, 18.271], [-63.253, 18.273], [-63.26, 18.275], [-63.261, 18.277], [-63.263, 18.279], [-63.259, 18.281], [-63.258, 18.284], [-63.255, 18.285], [-63.252, 18.283], [-63.248, 18.283], [-63.246, 18.28], [-63.244, 18.28], [-63.241, 18.282], [-63.235, 18.283]]], [[[-63, 18.257], [-62.997, 18.259], [-62.993, 18.26], [-62.988, 18.263], [-62.981, 18.263], [-62.98, 18.265], [-62.976, 18.268], [-62.974, 18.269], [-62.972, 18.27], [-62.971, 18.273], [-62.969, 18.276], [-62.966, 18.275], [-62.969, 18.27], [-62.966, 18.267], [-62.968, 18.266], [-62.97, 18.266], [-62.974, 18.261], [-62.975, 18.258], [-62.977, 18.257], [-62.981, 18.256], [-62.983, 18.252], [-62.987, 18.25], [-62.987, 18.248], [-62.985, 18.245], [-62.983, 18.244], [-62.98, 18.243], [-62.981, 18.24], [-62.986, 18.238], [-62.986, 18.233], [-62.985, 18.23], [-62.99, 18.229], [-62.991, 18.228], [-62.989, 18.225], [-62.992, 18.224], [-62.996, 18.224], [-62.998, 18.221], [-63.002, 18.221], [-63.006, 18.224], [-63.008, 18.223], [-63.008, 18.221], [-63.01, 18.219], [-63.013, 18.217], [-63.014, 18.215], [-63.013, 18.213], [-63.017, 18.21], [-63.02, 18.209], [-63.028, 18.205], [-63.032, 18.204], [-63.035, 18.204], [-63.035, 18.201], [-63.039, 18.197], [-63.043, 18.197], [-63.046, 18.198], [-63.049, 18.195], [-63.051, 18.192], [-63.054, 18.19], [-63.059, 18.19], [-63.06, 18.188], [-63.065, 18.188], [-63.068, 18.186], [-63.068, 18.188], [-63.07, 18.189], [-63.07, 18.186], [-63.072, 18.184], [-63.074, 18.183], [-63.076, 18.177], [-63.079, 18.175], [-63.082, 18.175], [-63.086, 18.172], [-63.088, 18.172], [-63.089, 18.17], [-63.092, 18.172], [-63.097, 18.17], [-63.1, 18.169], [-63.104, 18.168], [-63.105, 18.169], [-63.103, 18.171], [-63.105, 18.175], [-63.111, 18.177], [-63.117, 18.176], [-63.127, 18.169], [-63.131, 18.171], [-63.135, 18.17], [-63.141, 18.164], [-63.144, 18.165], [-63.147, 18.164], [-63.149, 18.161], [-63.153, 18.162], [-63.156, 18.164], [-63.159, 18.164], [-63.162, 18.163], [-63.165, 18.163], [-63.167, 18.161], [-63.17, 18.16], [-63.173, 18.16], [-63.17, 18.163], [-63.169, 18.163], [-63.166, 18.166], [-63.164, 18.168], [-63.163, 18.17], [-63.162, 18.171], [-63.159, 18.172], [-63.156, 18.171], [-63.154, 18.173], [-63.151, 18.175], [-63.148, 18.177], [-63.145, 18.18], [-63.142, 18.18], [-63.138, 18.182], [-63.135, 18.187], [-63.135, 18.189], [-63.133, 18.19], [-63.129, 18.192], [-63.124, 18.191], [-63.123, 18.192], [-63.118, 18.192], [-63.116, 18.192], [-63.112, 18.192], [-63.11, 18.194], [-63.101, 18.196], [-63.096, 18.195], [-63.093, 18.196], [-63.091, 18.199], [-63.091, 18.203], [-63.094, 18.204], [-63.092, 18.207], [-63.089, 18.209], [-63.086, 18.209], [-63.077, 18.212], [-63.07, 18.217], [-63.067, 18.221], [-63.068, 18.223], [-63.068, 18.228], [-63.072, 18.231], [-63.072, 18.233], [-63.07, 18.234], [-63.068, 18.237], [-63.065, 18.239], [-63.064, 18.239], [-63.054, 18.246], [-63.049, 18.248], [-63.045, 18.25], [-63.042, 18.251], [-63.035, 18.253], [-63.031, 18.255], [-63.027, 18.258], [-63.024, 18.254], [-63.022, 18.254], [-63.015, 18.258], [-63.012, 18.259], [-63.008, 18.261], [-63.004, 18.261], [-63.004, 18.258], [-63.001, 18.256], [-63, 18.257]]]]}, "properties": {"name": "Anguilla", "iso1": "AI", "admin_level": 2, "osm_id": 2177161, "countrylevel_id": "iso1:AI", "osm_data": {"localname": "Anguilla", "official_name": "", "alltags": {"flag": "http://upload.wikimedia.org/wikipedia/commons/b/b4/Flag_of_Anguilla.svg", "name:af": "Anguilla", "name:an": "Anguila", "name:ar": "أنجويلا", "name:az": "Angilya", "name:ba": "Ангилья", "name:be": "Ангілья", "name:bg": "Ангуила", "name:br": "Anguilla", "name:bs": "Angvila", "name:ca": "Anguilla", "name:cs": "Anguilla", "name:cy": "Anguilla", "name:da": "Anguilla", "name:dv": "އަންގީލާ", "name:el": "Ανγκουίλα", "name:en": "Anguilla", "name:eo": "Angvilo", "name:es": "Anguila", "name:et": "Anguilla", "name:eu": "Aingira", "name:fa": "آنگویلا", "name:fi": "Anguilla", "name:fr": "Anguilla", "name:gl": "Anguila", "name:he": "אנגווילה", "name:hi": "अंगुइला", "name:hr": "Angvila", "name:hu": "Anguilla", "name:hy": "Անգիլիա", "name:id": "Anguilla", "name:io": "Anguila", "name:is": "Angvilla", "name:it": "Anguilla", "name:ja": "アンギラ", "name:jv": "Anguilla", "name:ka": "ანგილია", "name:ko": "앵귈라", "name:kw": "Angwilla", "name:lb": "Anguilla", "name:li": "Anguilla", "name:lt": "Angilija", "name:lv": "Angilja", "name:mk": "Ангвила", "name:mr": "अँग्विला", "name:ms": "Anguilla", "name:ne": "एन्गुला", "name:nl": "Anguilla", "name:nn": "Anguilla", "name:no": "Anguilla", "name:oc": "Anguilla", "name:pa": "ਐਂਗੁਈਲਾ", "name:pl": "Anguilla", "name:pt": "Anguilla", "name:ro": "Anguilla", "name:ru": "Ангилья", "name:rw": "Angwiya", "name:sh": "Angvila", "name:sk": "Anguilla", "name:sl": "Angvila", "name:sq": "Anguilla", "name:sr": "Ангвила", "name:su": "Anguilla", "name:sv": "Anguilla", "name:sw": "Anguilla", "name:ta": "அங்கியுலா", "name:th": "แองกวิลลา", "name:tl": "Anggilya", "name:tr": "Anguilla", "name:ug": "ئانگۋىللا", "name:uk": "Ангілья", "name:ur": "اینگویلا", "name:uz": "Angilya", "name:vi": "Anguilla", "name:wo": "Angila", "name:yo": "Àngúíllà", "name:zh": "安圭拉", "name:als": "Anguilla", "name:ang": "Anguilla", "name:ast": "Anguila", "name:ckb": "ئەنگویلا", "name:dsb": "Anguilla", "name:frr": "Anguilla", "name:ilo": "Anguilla", "name:lij": "Anguilla", "name:lmo": "Anguilla", "name:nan": "Anguilla", "name:nds": "Anguilla", "name:nov": "Angila", "name:nrm": "Anguilla", "name:pms": "Anguilla", "name:pnb": "اینگویلا", "name:rue": "Анґуіла", "name:war": "Anguilla", "name:yue": "安圭拉", "alt_name:mk": "Ангила", "name:simple": "Anguilla", "name:be-tarask": "Ангілья", "is_in:continent": "North America", "default_language": "en"}}, "center_lat": 18.22, "center_lon": -63.06, "area_m2": 78757009, "timezone": "America/Anguilla", "population": 16086, "wikidata_id": "Q25228", "wikipedia_id": "en:Anguilla"}}