{"type": "Feature", "geometry": {"type": "MultiPolygon", "coordinates": [[[[-62.8, 17.919], [-62.799, 17.921], [-62.797, 17.921], [-62.796, 17.919], [-62.8, 17.919]]], [[[-62.855, 17.931], [-62.855, 17.934], [-62.85, 17.937], [-62.847, 17.937], [-62.848, 17.933], [-62.85, 17.931], [-62.852, 17.93], [-62.855, 17.931]]], [[[-62.91, 17.959], [-62.91, 17.96], [-62.906, 17.961], [-62.9, 17.959], [-62.898, 17.958], [-62.899, 17.955], [-62.903, 17.954], [-62.903, 17.951], [-62.905, 17.952], [-62.903, 17.957], [-62.91, 17.957], [-62.91, 17.959]]], [[[-62.874, 17.921], [-62.87, 17.922], [-62.868, 17.925], [-62.871, 17.928], [-62.868, 17.929], [-62.867, 17.927], [-62.867, 17.925], [-62.865, 17.924], [-62.865, 17.922], [-62.863, 17.92], [-62.861, 17.921], [-62.859, 17.919], [-62.856, 17.919], [-62.854, 17.921], [-62.85, 17.922], [-62.849, 17.917], [-62.847, 17.917], [-62.845, 17.917], [-62.844, 17.915], [-62.845, 17.913], [-62.843, 17.91], [-62.84, 17.91], [-62.84, 17.908], [-62.841, 17.906], [-62.84, 17.904], [-62.837, 17.903], [-62.835, 17.903], [-62.833, 17.904], [-62.834, 17.906], [-62.829, 17.91], [-62.827, 17.907], [-62.824, 17.907], [-62.821, 17.908], [-62.82, 17.91], [-62.817, 17.914], [-62.818, 17.917], [-62.815, 17.92], [-62.813, 17.915], [-62.809, 17.916], [-62.807, 17.915], [-62.81, 17.912], [-62.807, 17.91], [-62.806, 17.912], [-62.803, 17.913], [-62.804, 17.911], [-62.801, 17.908], [-62.797, 17.912], [-62.796, 17.91], [-62.797, 17.907], [-62.792, 17.908], [-62.789, 17.911], [-62.789, 17.905], [-62.791, 17.902], [-62.792, 17.901], [-62.791, 17.896], [-62.794, 17.895], [-62.795, 17.897], [-62.798, 17.897], [-62.801, 17.894], [-62.806, 17.893], [-62.809, 17.891], [-62.81, 17.888], [-62.81, 17.885], [-62.811, 17.883], [-62.813, 17.882], [-62.817, 17.886], [-62.818, 17.888], [-62.82, 17.888], [-62.823, 17.887], [-62.824, 17.883], [-62.827, 17.884], [-62.827, 17.882], [-62.828, 17.881], [-62.831, 17.885], [-62.834, 17.884], [-62.837, 17.878], [-62.84, 17.88], [-62.84, 17.882], [-62.842, 17.883], [-62.843, 17.886], [-62.845, 17.887], [-62.848, 17.891], [-62.848, 17.892], [-62.851, 17.893], [-62.853, 17.895], [-62.854, 17.897], [-62.852, 17.899], [-62.85, 17.895], [-62.849, 17.896], [-62.851, 17.9], [-62.853, 17.901], [-62.853, 17.904], [-62.857, 17.908], [-62.861, 17.908], [-62.865, 17.912], [-62.867, 17.915], [-62.87, 17.916], [-62.87, 17.919], [-62.874, 17.921]]]]}, "properties": {"name": "Saint Barthélemy", "iso1": "BL", "admin_level": 3, "osm_id": 537967, "countrylevel_id": "iso1:BL", "osm_data": {"localname": "Saint-Barthélemy", "official_name": "Collectivité de Saint-Barthélemy", "alltags": {"flag": "http://upload.wikimedia.org/wikipedia/commons/c/c3/Flag_of_France.svg", "name:af": "Sint Bartolomeus", "name:ar": "سان بارتيلمي", "name:az": "Sen-Bartelemi", "name:be": "Сен-Бартэлемі", "name:bg": "Сен Бартелми", "name:bn": "সেন্ট-বার্থেলেমি", "name:br": "Sant-Berteleme", "name:bs": "Sveti Bartolomej", "name:ca": "Saint-Barthélemy", "name:cs": "Svatý Bartoloměj", "name:cy": "Saint Barthélemy", "name:da": "Saint-Barthélemy", "name:el": "Άγιος Βαρθολομαίος", "name:en": "Saint Barthélemy", "name:eo": "Sankta-Bartolomeo", "name:es": "San Bartolomé", "name:et": "Saint-Barthélemy", "name:eu": "Saint Barthélemy", "name:fa": "سن بارتلمی", "name:fi": "Saint-Barthélemy", "name:fr": "Saint-Barthélemy", "name:he": "סן ברתלמי", "name:hr": "Sveti Bartolomej", "name:hy": "Սուրբ Բարդուղիմեոսի", "name:ja": "サン・バルテルミー", "name:ka": "სენ-ბართელმი", "name:kk": "Сен-Бартелеми", "name:ko": "생바르텔레미", "name:la": "Sancti Bartholomaei", "name:lt": "Šv. Bartolomėjus", "name:lv": "Senbartelmī", "name:mk": "Свети Вартоломеј", "name:mr": "सेंट बार्थेलेमी", "name:nb": "Saint-Barthélemy", "name:nl": "Saint-Barthélemy", "name:nn": "Saint-Barthélemy", "name:no": "Saint-Barthélemy", "name:oc": "Sant Bartomieu", "name:os": "Сен-Бартельми", "name:pl": "Saint-Barthélemy", "name:pt": "São Bartolomeu", "name:ro": "Saint-Barthélemy", "name:ru": "Сен-Бартельми", "name:sh": "Sveti Bartolomej", "name:sk": "Svätý Bartolomej", "name:sq": "Shën Barthélemy", "name:sr": "Свети Бартоломеј", "name:sv": "Saint Barthelemy", "name:sw": "Saint-Barth", "name:ta": "செயிண்ட்-பார்த்தலெமி", "name:th": "แซ็ง-บาร์เตเลมี", "name:tr": "Saint Barthélemy", "name:ug": "سېنت بارتھېلەمي ئاراللىرى", "name:uk": "Сен-Бартельмі", "name:ur": "سینٹ بارتھیملے", "name:uz": "Sen-Bartelemi", "name:vi": "Saint-Barthélemy", "name:yo": "Saint Barthélemy", "name:zh": "聖巴泰勒米", "alt_name": "Saint-Barth", "currency": "EUR", "int_name": "Saint-Barthélemy", "name:ast": "San Bartolomé", "name:azb": "سن بارتلمی", "name:car": "Ouanalao", "name:cdo": "Saint-Barthélemy", "name:ceb": "Saint-Barthélemy", "name:frr": "St. Barths", "name:gag": "Sent Barthélemy", "name:jam": "Sah Baatelmi", "name:myv": "Сен-Бартелеми", "name:nan": "Saint-Barthélemy", "name:pnb": "سینٹ بارتھلمی", "name:sco": "Saunt Barthélemy", "name:war": "Saint Barthélemy", "name:yue": "聖巴多祿繆島", "ref:INSEE": "977", "population": "9793", "alt_name:br": "Sant-Bartele;Sant-Bertelami;Sant-Bartalami", "alt_name:en": "Saint Barts;St. Barts", "alt_name:fr": "Saint-Barth", "border_type": "territorial", "description": "France, collectivités d'outre-mer, territoires régis par l’article 74 de la Constitution", "old_name:de": "Schwedisch-Westindien", "name:zh-Hans": "聖巴泰勒米", "name:zh-Hant": "聖巴多祿繆島", "official_name": "Collectivité de Saint-Barthélemy", "old_ref:INSEE": "97123", "description:de": "Frankreich, Gebietskörperschaft", "description:el": "Υπερπόντια κοινότητα της Γαλλίας", "description:en": "France, overseas collectivity", "description:nl": "Frankrijk, overzeese gemeenschap", "name:be-tarask": "Сэн-Бартэльмі", "official_name:ca": "Col·lectivitat de Saint-Barthélemy", "official_name:cs": "Společenství Svatý Bartoloměj", "official_name:de": "Kollektivität Sankt Bartholomäus", "official_name:en": "Collectivity of Saint Barthélemy", "official_name:eo": "Kolektivo Sankta-Bartolomeo", "official_name:es": "Colectividad de San Bartolomé", "official_name:et": "Saint-Barthélemy territoriaalühendus", "official_name:fr": "Collectivité de Saint-Barthélemy", "official_name:hy": "Սուրբ Բարդուղիմեոսի համայնք", "official_name:it": "Collettività di Saint-Barthélemy", "official_name:ja": "セントバーセレミー集団性", "official_name:la": "Collectivitas Sancti Barthélemy", "official_name:ru": "Сообщество Сен-Бартельми", "official_name:tr": "Saint-Barthélemy Kolektivitesi", "official_name:yo": "Ìkólẹ̀jọ Saint-Barthélemy", "official_name:frr": "Cymuned Saint Barthélemy", "official_name:sco": "Collectivity o Saunt Barthélemy"}}, "center_lat": 17.9, "center_lon": -62.83, "area_m2": 20400021, "timezone": "America/St_Barthelemy", "population": 9625, "wikidata_id": "Q25362", "wikipedia_id": "fr:Saint-Barthélemy (Antilles françaises)"}}