{"type": "Feature", "geometry": {"type": "MultiPolygon", "coordinates": [[[[96.893, -12.116], [96.893, -12.114], [96.891, -12.113], [96.889, -12.112], [96.888, -12.108], [96.891, -12.109], [96.896, -12.115], [96.902, -12.117], [96.906, -12.122], [96.904, -12.124], [96.901, -12.121], [96.9, -12.12], [96.896, -12.121], [96.894, -12.121], [96.893, -12.116]]], [[[96.883, -12.087], [96.887, -12.09], [96.888, -12.093], [96.886, -12.094], [96.885, -12.091], [96.883, -12.09], [96.878, -12.09], [96.879, -12.087], [96.883, -12.087]]], [[[96.826, -11.84], [96.824, -11.842], [96.82, -11.842], [96.817, -11.838], [96.817, -11.835], [96.819, -11.831], [96.821, -11.825], [96.824, -11.823], [96.828, -11.824], [96.829, -11.828], [96.83, -11.831], [96.829, -11.835], [96.828, -11.835], [96.827, -11.839], [96.826, -11.84]]], [[[96.845, -12.082], [96.842, -12.082], [96.837, -12.079], [96.836, -12.079], [96.832, -12.075], [96.833, -12.074], [96.839, -12.073], [96.841, -12.073], [96.844, -12.075], [96.846, -12.077], [96.845, -12.082]]], [[[96.861, -12.193], [96.864, -12.196], [96.864, -12.2], [96.862, -12.202], [96.858, -12.203], [96.851, -12.205], [96.849, -12.207], [96.846, -12.207], [96.84, -12.204], [96.839, -12.203], [96.833, -12.195], [96.827, -12.187], [96.82, -12.183], [96.819, -12.18], [96.818, -12.177], [96.818, -12.174], [96.82, -12.171], [96.821, -12.165], [96.821, -12.159], [96.817, -12.145], [96.817, -12.142], [96.819, -12.14], [96.82, -12.135], [96.822, -12.136], [96.824, -12.14], [96.825, -12.142], [96.827, -12.15], [96.83, -12.16], [96.833, -12.166], [96.833, -12.171], [96.828, -12.172], [96.828, -12.17], [96.83, -12.168], [96.831, -12.164], [96.827, -12.162], [96.826, -12.16], [96.824, -12.168], [96.821, -12.177], [96.821, -12.181], [96.824, -12.181], [96.827, -12.179], [96.83, -12.179], [96.83, -12.182], [96.835, -12.187], [96.835, -12.189], [96.839, -12.196], [96.841, -12.198], [96.842, -12.201], [96.845, -12.205], [96.848, -12.205], [96.851, -12.202], [96.852, -12.201], [96.855, -12.201], [96.856, -12.197], [96.859, -12.195], [96.861, -12.193]]], [[[96.892, -12.203], [96.894, -12.202], [96.895, -12.204], [96.898, -12.202], [96.9, -12.205], [96.902, -12.206], [96.903, -12.205], [96.903, -12.198], [96.907, -12.196], [96.907, -12.198], [96.913, -12.2], [96.918, -12.199], [96.921, -12.197], [96.919, -12.194], [96.92, -12.192], [96.921, -12.189], [96.921, -12.187], [96.923, -12.187], [96.922, -12.185], [96.927, -12.184], [96.928, -12.182], [96.927, -12.178], [96.925, -12.176], [96.921, -12.168], [96.921, -12.165], [96.919, -12.165], [96.919, -12.161], [96.921, -12.16], [96.923, -12.166], [96.93, -12.179], [96.929, -12.184], [96.925, -12.191], [96.923, -12.197], [96.92, -12.2], [96.917, -12.202], [96.91, -12.204], [96.904, -12.207], [96.899, -12.208], [96.894, -12.209], [96.893, -12.205], [96.887, -12.203], [96.885, -12.201], [96.886, -12.196], [96.888, -12.2], [96.891, -12.199], [96.892, -12.203]]], [[[96.916, -12.154], [96.919, -12.153], [96.919, -12.155], [96.916, -12.154]]], [[[96.916, -12.148], [96.919, -12.15], [96.92, -12.15], [96.917, -12.146], [96.92, -12.145], [96.922, -12.148], [96.921, -12.15], [96.919, -12.151], [96.915, -12.15], [96.916, -12.148]]], [[[96.916, -12.143], [96.916, -12.139], [96.919, -12.143], [96.918, -12.144], [96.916, -12.143]]]]}, "properties": {"name": "Cocos (Keeling) Islands", "iso1": "CC", "admin_level": 4, "osm_id": 82636, "countrylevel_id": "iso1:CC", "osm_data": {"localname": "Cocos (Keeling) Islands", "official_name": "Territory of the Cocos (Keeling) Islands", "alltags": {"name:af": "Cocos (Keeling) Eilande", "name:am": "ኮኮስ[ኬሊንግ] ደሴቶች", "name:ar": "جزر كوكوس (كيلينغ)", "name:az": "Kokos Adaları", "name:be": "Какосавыя (Кілінг) астравы", "name:bg": "Кокосови [Кийлинг] острови", "name:bn": "কোকোস দ্বীপপুঞ্জ", "name:br": "Inizi Cocos (Keeling)", "name:bs": "Kokos (Keling) Ostrva", "name:ca": "Illes Cocos", "name:cs": "Kokosové ostrovy", "name:cy": "Ynysoedd Cocos [Keeling]", "name:da": "Cocosøerne", "name:dz": "ཀོ་ཀོས་གླིང་ཚོམ", "name:ee": "Kokos [Kiling] fudomekpo nutome", "name:el": "Νησιά Κόκος", "name:en": "Cocos (Keeling) Islands", "name:eo": "Kokosinsuloj", "name:es": "Islas Cocos (Keeling)", "name:et": "Kookossaared", "name:eu": "Cocos (Keeling) uharteak", "name:fa": "جزایر کوکوس", "name:fi": "Kookossaaret", "name:fo": "Kokosoyggjarnar", "name:fr": "Îles Cocos", "name:fy": "de Kokoseilannen", "name:ga": "Oileáin na gCócónna", "name:gd": "Na h-Eileanan Cocos [Keeling]", "name:gl": "Illas Cocos [Keeling]", "name:gu": "કોકોઝ આઇલેન્ડ", "name:he": "איי קוקס [קילינג]", "name:hi": "कोकोस द्वीप", "name:hr": "Kokosovi otoci", "name:hu": "Kókusz (Keeling)-szigetek", "name:id": "Kepulauan Cocos (Keeling)", "name:is": "Kókoseyjar", "name:it": "Isole Cocos e Keeling", "name:ja": "ココス[キーリング]諸島", "name:kl": "Cocos qeqertaq", "name:km": "កោះ​កូកូស", "name:kn": "ಕೊಕೊಸ್ ದ್ವೀಪಗಳು", "name:ko": "코코스제도", "name:ks": "کوکَس کیٖلِنٛگ جٔزیٖرٕ", "name:ku": "Giravên Cocos (Keeling)", "name:ln": "Bisanga Kokos", "name:lo": "ຫມູ່ເກາະໂກໂກສ", "name:lt": "Kokosų (Kilingo) salos", "name:lv": "Kokosu (Kīlinga) salas", "name:mk": "Кокосови острови", "name:ml": "കോക്കസ്", "name:mn": "Кокосын (Кийлингийн) Арлууд", "name:mr": "कोकोस बेटे", "name:ms": "Cocos [Keeling] Islands", "name:my": "ကိုကိုး ကျွန်းစု", "name:ne": "कोकोस [किलिंग] टापु", "name:nl": "Cocoseilanden", "name:nn": "Kokosøyane", "name:no": "Kokosøyene", "name:or": "କୋକୋସ୍ ଆଇସଲ୍ୟାଣ୍ଡ", "name:pl": "Wyspy Kokosowe", "name:pt": "Ilhas Coco", "name:rm": "Inslas Cocos", "name:ro": "Insulele Cocos", "name:ru": "Кокосовые (Килинг) острова", "name:se": "Cocos-sullot", "name:si": "කොකෝස් දූපත්", "name:sk": "Kokosové ostrovy", "name:sl": "Kokosovi otoki", "name:sr": "Кокосова (Килинг) Острва", "name:sv": "Kokosöarna", "name:sw": "Visiwa vya Cocos [Keeling]", "name:ta": "காகோஸ் தீவுகள்", "name:te": "కోకోస్ దీవులు", "name:th": "หมู่เกาะโคโคส", "name:ti": "ኮኮስ ኬሊንግ ደሴቶች", "name:to": "ʻOtumotu Koko", "name:tr": "Cocos (Keeling) Adaları", "name:uk": "Кокосові острови", "name:ur": "کوکوس [کیلنگ] جزائر", "name:vi": "Quần đảo Cocos (Keeling)", "name:zh": "科科斯（基林）群島", "name:zu": "i-Cocos (Keeling) Islands", "int_name": "Cocos (Keeling) Islands", "name:ast": "Islles Cocos [Keeling]", "name:chr": "ᎪᎪᏍ [ᎩᎵᏂ] ᏚᎦᏚᏛ", "name:fur": "Isulis Cocos", "name:ksh": "de Kokkos-Enselle", "alt_name:cs": "Keelingovy ostrovy", "alt_name:en": "Cocos Islands;Keeling Islands", "geonames:id": "1547376", "official_name": "Territory of the Cocos (Keeling) Islands", "short_name:cs": "Území Keelingovy ostrovy", "Schalansky_ref": "56", "is_in:continent": "Oceania", "official_name:cs": "Území Kokosové ostrovy", "official_name:es": "Territorio de las Islas Cocos (Keeling)", "official_name:lv": "Kokosu (Kīlinga) salu teritorija", "official_name:pl": "Terytorium Wysp Kokosowych (Keelinga)", "official_name:sk": "Teritórium Kokosových ostrovov", "country_code_fips": "CK", "country_code_iso3166_1_alpha_2": "CC"}}, "center_lat": -12.12, "center_lon": 96.86, "area_m2": 14950949, "timezone": "Indian/Cocos", "population": 596, "wikidata_id": "Q36004", "wikipedia_id": "en:Cocos (Keeling) Islands"}}