{"type": "Feature", "geometry": {"type": "MultiPolygon", "coordinates": [[[[-68.641, 11.986], [-68.641, 11.983], [-68.642, 11.98], [-68.644, 11.979], [-68.644, 11.982], [-68.645, 11.987], [-68.647, 11.99], [-68.648, 11.999], [-68.646, 12], [-68.643, 11.998], [-68.641, 11.995], [-68.64, 11.99], [-68.641, 11.986]]], [[[-68.999, 12.216], [-68.992, 12.211], [-68.984, 12.205], [-68.98, 12.2], [-68.976, 12.197], [-68.97, 12.194], [-68.961, 12.192], [-68.952, 12.189], [-68.944, 12.187], [-68.938, 12.187], [-68.935, 12.188], [-68.93, 12.189], [-68.923, 12.187], [-68.915, 12.181], [-68.904, 12.178], [-68.901, 12.178], [-68.896, 12.178], [-68.889, 12.178], [-68.876, 12.176], [-68.869, 12.176], [-68.867, 12.175], [-68.864, 12.175], [-68.862, 12.176], [-68.857, 12.175], [-68.855, 12.175], [-68.849, 12.171], [-68.846, 12.169], [-68.837, 12.163], [-68.83, 12.158], [-68.824, 12.155], [-68.819, 12.151], [-68.816, 12.148], [-68.812, 12.144], [-68.806, 12.131], [-68.806, 12.129], [-68.812, 12.125], [-68.813, 12.125], [-68.817, 12.128], [-68.819, 12.126], [-68.821, 12.129], [-68.823, 12.129], [-68.826, 12.125], [-68.823, 12.123], [-68.822, 12.121], [-68.828, 12.12], [-68.829, 12.119], [-68.828, 12.115], [-68.826, 12.117], [-68.824, 12.117], [-68.824, 12.115], [-68.822, 12.114], [-68.822, 12.11], [-68.82, 12.11], [-68.818, 12.112], [-68.82, 12.115], [-68.818, 12.116], [-68.816, 12.115], [-68.811, 12.112], [-68.81, 12.11], [-68.808, 12.111], [-68.808, 12.113], [-68.803, 12.111], [-68.802, 12.112], [-68.805, 12.115], [-68.81, 12.119], [-68.811, 12.123], [-68.809, 12.124], [-68.807, 12.127], [-68.805, 12.128], [-68.804, 12.126], [-68.803, 12.122], [-68.801, 12.117], [-68.798, 12.114], [-68.793, 12.107], [-68.792, 12.103], [-68.787, 12.097], [-68.786, 12.096], [-68.781, 12.09], [-68.777, 12.086], [-68.775, 12.084], [-68.767, 12.074], [-68.765, 12.07], [-68.762, 12.068], [-68.76, 12.064], [-68.757, 12.062], [-68.752, 12.058], [-68.742, 12.05], [-68.739, 12.048], [-68.737, 12.045], [-68.739, 12.044], [-68.745, 12.046], [-68.749, 12.044], [-68.75, 12.041], [-68.755, 12.041], [-68.758, 12.042], [-68.762, 12.044], [-68.768, 12.043], [-68.772, 12.044], [-68.775, 12.045], [-68.779, 12.043], [-68.785, 12.04], [-68.788, 12.036], [-68.792, 12.034], [-68.798, 12.037], [-68.804, 12.037], [-68.809, 12.041], [-68.816, 12.043], [-68.82, 12.044], [-68.823, 12.048], [-68.83, 12.05], [-68.835, 12.054], [-68.834, 12.056], [-68.835, 12.059], [-68.842, 12.059], [-68.848, 12.061], [-68.852, 12.065], [-68.853, 12.067], [-68.851, 12.07], [-68.851, 12.072], [-68.85, 12.074], [-68.847, 12.073], [-68.843, 12.073], [-68.843, 12.076], [-68.839, 12.078], [-68.839, 12.08], [-68.841, 12.082], [-68.841, 12.085], [-68.843, 12.087], [-68.847, 12.085], [-68.847, 12.087], [-68.85, 12.086], [-68.85, 12.082], [-68.854, 12.084], [-68.857, 12.083], [-68.858, 12.08], [-68.859, 12.08], [-68.861, 12.085], [-68.863, 12.085], [-68.864, 12.083], [-68.866, 12.083], [-68.867, 12.08], [-68.865, 12.08], [-68.864, 12.078], [-68.862, 12.076], [-68.86, 12.077], [-68.858, 12.074], [-68.855, 12.075], [-68.853, 12.071], [-68.854, 12.066], [-68.853, 12.064], [-68.856, 12.063], [-68.859, 12.064], [-68.86, 12.067], [-68.862, 12.068], [-68.862, 12.072], [-68.863, 12.073], [-68.863, 12.076], [-68.867, 12.079], [-68.868, 12.076], [-68.871, 12.073], [-68.873, 12.071], [-68.878, 12.073], [-68.882, 12.077], [-68.89, 12.081], [-68.893, 12.084], [-68.897, 12.083], [-68.898, 12.086], [-68.91, 12.094], [-68.919, 12.099], [-68.928, 12.102], [-68.935, 12.104], [-68.936, 12.105], [-68.933, 12.107], [-68.931, 12.111], [-68.93, 12.116], [-68.926, 12.116], [-68.925, 12.112], [-68.924, 12.111], [-68.923, 12.108], [-68.92, 12.11], [-68.92, 12.111], [-68.923, 12.113], [-68.923, 12.114], [-68.917, 12.115], [-68.916, 12.11], [-68.914, 12.108], [-68.914, 12.112], [-68.916, 12.115], [-68.912, 12.114], [-68.911, 12.118], [-68.913, 12.119], [-68.912, 12.121], [-68.913, 12.126], [-68.915, 12.126], [-68.917, 12.13], [-68.916, 12.134], [-68.917, 12.136], [-68.92, 12.132], [-68.922, 12.131], [-68.922, 12.127], [-68.921, 12.124], [-68.918, 12.124], [-68.917, 12.126], [-68.914, 12.123], [-68.913, 12.121], [-68.917, 12.12], [-68.92, 12.12], [-68.92, 12.122], [-68.922, 12.123], [-68.926, 12.124], [-68.926, 12.121], [-68.928, 12.12], [-68.931, 12.119], [-68.932, 12.123], [-68.935, 12.123], [-68.937, 12.126], [-68.938, 12.125], [-68.942, 12.127], [-68.944, 12.126], [-68.946, 12.127], [-68.949, 12.127], [-68.947, 12.123], [-68.944, 12.124], [-68.944, 12.121], [-68.941, 12.119], [-68.942, 12.117], [-68.938, 12.116], [-68.932, 12.114], [-68.933, 12.11], [-68.935, 12.108], [-68.938, 12.105], [-68.942, 12.105], [-68.95, 12.109], [-68.952, 12.109], [-68.961, 12.113], [-68.965, 12.117], [-68.97, 12.12], [-68.969, 12.122], [-68.968, 12.127], [-68.969, 12.128], [-68.967, 12.13], [-68.964, 12.135], [-68.967, 12.137], [-68.968, 12.139], [-68.97, 12.14], [-68.972, 12.138], [-68.973, 12.135], [-68.971, 12.134], [-68.971, 12.13], [-68.972, 12.128], [-68.972, 12.125], [-68.975, 12.127], [-68.978, 12.128], [-68.979, 12.129], [-68.984, 12.131], [-68.985, 12.134], [-68.992, 12.136], [-68.994, 12.136], [-68.998, 12.14], [-69, 12.144], [-68.999, 12.147], [-69, 12.15], [-69.003, 12.153], [-69.005, 12.161], [-69.013, 12.168], [-69.017, 12.178], [-69.02, 12.18], [-69.019, 12.185], [-69.021, 12.189], [-69.024, 12.191], [-69.027, 12.195], [-69.035, 12.198], [-69.043, 12.201], [-69.048, 12.199], [-69.05, 12.199], [-69.051, 12.196], [-69.054, 12.191], [-69.057, 12.188], [-69.061, 12.187], [-69.066, 12.189], [-69.068, 12.189], [-69.072, 12.192], [-69.078, 12.195], [-69.08, 12.2], [-69.081, 12.202], [-69.085, 12.203], [-69.086, 12.206], [-69.086, 12.211], [-69.087, 12.213], [-69.086, 12.217], [-69.086, 12.219], [-69.093, 12.222], [-69.093, 12.224], [-69.091, 12.227], [-69.095, 12.229], [-69.095, 12.232], [-69.097, 12.235], [-69.1, 12.236], [-69.104, 12.235], [-69.105, 12.239], [-69.104, 12.244], [-69.107, 12.246], [-69.108, 12.25], [-69.11, 12.251], [-69.116, 12.256], [-69.118, 12.257], [-69.12, 12.26], [-69.122, 12.26], [-69.124, 12.262], [-69.126, 12.266], [-69.128, 12.267], [-69.127, 12.271], [-69.124, 12.271], [-69.124, 12.275], [-69.121, 12.276], [-69.118, 12.275], [-69.117, 12.278], [-69.121, 12.279], [-69.122, 12.282], [-69.124, 12.281], [-69.123, 12.278], [-69.125, 12.277], [-69.126, 12.279], [-69.129, 12.276], [-69.126, 12.272], [-69.128, 12.272], [-69.129, 12.268], [-69.135, 12.269], [-69.139, 12.27], [-69.142, 12.277], [-69.146, 12.281], [-69.149, 12.282], [-69.15, 12.283], [-69.152, 12.288], [-69.155, 12.293], [-69.156, 12.296], [-69.153, 12.3], [-69.15, 12.303], [-69.149, 12.303], [-69.148, 12.307], [-69.149, 12.312], [-69.151, 12.315], [-69.152, 12.322], [-69.151, 12.328], [-69.152, 12.331], [-69.153, 12.332], [-69.154, 12.336], [-69.154, 12.339], [-69.153, 12.342], [-69.155, 12.346], [-69.155, 12.348], [-69.152, 12.352], [-69.153, 12.354], [-69.155, 12.358], [-69.157, 12.361], [-69.157, 12.364], [-69.154, 12.366], [-69.154, 12.37], [-69.156, 12.372], [-69.158, 12.376], [-69.162, 12.379], [-69.163, 12.381], [-69.16, 12.384], [-69.158, 12.387], [-69.157, 12.388], [-69.156, 12.391], [-69.153, 12.393], [-69.15, 12.392], [-69.147, 12.39], [-69.14, 12.385], [-69.135, 12.382], [-69.129, 12.377], [-69.121, 12.372], [-69.118, 12.371], [-69.116, 12.369], [-69.113, 12.368], [-69.105, 12.364], [-69.098, 12.361], [-69.096, 12.36], [-69.089, 12.358], [-69.08, 12.357], [-69.077, 12.356], [-69.072, 12.351], [-69.062, 12.337], [-69.06, 12.331], [-69.057, 12.328], [-69.054, 12.321], [-69.053, 12.315], [-69.056, 12.314], [-69.053, 12.312], [-69.054, 12.306], [-69.052, 12.289], [-69.054, 12.288], [-69.051, 12.282], [-69.05, 12.277], [-69.05, 12.274], [-69.048, 12.273], [-69.044, 12.267], [-69.04, 12.259], [-69.04, 12.258], [-69.035, 12.251], [-69.033, 12.25], [-69.028, 12.24], [-69.026, 12.238], [-69.019, 12.233], [-69.011, 12.227], [-69.007, 12.224], [-69.001, 12.217], [-68.999, 12.216]]]]}, "properties": {"name": "Curacao", "iso1": "CW", "admin_level": 3, "osm_id": 1216719, "countrylevel_id": "iso1:CW", "osm_data": {"localname": "Curaçao", "official_name": "Curaçao", "alltags": {"name:am": "ኩራሳዎ", "name:ar": "كوراساو", "name:be": "Кюрасаа", "name:bg": "Кюрасао", "name:bn": "কুরাসাও", "name:br": "Curaçao", "name:ca": "Curaçao", "name:cy": "Cwracao", "name:da": "Curacao", "name:dz": "ཀྱཱུར་ར་ཀོ", "name:ee": "Kurakao nutome", "name:el": "Κουρασάο", "name:en": "Curacao", "name:eo": "Kuracao", "name:es": "Curazao", "name:fa": "کوراکائو", "name:fi": "Curaçao", "name:fr": "Curaçao", "name:gu": "કુરાકાઓ", "name:he": "קוראסאו", "name:hi": "क्यूरासाओ", "name:hr": "Curaçao", "name:is": "Curacao", "name:it": "Curaçao", "name:ja": "キュラソー", "name:km": "កូរ៉ាកៅ", "name:kn": "ಕುರಾಕಾವ್", "name:ko": "퀴라소", "name:lo": "ເຄີເລັກຄາວ", "name:lt": "Kiurasao", "name:lv": "Kirasao", "name:mk": "Курасао", "name:ml": "കുറാകാവോ", "name:mr": "कुरॅको", "name:ms": "Curacao", "name:ne": "कुराकाओ", "name:no": "Curaçao", "name:ru": "Кюрасао", "name:si": "කුරකාවෝ", "name:sr": "Курасао", "name:sv": "Curaçao", "name:sw": "Kurakao", "name:ta": "குராகவ்", "name:te": "కురాకవో", "name:th": "คูราเซา", "name:to": "Kulasao", "name:uk": "Кюрасао", "name:ur": "کیوراکاؤ", "name:uz": "Kyurasao", "name:vi": "Curaçao", "name:zh": "库拉索", "name:zu": "I-Curaçao", "name:chr": "ᏂᎦᏓ ᎤᏂᎲ ᎾᎿ ᎫᎳᎨᎣ", "name:pap": "Kòrsou", "description": "Kingdom of the Netherlands, constituent State", "official_name": "Curaçao", "timezone:note": "America/Curacao was used when this was part of Netherlands Antilles, it does not seem to have changed since the separation into separate countries.", "note:ISO3166-2": "Curaçao is a subset (type Country) of the Kingdom of the Netherlands (ISO3166-1 country code NL)", "is_in:continent": "North America", "default_language": "nl;pap;en"}}, "center_lat": 12.19, "center_lon": -68.97, "area_m2": 431541408, "timezone": "America/Curacao", "population": 160337, "wikidata_id": "Q25279", "wikipedia_id": "nl:Curaçao"}}