{"type": "Feature", "geometry": {"type": "MultiPolygon", "coordinates": [[[[72.416, -7.228], [72.417, -7.227], [72.42, -7.225], [72.423, -7.227], [72.416, -7.228]]], [[[72.418, -7.407], [72.419, -7.402], [72.42, -7.397], [72.422, -7.391], [72.422, -7.387], [72.424, -7.381], [72.424, -7.379], [72.425, -7.377], [72.429, -7.37], [72.431, -7.361], [72.432, -7.355], [72.43, -7.34], [72.43, -7.337], [72.427, -7.33], [72.424, -7.327], [72.42, -7.323], [72.417, -7.32], [72.411, -7.317], [72.405, -7.314], [72.402, -7.31], [72.398, -7.308], [72.393, -7.302], [72.39, -7.3], [72.377, -7.286], [72.372, -7.283], [72.362, -7.28], [72.356, -7.275], [72.355, -7.274], [72.354, -7.271], [72.355, -7.268], [72.359, -7.266], [72.364, -7.264], [72.373, -7.259], [72.374, -7.26], [72.38, -7.258], [72.379, -7.263], [72.375, -7.271], [72.374, -7.274], [72.375, -7.278], [72.376, -7.281], [72.38, -7.285], [72.383, -7.288], [72.387, -7.288], [72.388, -7.289], [72.391, -7.29], [72.39, -7.292], [72.392, -7.294], [72.394, -7.29], [72.398, -7.293], [72.398, -7.295], [72.4, -7.296], [72.408, -7.297], [72.405, -7.301], [72.405, -7.303], [72.407, -7.308], [72.41, -7.308], [72.412, -7.307], [72.415, -7.308], [72.42, -7.307], [72.422, -7.309], [72.427, -7.311], [72.428, -7.314], [72.434, -7.314], [72.432, -7.317], [72.43, -7.319], [72.429, -7.322], [72.429, -7.326], [72.43, -7.33], [72.433, -7.337], [72.432, -7.341], [72.432, -7.344], [72.434, -7.345], [72.434, -7.348], [72.433, -7.351], [72.434, -7.356], [72.431, -7.365], [72.431, -7.368], [72.432, -7.369], [72.431, -7.372], [72.432, -7.375], [72.43, -7.379], [72.426, -7.385], [72.423, -7.392], [72.423, -7.393], [72.421, -7.399], [72.42, -7.404], [72.42, -7.408], [72.422, -7.412], [72.421, -7.418], [72.422, -7.419], [72.422, -7.428], [72.424, -7.433], [72.423, -7.435], [72.425, -7.437], [72.423, -7.439], [72.424, -7.441], [72.426, -7.44], [72.43, -7.44], [72.431, -7.442], [72.435, -7.442], [72.436, -7.44], [72.438, -7.438], [72.439, -7.436], [72.435, -7.43], [72.438, -7.43], [72.44, -7.428], [72.442, -7.425], [72.445, -7.421], [72.445, -7.417], [72.448, -7.413], [72.455, -7.402], [72.459, -7.397], [72.466, -7.394], [72.468, -7.393], [72.471, -7.39], [72.474, -7.388], [72.481, -7.381], [72.48, -7.379], [72.481, -7.375], [72.477, -7.371], [72.477, -7.368], [72.474, -7.36], [72.471, -7.356], [72.468, -7.354], [72.464, -7.353], [72.464, -7.352], [72.467, -7.343], [72.47, -7.336], [72.471, -7.333], [72.474, -7.327], [72.478, -7.322], [72.482, -7.317], [72.489, -7.306], [72.491, -7.298], [72.491, -7.293], [72.489, -7.289], [72.484, -7.286], [72.474, -7.28], [72.469, -7.278], [72.462, -7.273], [72.457, -7.268], [72.453, -7.259], [72.451, -7.253], [72.45, -7.247], [72.448, -7.243], [72.445, -7.24], [72.44, -7.239], [72.436, -7.24], [72.435, -7.239], [72.435, -7.236], [72.434, -7.234], [72.436, -7.233], [72.44, -7.235], [72.445, -7.238], [72.449, -7.242], [72.451, -7.247], [72.452, -7.253], [72.455, -7.26], [72.458, -7.265], [72.462, -7.269], [72.465, -7.272], [72.475, -7.278], [72.481, -7.283], [72.486, -7.287], [72.49, -7.288], [72.493, -7.291], [72.495, -7.297], [72.495, -7.301], [72.494, -7.305], [72.492, -7.31], [72.488, -7.317], [72.482, -7.325], [72.476, -7.33], [72.475, -7.334], [72.473, -7.344], [72.473, -7.351], [72.474, -7.355], [72.476, -7.359], [72.479, -7.366], [72.48, -7.368], [72.483, -7.37], [72.488, -7.373], [72.49, -7.376], [72.493, -7.381], [72.489, -7.386], [72.484, -7.391], [72.479, -7.395], [72.473, -7.399], [72.467, -7.401], [72.463, -7.404], [72.455, -7.413], [72.451, -7.418], [72.448, -7.423], [72.44, -7.44], [72.436, -7.443], [72.432, -7.444], [72.428, -7.444], [72.424, -7.443], [72.422, -7.441], [72.422, -7.437], [72.421, -7.424], [72.421, -7.422], [72.418, -7.41], [72.418, -7.407]]], [[[71.388, -6.694], [71.388, -6.692], [71.384, -6.69], [71.38, -6.688], [71.377, -6.686], [71.369, -6.682], [71.368, -6.683], [71.366, -6.682], [71.367, -6.68], [71.375, -6.682], [71.38, -6.684], [71.384, -6.684], [71.389, -6.679], [71.392, -6.685], [71.393, -6.687], [71.393, -6.69], [71.395, -6.691], [71.393, -6.694], [71.391, -6.695], [71.388, -6.694]]], [[[71.336, -6.673], [71.329, -6.672], [71.326, -6.67], [71.325, -6.668], [71.323, -6.666], [71.319, -6.659], [71.317, -6.66], [71.315, -6.659], [71.313, -6.656], [71.313, -6.654], [71.312, -6.651], [71.313, -6.648], [71.316, -6.647], [71.314, -6.645], [71.317, -6.642], [71.319, -6.64], [71.317, -6.646], [71.318, -6.654], [71.32, -6.658], [71.325, -6.663], [71.328, -6.665], [71.338, -6.667], [71.344, -6.667], [71.338, -6.67], [71.336, -6.673]]], [[[71.242, -6.393], [71.241, -6.396], [71.239, -6.397], [71.238, -6.395], [71.237, -6.385], [71.238, -6.378], [71.241, -6.379], [71.242, -6.384], [71.241, -6.388], [71.242, -6.393]]], [[[71.295, -6.238], [71.294, -6.237], [71.292, -6.234], [71.294, -6.231], [71.297, -6.234], [71.297, -6.236], [71.295, -6.238]]], [[[71.338, -6.186], [71.332, -6.19], [71.331, -6.192], [71.326, -6.197], [71.32, -6.205], [71.316, -6.208], [71.313, -6.209], [71.311, -6.207], [71.313, -6.204], [71.316, -6.201], [71.319, -6.197], [71.321, -6.192], [71.324, -6.187], [71.326, -6.185], [71.332, -6.176], [71.336, -6.174], [71.342, -6.175], [71.346, -6.178], [71.342, -6.18], [71.345, -6.181], [71.343, -6.182], [71.338, -6.186]]], [[[71.544, -6.174], [71.537, -6.171], [71.538, -6.169], [71.543, -6.171], [71.544, -6.174]]], [[[71.515, -6.156], [71.516, -6.154], [71.518, -6.155], [71.516, -6.158], [71.515, -6.156]]], [[[72.31, -5.683], [72.308, -5.681], [72.311, -5.68], [72.315, -5.681], [72.321, -5.681], [72.321, -5.684], [72.317, -5.682], [72.314, -5.682], [72.31, -5.683]]], [[[71.795, -5.463], [71.791, -5.463], [71.791, -5.461], [71.795, -5.463]]], [[[71.758, -5.453], [71.758, -5.451], [71.756, -5.448], [71.756, -5.445], [71.76, -5.449], [71.765, -5.452], [71.777, -5.455], [71.78, -5.459], [71.775, -5.458], [71.773, -5.459], [71.763, -5.455], [71.758, -5.453]]], [[[71.753, -5.443], [71.752, -5.44], [71.752, -5.437], [71.754, -5.438], [71.755, -5.442], [71.753, -5.443]]], [[[71.827, -5.425], [71.83, -5.423], [71.831, -5.425], [71.829, -5.426], [71.827, -5.425]]], [[[71.753, -5.428], [71.752, -5.427], [71.749, -5.422], [71.752, -5.421], [71.753, -5.428]]], [[[71.752, -5.416], [71.751, -5.414], [71.748, -5.412], [71.748, -5.408], [71.749, -5.404], [71.752, -5.396], [71.754, -5.399], [71.754, -5.406], [71.752, -5.415], [71.752, -5.416]]], [[[72.259, -5.346], [72.26, -5.346], [72.264, -5.343], [72.265, -5.34], [72.267, -5.336], [72.268, -5.337], [72.27, -5.34], [72.268, -5.343], [72.262, -5.347], [72.259, -5.346]]], [[[71.971, -5.338], [71.973, -5.337], [71.975, -5.339], [71.975, -5.341], [71.973, -5.343], [71.971, -5.338]]], [[[72.268, -5.334], [72.269, -5.331], [72.269, -5.326], [72.271, -5.327], [72.273, -5.329], [72.274, -5.332], [72.277, -5.333], [72.276, -5.335], [72.272, -5.334], [72.268, -5.334]]], [[[72.215, -5.339], [72.22, -5.331], [72.222, -5.325], [72.223, -5.322], [72.228, -5.315], [72.23, -5.315], [72.229, -5.32], [72.224, -5.326], [72.221, -5.333], [72.216, -5.34], [72.215, -5.339]]], [[[72.254, -5.305], [72.251, -5.304], [72.251, -5.301], [72.255, -5.3], [72.256, -5.301], [72.254, -5.305]]], [[[71.883, -5.272], [71.886, -5.27], [71.888, -5.27], [71.885, -5.273], [71.883, -5.272]]], [[[71.862, -5.27], [71.864, -5.269], [71.876, -5.269], [71.875, -5.27], [71.867, -5.27], [71.862, -5.27]]], [[[71.967, -5.25], [71.964, -5.247], [71.961, -5.246], [71.957, -5.245], [71.96, -5.243], [71.959, -5.241], [71.962, -5.239], [71.965, -5.239], [71.965, -5.242], [71.969, -5.25], [71.967, -5.25]]], [[[71.821, -5.242], [71.822, -5.239], [71.821, -5.237], [71.826, -5.236], [71.832, -5.236], [71.833, -5.238], [71.83, -5.238], [71.827, -5.238], [71.823, -5.239], [71.821, -5.242]]], [[[71.815, -5.247], [71.814, -5.244], [71.815, -5.24], [71.819, -5.241], [71.815, -5.246], [71.815, -5.247]]], [[[71.751, -5.269], [71.748, -5.267], [71.75, -5.263], [71.754, -5.264], [71.751, -5.269]]], [[[71.842, -5.264], [71.844, -5.263], [71.846, -5.264], [71.844, -5.265], [71.842, -5.264]]], [[[71.916, -5.262], [71.918, -5.261], [71.92, -5.259], [71.924, -5.257], [71.928, -5.257], [71.927, -5.259], [71.923, -5.26], [71.917, -5.263], [71.916, -5.262]]], [[[71.756, -5.263], [71.757, -5.259], [71.755, -5.259], [71.761, -5.251], [71.762, -5.252], [71.764, -5.249], [71.766, -5.248], [71.77, -5.248], [71.771, -5.251], [71.767, -5.252], [71.763, -5.255], [71.759, -5.26], [71.756, -5.263]]], [[[71.736, -5.311], [71.734, -5.311], [71.733, -5.308], [71.733, -5.304], [71.735, -5.302], [71.735, -5.299], [71.735, -5.296], [71.736, -5.288], [71.738, -5.288], [71.739, -5.284], [71.74, -5.284], [71.745, -5.28], [71.745, -5.283], [71.74, -5.291], [71.737, -5.298], [71.736, -5.305], [71.736, -5.311]]], [[[71.754, -5.374], [71.754, -5.372], [71.754, -5.364], [71.754, -5.36], [71.753, -5.356], [71.754, -5.354], [71.756, -5.359], [71.757, -5.373], [71.754, -5.374]]], [[[72.206, -5.363], [72.203, -5.36], [72.203, -5.357], [72.2, -5.351], [72.2, -5.349], [72.204, -5.351], [72.207, -5.351], [72.207, -5.358], [72.209, -5.36], [72.214, -5.363], [72.214, -5.365], [72.211, -5.366], [72.206, -5.363]]], [[[71.751, -5.354], [71.75, -5.352], [71.748, -5.345], [71.748, -5.342], [71.746, -5.337], [71.748, -5.337], [71.75, -5.341], [71.751, -5.348], [71.753, -5.352], [71.751, -5.354]]]]}, "properties": {"name": "British Indian Ocean Territory", "iso1": "IO", "admin_level": 2, "osm_id": 1993867, "countrylevel_id": "iso1:IO", "osm_data": {"localname": "British Indian Ocean Territory", "official_name": "", "alltags": {"flag": "http://upload.wikimedia.org/wikipedia/commons/6/6e/Flag_of_the_British_Indian_Ocean_Territory.svg", "name:af": "Britse Indiese Oseaan Gebied", "name:ak": "Britenfo Hɔn Man Wɔ India Po No Mu", "name:am": "የብሪታኒያ ህንድ ውቂያኖስ ግዛት", "name:an": "Territorio Britanico de l'Ozián Indico", "name:ar": "إقليم المحيط الهندي البريطاني", "name:az": "Britaniya-Hindistan Okeanik territoriyası", "name:be": "Брытанскія Індыйска-акіянскія тэрыторыі", "name:bg": "Британска индоокеанска територия", "name:bm": "Angilɛ ka ɛndu dugukolo", "name:bn": "ব্রিটিশ ভারত মহাসাগরীয় অঞ্চল", "name:br": "Tiriad Meurvor Indez Breizh-Veur", "name:bs": "Britanski teritorij Indijskog okeana", "name:ca": "Territori Britànic de l'Oceà Índic", "name:cs": "Britské indickooceánské území", "name:cy": "Tiriogaeth Prydain yng Nghefnfor India", "name:da": "Britiske Indiske Ocean", "name:dz": "བྲི་ཊིཤ་རྒྱ་གར་གྱི་རྒྱ་མཚོ་ས་ཁོངས", "name:ee": "Britaintɔwo ƒe india ƒudome nutome", "name:el": "Βρετανικό Έδαφος Ινδικού Ωκεανού", "name:en": "British Indian Ocean Territory", "name:eo": "Brita Hindoceana Teritorio", "name:es": "Territorio Británico del Océano Índico", "name:et": "Briti India ookeani ala", "name:eu": "Indiako Ozeanoko Britainiar Lurraldea", "name:fa": "مستعمره‌های بریتانیا در اقیانوس هند", "name:ff": "Keeriindi britaani to maayo enndo", "name:fi": "Brittiläinen Intian valtameren alue", "name:fo": "Bretsku Indiahavsoyggjarnar", "name:fr": "Territoire britannique de l'Océan Indien", "name:fy": "Britske Yndyske-Oseaanterritoarium", "name:ga": "Críoch Aigéan Indiach na Breataine", "name:gd": "Ranntair Breatannach Cuan nan Innseachan", "name:gl": "Territorio Británico do Océano Índico", "name:gu": "બ્રિટિશ ઇન્ડિયન ઓશન ટેરિટરી", "name:ha": "Yankin Birtaniya Na Tekun Indiya", "name:he": "טריטוריה בריטית באוקיאנוס ההודי", "name:hi": "ब्रिटिश हिंद महासागर क्षेत्र", "name:hr": "Britanski Indijskooceanski Teritoriji", "name:hu": "Brit Indiai-óceáni Terület", "name:ia": "Territorio oceanic britanno-indian", "name:id": "Teritorial Britania di Samudra Hindia", "name:io": "Britaniana teritorio en Indiana Oceano", "name:is": "Breska Indlandshafseyjar", "name:it": "Territorio britannico dell'oceano Indiano", "name:ja": "イギリス領インド洋地域", "name:ka": "ბრიტანეთის ინდოეთის ოკეანის ტერიტორია", "name:ki": "Eneo la Uingereza katika Bahari Hindi", "name:km": "ដែន​មហា​សមុទ្រ​ឥណ្ឌា ចក្រភព​អង់គ្លេស", "name:kn": "ಬ್ರಿಟೀಶ್ ಇಂಡಿಯನ್ ಮಹಾಸಾಗರ ಪ್ರದೇಶ", "name:ko": "영국령 인도양 지역", "name:ks": "برطانوی بحرِ ہِنٛدۍ علاقہٕ", "name:ku": "Xakên Brîtanyayê yên Okyanûsa Hindî", "name:lg": "Bizinga by'eCago", "name:ln": "Mabelé ya Angɛlɛtɛ́lɛ na mbú ya Indiya", "name:lo": "ບຣິດທິສອິນດ່ຽນໂອຊ່ຽນເທີຣິທໍຣີ", "name:lt": "Indijos vandenyno Britų sritis", "name:lv": "Indijas okeāna Britu teritorija", "name:mg": "Faridranomasina indiana britanika", "name:mk": "Британска Индоокеанска Територија", "name:ml": "ബ്രിട്ടീഷ് ഇന്ത്യൻ മഹാസമുദ്ര പ്രദേശം", "name:mn": "Британийн Энэтхэгийн Далайн Нутаг дэвсгэр", "name:mr": "ब्रिटीश हिंदी महासागर क्षेत्र", "name:ms": "Wilayah Lautan Hindi British", "name:my": "ဗြိတိသျှ အိန္ဒြိယ သမုဒ္ဒရာ ပိုင်နက်", "name:ne": "बेलायती हिन्द महासागर क्षेत्र", "name:nl": "Brits Territorium in de Indische Oceaan", "name:nn": "Britiske område i Det indiske hav", "name:no": "Det britiske territoriet i Indiahavet", "name:or": "ବ୍ରିଟିଶ୍ ଭାରତୀୟ ସାମୁଦ୍ରିକ କ୍ଷେତ୍ର", "name:pl": "Brytyjskie Terytorium Oceanu Indyjskiego", "name:pt": "Território Britânico do Oceano Índico", "name:rm": "Territori Britannic en l'Ocean Indic", "name:rn": "Intara y'Ubwongereza yo mu birwa by'Abahindi", "name:ro": "Teritoriul Britanic din Oceanul Indian", "name:ru": "Британская Территория в Индийском Океане", "name:sg": "Sêse tî Anglëe na Ngûyämä tî Ênnde", "name:sh": "Britanski teritorij Indijskog oceana", "name:si": "බ්‍රිතාන්‍ය ඉන්දීය සාගර ප්‍රාන්තය", "name:sk": "Britské indickooceánske územie", "name:sl": "Britanski teritorij v Indijskem oceanu", "name:sr": "Британска територија Индијског океана", "name:sv": "Brittiska territoriet i Indiska oceanen", "name:sw": "Eneo la Uingereza katika Bahari Hindi", "name:ta": "பிரித்தானிய இந்தியப் பெருங்கடல் மண்டலம்", "name:te": "బ్రిటిష్ భారతీయ ఓషన్ ప్రాంతం", "name:th": "บริติชอินเดียนโอเชียนเทร์ริทอรี", "name:ti": "የብሪታኒያ ህንድ ውቂያኖስ ግዛት", "name:to": "Potu fonua moana ʻInitia fakapilitānia", "name:tr": "Britanya Hint Okyanusu Toprakları", "name:uk": "Британська територія в Індійському океані", "name:ur": "برطانوی ہندوستانی سمندری خطہ", "name:vi": "Lãnh thổ Ấn Độ Dương thuộc Anh", "name:yo": "Orílẹ́ède Etíkun Índíánì ti Ìlú Bírítísì", "name:zh": "英属印度洋领地", "name:zu": "i-British Indian Ocean Territory", "int_name": "British Indian Ocean Territory", "loc_name": "Chagos Islands", "name:ast": "Territoriu Británicu del Océanu Índicu", "name:chr": "ᏈᏗᏏ ᏴᏫᏯ ᎠᎺᏉ ᎢᎬᎾᏕᏅ", "name:fur": "Teritori britanic dal Ocean Indian", "name:kab": "Akal Aglizi deg Ugaraw Ahendi", "name:ksh": "Brettesche Besezunge em indesche Oozejahn", "population": "3500", "geonames:id": "1282588", "name:be-tarask": "Брытанская тэрыторыя ў Індыйскім акіяне", "name:zh_pinyin": "Yīngshǔ Yìndùyáng Lǐngdì", "is_in:continent": "Africa", "default_language": "en", "country_code_fips": "IO", "country_code_iso3166_1_alpha_2": "IO"}}, "center_lat": -6.73, "center_lon": 72.12, "area_m2": 51608519, "wikidata_id": "Q43448", "wikipedia_id": "en:British Indian Ocean Territory"}}