{"type": "Feature", "geometry": {"type": "Polygon", "coordinates": [[[5.84, 49.989], [5.837, 49.991], [5.832, 49.991], [5.83, 49.994], [5.824, 49.997], [5.821, 50.001], [5.822, 50.002], [5.82, 50.005], [5.821, 50.008], [5.819, 50.013], [5.824, 50.015], [5.829, 50.016], [5.834, 50.018], [5.844, 50.019], [5.852, 50.023], [5.852, 50.026], [5.853, 50.028], [5.86, 50.029], [5.858, 50.035], [5.856, 50.036], [5.863, 50.039], [5.863, 50.042], [5.867, 50.043], [5.867, 50.045], [5.87, 50.046], [5.867, 50.05], [5.861, 50.055], [5.858, 50.055], [5.856, 50.058], [5.854, 50.059], [5.857, 50.062], [5.857, 50.064], [5.861, 50.069], [5.866, 50.071], [5.868, 50.073], [5.872, 50.075], [5.885, 50.078], [5.887, 50.079], [5.888, 50.082], [5.887, 50.091], [5.892, 50.099], [5.895, 50.101], [5.895, 50.105], [5.895, 50.112], [5.901, 50.116], [5.91, 50.119], [5.914, 50.122], [5.917, 50.122], [5.926, 50.124], [5.93, 50.126], [5.937, 50.127], [5.943, 50.129], [5.95, 50.129], [5.955, 50.131], [5.961, 50.131], [5.959, 50.139], [5.961, 50.143], [5.96, 50.148], [5.961, 50.15], [5.958, 50.151], [5.965, 50.154], [5.967, 50.155], [5.962, 50.161], [5.964, 50.165], [5.964, 50.171], [5.965, 50.173], [5.968, 50.173], [5.971, 50.175], [5.989, 50.175], [6.003, 50.176], [6.013, 50.179], [6.018, 50.181], [6.025, 50.183], [6.03, 50.171], [6.03, 50.166], [6.032, 50.163], [6.038, 50.16], [6.046, 50.158], [6.05, 50.157], [6.058, 50.154], [6.064, 50.153], [6.069, 50.155], [6.072, 50.157], [6.079, 50.157], [6.081, 50.163], [6.079, 50.168], [6.079, 50.171], [6.084, 50.172], [6.089, 50.171], [6.095, 50.169], [6.102, 50.171], [6.12, 50.163], [6.12, 50.162], [6.117, 50.159], [6.115, 50.156], [6.118, 50.155], [6.121, 50.152], [6.125, 50.15], [6.12, 50.148], [6.115, 50.144], [6.112, 50.136], [6.12, 50.136], [6.127, 50.134], [6.131, 50.13], [6.138, 50.13], [6.138, 50.129], [6.138, 50.128], [6.137, 50.126], [6.137, 50.124], [6.136, 50.124], [6.13, 50.122], [6.128, 50.116], [6.13, 50.114], [6.134, 50.114], [6.135, 50.113], [6.134, 50.112], [6.131, 50.108], [6.131, 50.107], [6.134, 50.106], [6.135, 50.105], [6.136, 50.104], [6.136, 50.103], [6.134, 50.103], [6.13, 50.103], [6.127, 50.102], [6.126, 50.101], [6.126, 50.099], [6.129, 50.095], [6.132, 50.095], [6.133, 50.095], [6.133, 50.094], [6.132, 50.092], [6.13, 50.092], [6.123, 50.094], [6.12, 50.092], [6.12, 50.086], [6.122, 50.084], [6.122, 50.081], [6.119, 50.076], [6.116, 50.074], [6.117, 50.073], [6.122, 50.073], [6.123, 50.076], [6.125, 50.077], [6.129, 50.075], [6.129, 50.073], [6.126, 50.071], [6.121, 50.069], [6.12, 50.065], [6.114, 50.064], [6.112, 50.06], [6.113, 50.058], [6.115, 50.058], [6.118, 50.056], [6.12, 50.057], [6.12, 50.06], [6.122, 50.061], [6.124, 50.06], [6.124, 50.059], [6.124, 50.057], [6.121, 50.054], [6.124, 50.051], [6.126, 50.05], [6.127, 50.048], [6.133, 50.043], [6.134, 50.041], [6.135, 50.039], [6.132, 50.035], [6.13, 50.032], [6.13, 50.029], [6.141, 50.025], [6.143, 50.025], [6.146, 50.023], [6.146, 50.022], [6.145, 50.02], [6.138, 50.016], [6.135, 50.016], [6.133, 50.019], [6.13, 50.018], [6.134, 50.016], [6.138, 50.011], [6.14, 50.011], [6.148, 50.01], [6.15, 50.009], [6.15, 50.007], [6.147, 50.003], [6.147, 50.001], [6.146, 49.999], [6.145, 49.998], [6.143, 49.998], [6.14, 50], [6.139, 50], [6.138, 49.999], [6.138, 49.998], [6.14, 49.996], [6.143, 49.995], [6.147, 49.995], [6.151, 49.994], [6.154, 49.989], [6.157, 49.987], [6.163, 49.987], [6.171, 49.985], [6.173, 49.985], [6.172, 49.984], [6.17, 49.984], [6.169, 49.984], [6.169, 49.981], [6.167, 49.98], [6.165, 49.973], [6.165, 49.97], [6.168, 49.968], [6.171, 49.963], [6.176, 49.962], [6.178, 49.955], [6.179, 49.953], [6.182, 49.954], [6.188, 49.956], [6.183, 49.957], [6.183, 49.96], [6.181, 49.965], [6.184, 49.968], [6.188, 49.969], [6.193, 49.968], [6.193, 49.964], [6.195, 49.96], [6.194, 49.957], [6.196, 49.954], [6.199, 49.95], [6.198, 49.948], [6.201, 49.953], [6.205, 49.955], [6.208, 49.955], [6.209, 49.953], [6.212, 49.95], [6.224, 49.95], [6.224, 49.949], [6.217, 49.945], [6.22, 49.943], [6.221, 49.942], [6.227, 49.937], [6.224, 49.934], [6.226, 49.929], [6.224, 49.928], [6.219, 49.925], [6.219, 49.923], [6.226, 49.921], [6.23, 49.921], [6.233, 49.917], [6.234, 49.914], [6.232, 49.911], [6.227, 49.91], [6.232, 49.906], [6.234, 49.9], [6.239, 49.897], [6.241, 49.896], [6.246, 49.896], [6.249, 49.893], [6.251, 49.89], [6.256, 49.888], [6.258, 49.886], [6.259, 49.883], [6.262, 49.881], [6.27, 49.879], [6.273, 49.877], [6.276, 49.877], [6.28, 49.879], [6.281, 49.879], [6.283, 49.879], [6.286, 49.876], [6.29, 49.875], [6.292, 49.874], [6.292, 49.872], [6.294, 49.869], [6.298, 49.866], [6.301, 49.867], [6.309, 49.87], [6.311, 49.87], [6.314, 49.867], [6.315, 49.865], [6.314, 49.862], [6.315, 49.86], [6.318, 49.855], [6.322, 49.853], [6.323, 49.851], [6.322, 49.847], [6.32, 49.843], [6.321, 49.839], [6.327, 49.836], [6.333, 49.837], [6.336, 49.839], [6.338, 49.842], [6.339, 49.847], [6.342, 49.849], [6.35, 49.851], [6.364, 49.851], [6.367, 49.85], [6.373, 49.843], [6.377, 49.84], [6.379, 49.838], [6.382, 49.836], [6.385, 49.833], [6.393, 49.828], [6.397, 49.823], [6.403, 49.82], [6.41, 49.818], [6.426, 49.816], [6.427, 49.813], [6.429, 49.811], [6.431, 49.811], [6.437, 49.814], [6.442, 49.814], [6.444, 49.812], [6.454, 49.812], [6.456, 49.813], [6.463, 49.819], [6.47, 49.823], [6.472, 49.823], [6.48, 49.819], [6.485, 49.814], [6.489, 49.812], [6.493, 49.812], [6.496, 49.813], [6.501, 49.811], [6.507, 49.809], [6.51, 49.803], [6.512, 49.802], [6.516, 49.805], [6.518, 49.808], [6.519, 49.813], [6.521, 49.813], [6.527, 49.811], [6.53, 49.809], [6.531, 49.806], [6.53, 49.804], [6.526, 49.802], [6.521, 49.796], [6.514, 49.794], [6.509, 49.792], [6.506, 49.789], [6.509, 49.786], [6.516, 49.784], [6.517, 49.783], [6.515, 49.78], [6.511, 49.777], [6.511, 49.773], [6.517, 49.769], [6.519, 49.763], [6.517, 49.76], [6.512, 49.757], [6.505, 49.755], [6.501, 49.752], [6.501, 49.748], [6.503, 49.745], [6.502, 49.743], [6.503, 49.74], [6.502, 49.737], [6.503, 49.732], [6.508, 49.729], [6.516, 49.725], [6.518, 49.723], [6.516, 49.722], [6.512, 49.72], [6.503, 49.726], [6.497, 49.726], [6.496, 49.724], [6.501, 49.72], [6.507, 49.717], [6.507, 49.713], [6.5, 49.711], [6.494, 49.707], [6.481, 49.697], [6.469, 49.693], [6.462, 49.692], [6.458, 49.689], [6.455, 49.685], [6.445, 49.676], [6.439, 49.672], [6.432, 49.669], [6.427, 49.664], [6.429, 49.661], [6.436, 49.661], [6.441, 49.659], [6.441, 49.657], [6.44, 49.653], [6.438, 49.648], [6.433, 49.64], [6.43, 49.637], [6.424, 49.626], [6.422, 49.621], [6.419, 49.616], [6.413, 49.614], [6.406, 49.609], [6.404, 49.605], [6.397, 49.601], [6.393, 49.6], [6.385, 49.599], [6.381, 49.597], [6.376, 49.591], [6.375, 49.588], [6.378, 49.585], [6.383, 49.581], [6.383, 49.578], [6.38, 49.576], [6.376, 49.576], [6.372, 49.578], [6.369, 49.578], [6.362, 49.576], [6.359, 49.574], [6.36, 49.571], [6.365, 49.569], [6.38, 49.56], [6.383, 49.557], [6.381, 49.551], [6.38, 49.549], [6.372, 49.544], [6.369, 49.54], [6.36, 49.535], [6.358, 49.532], [6.358, 49.529], [6.363, 49.516], [6.364, 49.515], [6.367, 49.509], [6.369, 49.501], [6.368, 49.495], [6.37, 49.489], [6.368, 49.479], [6.369, 49.469], [6.368, 49.469], [6.368, 49.465], [6.369, 49.46], [6.364, 49.46], [6.361, 49.461], [6.353, 49.467], [6.347, 49.466], [6.343, 49.469], [6.338, 49.468], [6.334, 49.467], [6.333, 49.47], [6.33, 49.47], [6.325, 49.475], [6.321, 49.477], [6.314, 49.478], [6.313, 49.48], [6.304, 49.478], [6.296, 49.48], [6.295, 49.481], [6.299, 49.488], [6.292, 49.487], [6.29, 49.485], [6.288, 49.486], [6.284, 49.491], [6.288, 49.491], [6.29, 49.494], [6.282, 49.493], [6.279, 49.496], [6.28, 49.5], [6.28, 49.503], [6.271, 49.505], [6.263, 49.504], [6.262, 49.507], [6.258, 49.508], [6.257, 49.51], [6.248, 49.509], [6.245, 49.512], [6.241, 49.513], [6.241, 49.515], [6.236, 49.508], [6.228, 49.51], [6.22, 49.509], [6.215, 49.506], [6.207, 49.506], [6.203, 49.507], [6.196, 49.505], [6.181, 49.508], [6.178, 49.507], [6.175, 49.51], [6.172, 49.508], [6.163, 49.504], [6.157, 49.504], [6.154, 49.502], [6.157, 49.497], [6.162, 49.493], [6.157, 49.491], [6.156, 49.493], [6.145, 49.488], [6.141, 49.487], [6.142, 49.492], [6.134, 49.49], [6.132, 49.491], [6.128, 49.494], [6.127, 49.49], [6.127, 49.482], [6.123, 49.475], [6.123, 49.473], [6.118, 49.471], [6.114, 49.471], [6.109, 49.473], [6.102, 49.47], [6.098, 49.464], [6.099, 49.461], [6.101, 49.458], [6.102, 49.454], [6.1, 49.453], [6.092, 49.453], [6.087, 49.455], [6.081, 49.458], [6.079, 49.464], [6.074, 49.464], [6.072, 49.466], [6.066, 49.465], [6.057, 49.465], [6.053, 49.464], [6.047, 49.456], [6.042, 49.448], [6.033, 49.45], [6.027, 49.448], [6.026, 49.451], [6.027, 49.454], [6.023, 49.455], [6.011, 49.454], [6.008, 49.452], [6.001, 49.457], [5.998, 49.456], [5.982, 49.451], [5.979, 49.453], [5.979, 49.455], [5.982, 49.457], [5.986, 49.456], [5.988, 49.461], [5.987, 49.463], [5.983, 49.464], [5.981, 49.461], [5.979, 49.461], [5.974, 49.465], [5.974, 49.469], [5.972, 49.47], [5.972, 49.476], [5.975, 49.477], [5.975, 49.482], [5.971, 49.483], [5.968, 49.486], [5.971, 49.488], [5.974, 49.489], [5.972, 49.491], [5.966, 49.491], [5.965, 49.493], [5.952, 49.494], [5.949, 49.496], [5.943, 49.497], [5.943, 49.5], [5.94, 49.501], [5.931, 49.501], [5.928, 49.498], [5.922, 49.501], [5.92, 49.5], [5.912, 49.502], [5.907, 49.502], [5.907, 49.5], [5.904, 49.498], [5.896, 49.497], [5.894, 49.497], [5.89, 49.497], [5.887, 49.498], [5.882, 49.499], [5.873, 49.499], [5.866, 49.5], [5.862, 49.502], [5.859, 49.506], [5.853, 49.507], [5.85, 49.509], [5.848, 49.515], [5.841, 49.517], [5.838, 49.52], [5.836, 49.52], [5.834, 49.526], [5.843, 49.53], [5.846, 49.53], [5.839, 49.537], [5.837, 49.543], [5.835, 49.542], [5.822, 49.538], [5.817, 49.537], [5.813, 49.542], [5.809, 49.541], [5.808, 49.543], [5.818, 49.546], [5.819, 49.546], [5.82, 49.549], [5.823, 49.55], [5.826, 49.552], [5.828, 49.55], [5.836, 49.552], [5.842, 49.553], [5.846, 49.558], [5.844, 49.56], [5.847, 49.562], [5.85, 49.563], [5.852, 49.565], [5.861, 49.567], [5.86, 49.57], [5.865, 49.572], [5.867, 49.573], [5.873, 49.574], [5.87, 49.577], [5.872, 49.58], [5.866, 49.581], [5.873, 49.584], [5.871, 49.588], [5.868, 49.59], [5.864, 49.586], [5.86, 49.586], [5.85, 49.587], [5.849, 49.59], [5.848, 49.596], [5.849, 49.598], [5.856, 49.6], [5.865, 49.604], [5.87, 49.606], [5.877, 49.608], [5.876, 49.611], [5.877, 49.612], [5.875, 49.615], [5.876, 49.619], [5.877, 49.621], [5.881, 49.624], [5.886, 49.627], [5.883, 49.631], [5.884, 49.633], [5.887, 49.635], [5.892, 49.636], [5.898, 49.636], [5.899, 49.634], [5.903, 49.636], [5.908, 49.639], [5.904, 49.641], [5.904, 49.646], [5.902, 49.649], [5.903, 49.654], [5.905, 49.655], [5.903, 49.658], [5.905, 49.661], [5.911, 49.662], [5.909, 49.665], [5.906, 49.666], [5.903, 49.664], [5.901, 49.666], [5.898, 49.666], [5.896, 49.669], [5.892, 49.668], [5.89, 49.671], [5.886, 49.668], [5.882, 49.67], [5.882, 49.672], [5.877, 49.673], [5.874, 49.673], [5.87, 49.675], [5.865, 49.676], [5.862, 49.681], [5.863, 49.685], [5.865, 49.687], [5.863, 49.689], [5.867, 49.692], [5.867, 49.694], [5.869, 49.695], [5.871, 49.697], [5.878, 49.701], [5.882, 49.705], [5.887, 49.709], [5.882, 49.713], [5.875, 49.716], [5.877, 49.718], [5.875, 49.722], [5.871, 49.722], [5.87, 49.723], [5.865, 49.727], [5.862, 49.726], [5.86, 49.727], [5.854, 49.725], [5.851, 49.724], [5.845, 49.721], [5.841, 49.721], [5.838, 49.724], [5.831, 49.724], [5.826, 49.724], [5.824, 49.726], [5.827, 49.727], [5.827, 49.729], [5.825, 49.732], [5.828, 49.733], [5.827, 49.739], [5.833, 49.741], [5.83, 49.743], [5.832, 49.747], [5.83, 49.75], [5.828, 49.75], [5.823, 49.749], [5.82, 49.751], [5.821, 49.753], [5.818, 49.754], [5.816, 49.762], [5.809, 49.767], [5.807, 49.772], [5.803, 49.777], [5.799, 49.778], [5.798, 49.782], [5.792, 49.787], [5.793, 49.791], [5.79, 49.796], [5.788, 49.797], [5.785, 49.795], [5.781, 49.792], [5.777, 49.795], [5.772, 49.793], [5.769, 49.794], [5.762, 49.793], [5.755, 49.791], [5.753, 49.797], [5.75, 49.812], [5.751, 49.815], [5.746, 49.816], [5.743, 49.821], [5.747, 49.823], [5.748, 49.824], [5.746, 49.826], [5.744, 49.831], [5.739, 49.834], [5.741, 49.839], [5.743, 49.84], [5.748, 49.838], [5.751, 49.841], [5.749, 49.842], [5.748, 49.847], [5.752, 49.847], [5.754, 49.845], [5.758, 49.847], [5.758, 49.849], [5.755, 49.852], [5.75, 49.851], [5.746, 49.853], [5.746, 49.854], [5.75, 49.854], [5.755, 49.857], [5.758, 49.856], [5.761, 49.857], [5.757, 49.859], [5.754, 49.862], [5.757, 49.865], [5.756, 49.867], [5.753, 49.869], [5.754, 49.872], [5.759, 49.873], [5.763, 49.869], [5.766, 49.869], [5.769, 49.872], [5.772, 49.871], [5.774, 49.867], [5.778, 49.872], [5.783, 49.872], [5.784, 49.873], [5.783, 49.876], [5.783, 49.879], [5.779, 49.881], [5.778, 49.884], [5.772, 49.885], [5.771, 49.887], [5.757, 49.889], [5.754, 49.891], [5.748, 49.892], [5.746, 49.894], [5.74, 49.895], [5.736, 49.897], [5.738, 49.901], [5.74, 49.902], [5.74, 49.904], [5.747, 49.906], [5.746, 49.908], [5.753, 49.912], [5.764, 49.915], [5.761, 49.917], [5.762, 49.92], [5.762, 49.923], [5.765, 49.926], [5.764, 49.93], [5.767, 49.931], [5.771, 49.932], [5.77, 49.933], [5.77, 49.937], [5.775, 49.938], [5.774, 49.941], [5.772, 49.944], [5.77, 49.95], [5.775, 49.953], [5.774, 49.957], [5.777, 49.958], [5.775, 49.961], [5.781, 49.963], [5.786, 49.961], [5.791, 49.962], [5.791, 49.964], [5.796, 49.966], [5.8, 49.963], [5.803, 49.963], [5.807, 49.962], [5.811, 49.964], [5.81, 49.968], [5.81, 49.971], [5.813, 49.973], [5.819, 49.972], [5.824, 49.975], [5.832, 49.977], [5.838, 49.981], [5.84, 49.989]]]}, "properties": {"name": "Luxembourg", "iso1": "LU", "admin_level": 2, "osm_id": 2171347, "countrylevel_id": "iso1:LU", "osm_data": {"localname": "Lëtzebuerg", "official_name": "Groussherzogtum Lëtzebuerg", "alltags": {"flag": "http://upload.wikimedia.org/wikipedia/commons/d/da/Flag_of_Luxembourg.svg", "name:af": "Luxemburg", "name:am": "ሉክሰምበርግ", "name:an": "Luxemburgo", "name:ar": "لوكسمبورغ", "name:az": "Lüksemburq", "name:ba": "Люксембург", "name:be": "Люксембург", "name:bg": "Люксембург", "name:bi": "Luxembourg", "name:bn": "লুক্সেমবুর্গ", "name:bo": "ལུ་སེམ་བའུརག", "name:br": "Luksembourg", "name:bs": "Luksemburg", "name:ca": "Luxemburg", "name:ce": "Люксембург", "name:co": "Lussemburgu", "name:cs": "Lucembursko", "name:cu": "Люѯємбоургъ", "name:cv": "Люксембург", "name:cy": "Lwcsembwrg", "name:da": "Luxembourg", "name:ee": "Luxembourg", "name:el": "Λουξεμβούργο", "name:en": "Luxembourg", "name:eo": "Luksemburgio", "name:es": "Luxemburgo", "name:et": "Luksemburg", "name:eu": "Luxenburgo", "name:fa": "لوکزامبورگ", "name:fi": "Luxemburg", "name:fo": "Luksemburg", "name:fr": "Luxembourg", "name:fy": "Lúksemboarch", "name:ga": "Lucsamburg", "name:gd": "Lucsamburg", "name:gl": "Luxemburgo", "name:gn": "Luxemburgo", "name:gu": "લક્ઝેમ્બર્ગ", "name:gv": "Lucsemburg", "name:he": "לוקסמבורג", "name:hi": "लक्ज़मबर्ग", "name:hr": "Luksemburg", "name:ht": "Liksanbou", "name:hu": "Luxemburg", "name:hy": "Լյուքսեմբուրգ", "name:ia": "Luxemburg", "name:id": "Luksemburg", "name:ie": "Luxemburgia", "name:io": "Luxemburgia", "name:is": "Lúxemborg", "name:it": "Lussemburgo", "name:ja": "ルクセンブルク", "name:jv": "Luksemburg", "name:ka": "ლუქსემბურგი", "name:kg": "Luxembourg", "name:kk": "Люксембург", "name:kl": "Luxembourg", "name:ko": "룩셈부르크", "name:ku": "Lûksembûrg", "name:kv": "Люксембург", "name:kw": "Lushaborg", "name:ky": "Люксембург", "name:la": "Luxemburgum", "name:lb": "Lëtzebuerg", "name:li": "Luxembörg", "name:ln": "Luksamburg", "name:lt": "Liuksemburgas", "name:lv": "Luksemburga", "name:mg": "Loksemborga", "name:mi": "Rakapuō", "name:mk": "Луксембург", "name:ml": "ലക്സംബർഗ്", "name:mn": "Люксембург", "name:mr": "लक्झेंबर्ग", "name:ms": "Luxembourg", "name:mt": "Lussemburgu", "name:my": "လူဇင်ဘတ်နိုင်ငံ", "name:na": "Ruketemburg", "name:ne": "लक्जेम्बर्ग", "name:nl": "Luxemburg", "name:nn": "Luxembourg", "name:no": "Luxembourg", "name:nv": "Látsębooʼ", "name:oc": "Luxemborg", "name:or": "ଲକ୍ସମବର୍ଗ", "name:os": "Люксембург", "name:pa": "ਲਕਸਮਬਰਗ", "name:pl": "Luksemburg", "name:ps": "لوګزامبورګ", "name:pt": "Luxemburgo", "name:qu": "Luksimbur", "name:rm": "Luxemburg", "name:ro": "Luxemburg", "name:ru": "Люксембург", "name:rw": "Lugizamburu", "name:sa": "लक्सम्बर्ग", "name:sc": "Lussemburgu", "name:se": "Luxemburg", "name:sh": "Luksemburg", "name:sk": "Luxembursko", "name:sl": "Luksemburg", "name:so": "Luksemburg", "name:sq": "Luksemburgu", "name:sr": "Луксембург", "name:ss": "Lusembogu", "name:su": "Luksemburg", "name:sv": "Luxemburg", "name:sw": "Luxemburg", "name:ta": "லக்சம்பர்க்", "name:tg": "Люксембург", "name:th": "ประเทศลักเซมเบิร์ก", "name:tk": "Lýuksemburg", "name:tl": "Luxembourg", "name:tr": "Lüksemburg", "name:tt": "Люксембург", "name:ug": "ليۇكسېمبۇرگ", "name:uk": "Люксембург", "name:ur": "لکسمبرگ", "name:uz": "Luksemburg", "name:vi": "Luxembourg", "name:vo": "Luxämburgän", "name:wa": "Grande-Dutcheye do Lussimbork", "name:wo": "Luksambuur", "name:yi": "לוקסעמבורג", "name:yo": "Lúksẹ́mbọ̀rg", "name:zh": "盧森堡", "currency": "EUR", "int_name": "Luxembourg", "name:ace": "Luksèmburg", "name:als": "Luxemburg", "name:ang": "Letseburg", "name:arc": "ܠܘܟܣܡܒܘܪܓ", "name:arz": "لوكسيمبورج", "name:ast": "Luxemburgu", "name:bar": "Luxmburg", "name:bcl": "Luhemburgo", "name:bpy": "লুক্সেমবুর্গ", "name:bxr": "Люксембург", "name:cdo": "Lù-sĕng-bō̤", "name:ceb": "Luksemburgo", "name:ckb": "لوکسەمبورگ", "name:crh": "Lüksemburg", "name:csb": "Luksembùrskô", "name:diq": "Luksemburg", "name:dsb": "Luxemburgska", "name:eml": "Lussembûrgh", "name:ext": "Lussembulgu", "name:frp": "Luxembôrg", "name:frr": "Luxemborj", "name:fur": "Lussemburc", "name:gag": "Lüksemburg", "name:hak": "Lù-sêm-pó", "name:haw": "Lukemapuka", "name:hif": "Luxembourg", "name:hsb": "Luxemburgska", "name:ilo": "Luxembourg", "name:jbo": "lEtsyburg", "name:kaa": "Lyuksemburg", "name:kab": "Luxembourg", "name:kbd": "Луксембург", "name:koi": "Лецебург", "name:krc": "Люксембург", "name:ksh": "Luxemburg", "name:lad": "Luksemburgo", "name:lez": "Люксембург", "name:lij": "Luxemburgo", "name:lmo": "Lüssemburgh", "name:ltg": "Luksemburga", "name:lzh": "盧森堡", "name:mdf": "Люксембур", "name:mhr": "Люксембург", "name:mzn": "لوکزامبورگ", "name:nah": "Luxemburgo", "name:nan": "Luxembourg", "name:nds": "Luxemborg", "name:new": "लक्जेम्बर्ग", "name:nov": "Luxembourg", "name:nrm": "Luxembourg", "name:pam": "Luxemburgo", "name:pap": "Luxembourg", "name:pcd": "Lussimbourk", "name:pdc": "Luxemburg", "name:pfl": "Lugsebursch", "name:pih": "Luksemborg", "name:pms": "Lussemborgh", "name:pnb": "لکسمبرگ", "name:pnt": "Λουξεμβούργο", "name:rmy": "Luksemburgo", "name:rue": "Луксембурьско", "name:sah": "Лүксембург", "name:scn": "Lussimburgu", "name:sco": "Luxembourg", "name:srn": "Luksemburgkondre", "name:stq": "Luxembuurich", "name:szl": "Luksymburg", "name:tet": "Luxemburgu", "name:tzl": "Letzebuerg", "name:udm": "Люксембург", "name:vec": "Lusenburgo", "name:vep": "Lüksemburg", "name:vls": "Luxemburg", "name:war": "Luxemburgo", "name:wuu": "卢森堡", "name:xal": "Лүксин Балһсна Нутг", "name:xmf": "ლუქსემბურგი", "name:yue": "盧森堡", "name:zea": "Luxemburg", "name:nds-nl": "Luxemburg", "name:simple": "Luxembourg", "name:bat-smg": "Lioksembōrgs", "name:fiu-vro": "Luksõmburk", "name:roa-tara": "Lussemburghe", "official_name": "Groussherzogtum Lëtzebuerg", "name:be-tarask": "Люксэмбург", "is_in:continent": "Europe", "official_name:cs": "Lucemburské velkovévodství", "official_name:de": "Großherzogtum Luxemburg", "official_name:el": "Μεγάλο Δουκάτο του Λουξεμβούργου", "official_name:en": "Grand Duchy of Luxembourg", "official_name:eo": "Grandduklando Luksemburgio", "official_name:fi": "Luxemburgin suurherttuakunta", "official_name:fr": "Grand-duché de Luxembourg", "official_name:it": "Granducato del Lussemburgo", "official_name:lb": "Groussherzogtum Lëtzebuerg", "TMC:cid_58:tabcd_1:Class": "Area", "TMC:cid_58:tabcd_1:LCLversion": "8.00", "TMC:cid_58:tabcd_1:LocationCode": "5"}}, "center_lat": 49.78, "center_lon": 6.09, "area_m2": 2597211674, "timezone": "Europe/Luxembourg", "population": 626108, "wikidata_id": "Q32", "wikipedia_id": "en:Luxembourg"}}