{"type": "Feature", "geometry": {"type": "MultiPolygon", "coordinates": [[[[113.547, 22.136], [113.547, 22.121], [113.546, 22.121], [113.541, 22.124], [113.54, 22.135], [113.547, 22.136]]], [[[113.572, 22.167], [113.573, 22.17], [113.574, 22.17], [113.573, 22.165], [113.579, 22.164], [113.583, 22.166], [113.584, 22.164], [113.579, 22.162], [113.577, 22.154], [113.588, 22.148], [113.588, 22.144], [113.587, 22.143], [113.582, 22.143], [113.578, 22.143], [113.579, 22.141], [113.583, 22.143], [113.583, 22.141], [113.58, 22.138], [113.58, 22.136], [113.583, 22.136], [113.586, 22.135], [113.589, 22.135], [113.592, 22.131], [113.592, 22.129], [113.59, 22.127], [113.586, 22.128], [113.583, 22.125], [113.58, 22.123], [113.575, 22.125], [113.571, 22.122], [113.57, 22.118], [113.571, 22.116], [113.573, 22.116], [113.574, 22.114], [113.57, 22.112], [113.565, 22.112], [113.562, 22.112], [113.56, 22.113], [113.556, 22.11], [113.551, 22.112], [113.549, 22.114], [113.551, 22.116], [113.551, 22.118], [113.55, 22.121], [113.552, 22.122], [113.552, 22.145], [113.55, 22.148], [113.55, 22.151], [113.548, 22.151], [113.542, 22.155], [113.54, 22.16], [113.541, 22.164], [113.545, 22.164], [113.552, 22.166], [113.556, 22.166], [113.557, 22.166], [113.561, 22.165], [113.566, 22.165], [113.566, 22.167], [113.564, 22.168], [113.565, 22.171], [113.569, 22.169], [113.572, 22.167]]], [[[113.585, 22.163], [113.585, 22.165], [113.587, 22.165], [113.598, 22.136], [113.598, 22.135], [113.594, 22.135], [113.59, 22.146], [113.59, 22.149], [113.585, 22.163]]], [[[113.54, 22.167], [113.54, 22.17], [113.543, 22.169], [113.546, 22.171], [113.547, 22.166], [113.541, 22.165], [113.54, 22.167]]], [[[113.566, 22.21], [113.569, 22.207], [113.57, 22.202], [113.57, 22.197], [113.571, 22.19], [113.567, 22.19], [113.565, 22.191], [113.565, 22.199], [113.563, 22.205], [113.562, 22.21], [113.563, 22.211], [113.566, 22.21]]], [[[113.542, 22.213], [113.544, 22.217], [113.549, 22.217], [113.551, 22.217], [113.554, 22.215], [113.555, 22.214], [113.559, 22.213], [113.561, 22.21], [113.561, 22.204], [113.562, 22.2], [113.56, 22.198], [113.557, 22.197], [113.556, 22.196], [113.558, 22.19], [113.558, 22.186], [113.555, 22.188], [113.551, 22.186], [113.55, 22.182], [113.546, 22.181], [113.539, 22.179], [113.533, 22.179], [113.53, 22.181], [113.529, 22.184], [113.53, 22.188], [113.535, 22.194], [113.537, 22.2], [113.538, 22.205], [113.537, 22.206], [113.542, 22.208], [113.54, 22.209], [113.535, 22.207], [113.533, 22.212], [113.535, 22.213], [113.538, 22.214], [113.542, 22.213]]], [[[113.571, 22.204], [113.581, 22.204], [113.581, 22.199], [113.579, 22.197], [113.572, 22.197], [113.571, 22.198], [113.571, 22.204]]]]}, "properties": {"name": "Macau", "iso1": "MO", "admin_level": 3, "osm_id": 1867188, "countrylevel_id": "iso1:MO", "osm_data": {"localname": "澳門 Macau", "official_name": "澳門特別行政區", "alltags": {"name:af": "Macau", "name:am": "ማካው", "name:an": "Macau", "name:ar": "ماكاو", "name:as": "মাকাও", "name:az": "Makao", "name:ba": "Макао", "name:be": "Макаа", "name:bg": "Макао", "name:bn": "মাকাও", "name:br": "Makao", "name:bs": "Makao", "name:ca": "Macau", "name:ce": "Макао", "name:co": "Macau", "name:cs": "Macao", "name:cv": "Макао", "name:cy": "Macau", "name:da": "Macao", "name:dv": "މަކާއޫ", "name:ee": "Macau", "name:el": "Μακάου", "name:en": "Macau", "name:eo": "Macao", "name:es": "Macao", "name:et": "Macau", "name:eu": "Macao", "name:fa": "ماکائو", "name:fi": "Macao", "name:fo": "Makao", "name:fr": "Macao", "name:fy": "Makau", "name:ga": "Macau", "name:gd": "Macau", "name:gl": "Macau", "name:gu": "મકાઉ", "name:ha": "Macau", "name:he": "מקאו", "name:hi": "मकाउ", "name:hr": "Makao", "name:hu": "Makaó", "name:hy": "Մակաո", "name:ia": "Macao", "name:id": "Makau", "name:io": "Makau", "name:is": "Makaó", "name:it": "Macao", "name:ja": "マカオ", "name:jv": "Makau", "name:ka": "მაკაო", "name:ki": "Macau", "name:kk": "Макао", "name:km": "ម៉ាកាវ", "name:kn": "ಮಕಾವು", "name:ko": "마카오", "name:ky": "Макао", "name:la": "Macaum", "name:lb": "Macau", "name:li": "Macau", "name:ln": "Makau", "name:lt": "Makao", "name:lv": "Makao", "name:mk": "Макао", "name:ml": "മകൗ", "name:mn": "Макао", "name:mr": "मकाओ", "name:ms": "Makau", "name:my": "မကာအို", "name:ne": "मकाउ", "name:nl": "Macau", "name:nn": "Macao", "name:no": "Macao", "name:oc": "Macau", "name:os": "Макао", "name:pa": "ਮਕਾਉ", "name:pl": "Makau", "name:pt": "Macau", "name:qu": "Macau", "name:ro": "Macao", "name:ru": "Макао", "name:rw": "Makawo", "name:sc": "Macau", "name:si": "මකාවෝ", "name:sk": "Macao", "name:sl": "Macau", "name:so": "Makaw", "name:sq": "Makao", "name:sr": "Макао", "name:su": "Makau", "name:sv": "Macao", "name:sw": "Macau", "name:ta": "மக்காவு", "name:te": "మకావు", "name:tg": "Макао", "name:th": "มาเก๊า", "name:tk": "Makao", "name:tl": "Macau", "name:tr": "Makao", "name:ug": "ئاۋمېن", "name:uk": "Аоминь", "name:ur": "مکاؤ", "name:uz": "Makao", "name:vi": "Ma Cao", "name:wo": "Makaaw", "name:yo": "Màkáù", "name:za": "Aumwnz", "name:zh": "澳門", "name:lzh": "澳門", "name:tzl": "Macau", "alt_name:en": "Macao", "alt_name:eo": "Macau", "name:zh-Hans": "澳门", "name:zh-Hant": "澳門", "official_name": "澳門特別行政區", "timezone:note": "Incomplete object", "is_in:continent": "Asia", "official_name:ar": "ماكاو المنطقة الإدارية الخاصة", "official_name:cs": "Zvláštní administrativní oblast Macao", "official_name:en": "Macao Special Administrative Region", "official_name:eo": "Speciala Administra Divido de Makao", "official_name:fr": "Région administrative spéciale de Macao", "official_name:nl": "Speciale Administratieve Regio Macau", "official_name:pl": "Specjalny Region Administracyjny Makau", "official_name:sk": "Špeciálna administratívna oblasť Čínskej ľudovej republiky", "official_name:za": "Aumwnz Dwzbez Hingzcwnggih", "official_name:zh": "澳門特別行政區"}}, "center_lat": 22.16, "center_lon": 113.56, "area_m2": 33982186, "timezone": "Asia/Macau", "population": 642900, "wikidata_id": "Q14773", "wikipedia_id": "en:Macau"}}