{"type": "Feature", "geometry": {"type": "MultiPolygon", "coordinates": [[[[14.496, 35.904], [14.499, 35.905], [14.506, 35.905], [14.508, 35.904], [14.505, 35.901], [14.503, 35.901], [14.496, 35.904]]], [[[14.568, 35.846], [14.569, 35.844], [14.573, 35.841], [14.57, 35.839], [14.568, 35.842], [14.565, 35.843], [14.561, 35.841], [14.563, 35.839], [14.56, 35.838], [14.561, 35.835], [14.564, 35.835], [14.562, 35.83], [14.564, 35.829], [14.563, 35.824], [14.562, 35.82], [14.559, 35.819], [14.558, 35.823], [14.556, 35.825], [14.556, 35.828], [14.556, 35.829], [14.555, 35.832], [14.551, 35.837], [14.546, 35.841], [14.544, 35.839], [14.546, 35.836], [14.545, 35.834], [14.547, 35.833], [14.545, 35.83], [14.542, 35.83], [14.541, 35.83], [14.538, 35.833], [14.534, 35.832], [14.532, 35.832], [14.53, 35.83], [14.533, 35.829], [14.534, 35.827], [14.532, 35.826], [14.531, 35.825], [14.53, 35.825], [14.53, 35.826], [14.53, 35.825], [14.53, 35.824], [14.53, 35.823], [14.531, 35.82], [14.533, 35.822], [14.542, 35.816], [14.544, 35.817], [14.539, 35.821], [14.543, 35.822], [14.547, 35.819], [14.543, 35.815], [14.543, 35.812], [14.539, 35.811], [14.539, 35.81], [14.538, 35.809], [14.535, 35.807], [14.534, 35.808], [14.53, 35.806], [14.529, 35.807], [14.526, 35.807], [14.524, 35.807], [14.517, 35.806], [14.512, 35.807], [14.504, 35.81], [14.501, 35.812], [14.499, 35.813], [14.494, 35.814], [14.484, 35.813], [14.481, 35.815], [14.475, 35.814], [14.472, 35.815], [14.467, 35.818], [14.465, 35.82], [14.46, 35.82], [14.457, 35.822], [14.456, 35.82], [14.454, 35.819], [14.448, 35.82], [14.447, 35.821], [14.44, 35.824], [14.436, 35.824], [14.435, 35.826], [14.43, 35.826], [14.428, 35.827], [14.417, 35.828], [14.415, 35.832], [14.416, 35.833], [14.408, 35.836], [14.402, 35.836], [14.4, 35.838], [14.396, 35.839], [14.396, 35.843], [14.392, 35.844], [14.39, 35.846], [14.386, 35.847], [14.383, 35.849], [14.38, 35.849], [14.379, 35.85], [14.375, 35.853], [14.371, 35.854], [14.369, 35.857], [14.364, 35.859], [14.36, 35.863], [14.357, 35.866], [14.353, 35.867], [14.355, 35.87], [14.347, 35.871], [14.342, 35.873], [14.341, 35.876], [14.337, 35.88], [14.337, 35.885], [14.335, 35.891], [14.33, 35.896], [14.329, 35.898], [14.332, 35.902], [14.328, 35.905], [14.328, 35.907], [14.334, 35.906], [14.341, 35.906], [14.341, 35.908], [14.338, 35.911], [14.336, 35.912], [14.333, 35.916], [14.333, 35.922], [14.337, 35.923], [14.34, 35.922], [14.342, 35.92], [14.344, 35.921], [14.343, 35.923], [14.344, 35.925], [14.343, 35.927], [14.345, 35.93], [14.343, 35.931], [14.344, 35.933], [14.344, 35.935], [14.341, 35.935], [14.338, 35.937], [14.335, 35.938], [14.331, 35.938], [14.328, 35.941], [14.329, 35.943], [14.332, 35.945], [14.336, 35.946], [14.336, 35.948], [14.338, 35.95], [14.338, 35.951], [14.341, 35.952], [14.342, 35.955], [14.338, 35.956], [14.338, 35.965], [14.336, 35.97], [14.329, 35.97], [14.326, 35.968], [14.322, 35.969], [14.32, 35.971], [14.322, 35.977], [14.324, 35.979], [14.326, 35.978], [14.331, 35.982], [14.334, 35.984], [14.331, 35.986], [14.333, 35.987], [14.336, 35.987], [14.338, 35.986], [14.342, 35.987], [14.346, 35.986], [14.347, 35.988], [14.349, 35.988], [14.352, 35.987], [14.353, 35.991], [14.355, 35.991], [14.356, 35.989], [14.359, 35.99], [14.36, 35.991], [14.365, 35.992], [14.363, 35.994], [14.362, 35.996], [14.364, 35.997], [14.366, 35.996], [14.367, 35.998], [14.372, 35.994], [14.373, 35.991], [14.375, 35.99], [14.376, 35.987], [14.371, 35.985], [14.367, 35.985], [14.362, 35.981], [14.356, 35.976], [14.35, 35.973], [14.351, 35.969], [14.354, 35.966], [14.356, 35.966], [14.361, 35.967], [14.365, 35.967], [14.374, 35.97], [14.379, 35.971], [14.38, 35.97], [14.382, 35.968], [14.383, 35.968], [14.385, 35.97], [14.388, 35.968], [14.39, 35.968], [14.393, 35.968], [14.395, 35.968], [14.398, 35.964], [14.395, 35.961], [14.397, 35.96], [14.394, 35.958], [14.392, 35.959], [14.39, 35.958], [14.391, 35.956], [14.388, 35.951], [14.383, 35.947], [14.383, 35.946], [14.386, 35.945], [14.39, 35.946], [14.391, 35.947], [14.398, 35.949], [14.405, 35.949], [14.409, 35.95], [14.409, 35.953], [14.417, 35.954], [14.418, 35.957], [14.425, 35.96], [14.426, 35.958], [14.424, 35.954], [14.425, 35.952], [14.422, 35.947], [14.422, 35.945], [14.421, 35.945], [14.424, 35.949], [14.426, 35.948], [14.429, 35.95], [14.432, 35.953], [14.433, 35.955], [14.438, 35.954], [14.442, 35.952], [14.444, 35.952], [14.447, 35.947], [14.448, 35.947], [14.45, 35.943], [14.451, 35.943], [14.452, 35.945], [14.452, 35.946], [14.455, 35.947], [14.456, 35.944], [14.455, 35.942], [14.456, 35.94], [14.459, 35.94], [14.459, 35.938], [14.464, 35.937], [14.471, 35.936], [14.472, 35.937], [14.475, 35.938], [14.482, 35.936], [14.481, 35.934], [14.486, 35.932], [14.49, 35.93], [14.492, 35.928], [14.492, 35.927], [14.496, 35.922], [14.494, 35.921], [14.493, 35.919], [14.496, 35.915], [14.498, 35.915], [14.499, 35.919], [14.505, 35.916], [14.508, 35.914], [14.507, 35.912], [14.51, 35.911], [14.512, 35.908], [14.515, 35.906], [14.512, 35.905], [14.505, 35.909], [14.499, 35.907], [14.496, 35.904], [14.496, 35.903], [14.498, 35.901], [14.501, 35.9], [14.5, 35.898], [14.495, 35.898], [14.494, 35.897], [14.493, 35.897], [14.491, 35.895], [14.496, 35.897], [14.499, 35.894], [14.506, 35.899], [14.512, 35.902], [14.516, 35.902], [14.518, 35.903], [14.519, 35.901], [14.518, 35.897], [14.514, 35.896], [14.512, 35.894], [14.51, 35.892], [14.509, 35.891], [14.507, 35.889], [14.506, 35.888], [14.502, 35.885], [14.5, 35.884], [14.504, 35.879], [14.503, 35.882], [14.507, 35.886], [14.507, 35.885], [14.512, 35.886], [14.516, 35.883], [14.517, 35.884], [14.514, 35.889], [14.517, 35.89], [14.52, 35.886], [14.52, 35.884], [14.52, 35.883], [14.52, 35.881], [14.52, 35.883], [14.521, 35.885], [14.519, 35.89], [14.52, 35.891], [14.526, 35.888], [14.527, 35.889], [14.523, 35.893], [14.524, 35.894], [14.528, 35.894], [14.526, 35.897], [14.531, 35.897], [14.533, 35.896], [14.536, 35.894], [14.539, 35.895], [14.542, 35.893], [14.545, 35.891], [14.546, 35.89], [14.548, 35.889], [14.551, 35.888], [14.553, 35.885], [14.556, 35.884], [14.557, 35.882], [14.561, 35.88], [14.564, 35.877], [14.566, 35.877], [14.569, 35.873], [14.571, 35.873], [14.572, 35.87], [14.573, 35.87], [14.575, 35.868], [14.57, 35.866], [14.568, 35.865], [14.573, 35.863], [14.575, 35.861], [14.569, 35.857], [14.568, 35.855], [14.564, 35.855], [14.563, 35.852], [14.565, 35.85], [14.569, 35.85], [14.569, 35.848], [14.568, 35.846]]], [[[14.322, 36.013], [14.319, 36.012], [14.317, 36.014], [14.321, 36.015], [14.322, 36.013]]], [[[14.265, 36.073], [14.267, 36.073], [14.271, 36.07], [14.273, 36.066], [14.278, 36.065], [14.282, 36.062], [14.286, 36.062], [14.289, 36.066], [14.293, 36.064], [14.294, 36.062], [14.297, 36.06], [14.301, 36.057], [14.306, 36.059], [14.309, 36.059], [14.312, 36.057], [14.312, 36.053], [14.315, 36.051], [14.317, 36.049], [14.318, 36.05], [14.321, 36.05], [14.33, 36.041], [14.333, 36.039], [14.336, 36.035], [14.336, 36.032], [14.328, 36.029], [14.328, 36.028], [14.322, 36.028], [14.321, 36.026], [14.314, 36.027], [14.308, 36.026], [14.305, 36.027], [14.302, 36.027], [14.297, 36.026], [14.299, 36.024], [14.297, 36.021], [14.292, 36.02], [14.29, 36.02], [14.285, 36.018], [14.28, 36.018], [14.279, 36.016], [14.273, 36.017], [14.272, 36.02], [14.273, 36.018], [14.272, 36.016], [14.264, 36.013], [14.261, 36.012], [14.26, 36.013], [14.259, 36.014], [14.256, 36.014], [14.254, 36.015], [14.254, 36.017], [14.251, 36.018], [14.241, 36.019], [14.234, 36.02], [14.231, 36.021], [14.228, 36.022], [14.222, 36.02], [14.219, 36.021], [14.214, 36.026], [14.215, 36.028], [14.213, 36.031], [14.211, 36.031], [14.209, 36.033], [14.206, 36.033], [14.202, 36.034], [14.2, 36.034], [14.193, 36.033], [14.189, 36.034], [14.186, 36.036], [14.19, 36.04], [14.189, 36.045], [14.193, 36.045], [14.192, 36.048], [14.188, 36.053], [14.189, 36.055], [14.192, 36.057], [14.191, 36.062], [14.189, 36.064], [14.184, 36.065], [14.185, 36.067], [14.184, 36.069], [14.184, 36.072], [14.186, 36.075], [14.193, 36.074], [14.197, 36.075], [14.198, 36.074], [14.202, 36.076], [14.203, 36.078], [14.208, 36.079], [14.213, 36.08], [14.213, 36.078], [14.213, 36.08], [14.222, 36.08], [14.223, 36.082], [14.229, 36.08], [14.232, 36.082], [14.235, 36.081], [14.237, 36.081], [14.244, 36.08], [14.252, 36.08], [14.251, 36.079], [14.252, 36.076], [14.255, 36.077], [14.258, 36.076], [14.258, 36.072], [14.264, 36.074], [14.265, 36.073]]], [[[14.326, 36.018], [14.329, 36.019], [14.33, 36.016], [14.333, 36.02], [14.336, 36.018], [14.339, 36.019], [14.342, 36.016], [14.346, 36.015], [14.351, 36.01], [14.349, 36.007], [14.345, 36.007], [14.342, 36.005], [14.336, 36.005], [14.333, 36.004], [14.331, 36.005], [14.326, 36.004], [14.328, 36.007], [14.33, 36.009], [14.327, 36.01], [14.325, 36.012], [14.323, 36.017], [14.324, 36.019], [14.326, 36.018]]]]}, "properties": {"name": "Malta", "iso1": "MT", "admin_level": 2, "osm_id": 365307, "countrylevel_id": "iso1:MT", "osm_data": {"localname": "Malta", "official_name": "", "alltags": {"flag": "http://upload.wikimedia.org/wikipedia/commons/7/73/Flag_of_Malta.svg", "name:ak": "Mɔlta", "name:am": "ማልታ", "name:ar": "مالطا", "name:be": "Мальта", "name:bg": "Малта", "name:bm": "Malti", "name:bn": "মাল্টা", "name:bo": "མལ་ཊ།", "name:br": "Malta", "name:ca": "Malta", "name:cs": "Malta", "name:dz": "མཱལ་ཊ", "name:ee": "Malta nutome", "name:el": "Μάλτα", "name:en": "Malta", "name:eo": "Malto", "name:es": "Malta", "name:fa": "مالت", "name:ff": "Malte", "name:fi": "Malta", "name:fr": "Malte", "name:ga": "Málta", "name:gu": "માલ્ટા", "name:gv": "Yn Valta", "name:he": "מלטה", "name:hi": "माल्टा", "name:hr": "Malta", "name:hu": "Málta", "name:hy": "Մալթա", "name:ia": "Malta", "name:io": "Malta", "name:is": "Malta", "name:it": "Malta", "name:ja": "マルタ", "name:ka": "მალტა", "name:km": "ម៉ាល់តា", "name:kn": "ಮಾಲ್ಟಾ", "name:ko": "몰타", "name:ks": "مالٹا", "name:ku": "Malta", "name:la": "Melita", "name:lg": "Malita", "name:ln": "Malitɛ", "name:lo": "ມັນຕາ", "name:lv": "Malta", "name:mk": "Малта", "name:ml": "മാൾട്ട", "name:mn": "Мальта", "name:mr": "माल्टा", "name:ne": "माल्टा", "name:no": "Malta", "name:or": "ମାଲ୍ଟା", "name:pl": "Malta", "name:rn": "Malita", "name:ru": "Мальта", "name:se": "Málta", "name:sg": "Mâlta", "name:si": "මෝල්ටාව", "name:sk": "Malta", "name:so": "Maalda", "name:sq": "Maltë", "name:sr": "Малта", "name:sv": "Malta", "name:ta": "மால்டா", "name:te": "మాల్టా", "name:tg": "Малта", "name:th": "ประเทศมอลตา", "name:ti": "ማልታ", "name:to": "Malita", "name:uk": "Мальта", "name:ur": "مالٹا", "name:vi": "Malta", "name:vo": "Malteän", "name:yo": "Orílẹ́ède Malata", "name:zh": "马尔他", "name:zu": "i-Malta", "int_name": "Malta", "name:chr": "ᎹᎵᏔ", "name:haw": "Malata", "name:jbo": "maltas", "name:kab": "Malṭ", "driving_side": "left", "name:zh_pinyin": "Mǎěrtā", "is_in:continent": "Europe", "official_name:ar": "جمهورية مالطة", "official_name:be": "Рэспубліка Мальта", "official_name:ca": "República de Malta", "official_name:cs": "Maltská republika", "official_name:el": "Δημοκρατία της Μάλτας", "official_name:en": "Republic of Malta", "official_name:eo": "Malta Respubliko", "official_name:fi": "Maltan tasavalta", "official_name:id": "Republik Malta", "official_name:ja": "マルタ共和国", "official_name:ku": "Komara Maltayê", "official_name:lb": "Republik Malta", "official_name:lt": "Maltos Respublika", "official_name:lv": "Maltas Republika", "official_name:no": "Republikken Malta", "official_name:ru": "Республика Мальта", "official_name:sk": "Maltská republika", "official_name:sr": "Република Малта", "official_name:sv": "Republiken Malta", "official_name:vi": "Cộng hòa Malta"}}, "center_lat": 35.92, "center_lon": 14.4, "area_m2": 316429806, "timezone": "Europe/Malta", "population": 465292, "wikidata_id": "Q233", "wikipedia_id": "en:Malta"}}