{"type": "Feature", "geometry": {"type": "Polygon", "coordinates": [[[166.931, -0.506], [166.932, -0.504], [166.935, -0.503], [166.939, -0.503], [166.945, -0.503], [166.948, -0.504], [166.952, -0.507], [166.957, -0.511], [166.958, -0.513], [166.959, -0.518], [166.958, -0.522], [166.956, -0.524], [166.954, -0.526], [166.952, -0.529], [166.951, -0.535], [166.95, -0.54], [166.951, -0.543], [166.95, -0.545], [166.946, -0.548], [166.943, -0.549], [166.937, -0.553], [166.933, -0.554], [166.929, -0.554], [166.925, -0.554], [166.922, -0.551], [166.917, -0.548], [166.913, -0.544], [166.911, -0.541], [166.91, -0.537], [166.91, -0.536], [166.91, -0.529], [166.911, -0.526], [166.913, -0.523], [166.917, -0.519], [166.923, -0.514], [166.925, -0.512], [166.931, -0.506]]]}, "properties": {"name": "Nauru", "iso1": "NR", "admin_level": 2, "osm_id": 571804, "countrylevel_id": "iso1:NR", "osm_data": {"localname": "Naoero", "official_name": "", "alltags": {"flag": "http://upload.wikimedia.org/wikipedia/commons/3/30/Flag_of_Nauru.svg", "name:am": "ናውሩ", "name:ar": "ناورو", "name:bg": "Науру", "name:bn": "নাউরু", "name:cs": "Nauru", "name:dv": "ނައުރޫ", "name:el": "Ναουρού", "name:en": "Nauru", "name:eo": "Nauro", "name:fa": "نائورو", "name:fr": "Nauru", "name:ga": "Nárú", "name:he": "נאורו", "name:hi": "नाउरु", "name:hr": "Nauru", "name:is": "Nárú", "name:ja": "ナウル", "name:ml": "നൗറു", "name:mt": "Nawru", "name:ru": "Науру", "name:sk": "Nauru", "name:sq": "Naurua", "name:ta": "நவூரு", "name:uk": "Науру", "name:ur": "ناورو", "name:vo": "Naureän", "name:zh": "諾魯", "name:jbo": "naurus", "driving_side": "left", "is_in:continent": "Oceania", "official_name:cs": "Republika Nauru", "official_name:en": "Republic of Nauru", "official_name:es": "República de Nauru", "official_name:ru": "Республика Науру"}}, "center_lat": -0.53, "center_lon": 166.93, "area_m2": 21678931, "timezone": "Pacific/Nauru", "population": 13650, "wikidata_id": "Q697", "wikipedia_id": "en:Nauru"}}