{"type": "Feature", "geometry": {"type": "Polygon", "coordinates": [[[105.644, 17.992], [105.706, 17.993], [105.722, 18.008], [105.731, 18.034], [105.75, 18.034], [105.776, 18.018], [105.809, 18.026], [105.82, 18.061], [105.873, 18.068], [105.895, 18.09], [105.931, 18.088], [105.955, 18.058], [105.986, 18.064], [106.023, 18.024], [106.048, 18.023], [106.071, 17.995], [106.047, 17.964], [106.045, 17.946], [106.077, 17.933], [106.169, 17.915], [106.19, 17.923], [106.24, 17.93], [106.264, 17.914], [106.306, 17.963], [106.323, 17.963], [106.339, 17.992], [106.4, 17.982], [106.443, 17.969], [106.444, 17.952], [106.479, 17.953], [106.495, 17.964], [106.511, 17.938], [106.485, 17.922], [106.47, 17.902], [106.445, 17.852], [106.447, 17.817], [106.463, 17.763], [106.496, 17.702], [106.503, 17.679], [106.54, 17.624], [106.594, 17.537], [106.661, 17.445], [106.697, 17.405], [106.789, 17.318], [106.842, 17.276], [106.994, 17.163], [106.936, 17.11], [106.88, 17.078], [106.857, 17.074], [106.865, 17.055], [106.851, 17.039], [106.816, 17.039], [106.803, 17.021], [106.804, 16.992], [106.781, 16.981], [106.775, 16.954], [106.778, 16.93], [106.744, 16.921], [106.686, 16.956], [106.66, 16.937], [106.607, 16.939], [106.593, 16.959], [106.585, 16.99], [106.563, 16.987], [106.549, 16.999], [106.515, 16.972], [106.472, 16.983], [106.461, 17.001], [106.442, 16.995], [106.426, 17.022], [106.402, 17.053], [106.416, 17.079], [106.373, 17.112], [106.346, 17.148], [106.356, 17.158], [106.328, 17.18], [106.324, 17.216], [106.305, 17.258], [106.305, 17.292], [106.275, 17.294], [106.281, 17.276], [106.261, 17.253], [106.236, 17.25], [106.163, 17.304], [106.146, 17.309], [106.132, 17.337], [106.082, 17.371], [105.862, 17.627], [105.844, 17.627], [105.831, 17.648], [105.78, 17.675], [105.75, 17.669], [105.744, 17.72], [105.73, 17.745], [105.701, 17.762], [105.676, 17.803], [105.683, 17.833], [105.661, 17.857], [105.608, 17.877], [105.623, 17.924], [105.624, 17.942], [105.642, 17.963], [105.644, 17.992]]]}, "properties": {"name": "Quang Binh province", "iso2": "VN-24", "admin_level": 4, "osm_id": 1896050, "countrylevel_id": "iso2:VN-24", "osm_data": {"localname": "Tỉnh Quảng Bình", "official_name": "", "alltags": {"name:af": "Quang Binh", "name:an": "Quảng Bình", "name:ar": "محافظة كوانغ بنه", "name:be": "Куангбінь", "name:bg": "Куанг Бин", "name:bn": "কুয়াং বিন প্রদেশ", "name:br": "Proviñs Quang Binh", "name:ca": "Província de Quảng Bình", "name:ch": "Probensia Quang Binh", "name:co": "Pruvincia di Quang Binh", "name:cs": "Quảng Bình", "name:cv": "Куангбинь", "name:da": "Quang Binh", "name:en": "Quang Binh province", "name:eo": "Provinco Quang Binh", "name:es": "Quảng Bình", "name:et": "Quảng Bìnhi provints", "name:eu": "Quang Binh probintzia", "name:fa": "استان کوانگ‌بن", "name:fi": "Quảng Bình", "name:fr": "Province de Quảng Bình", "name:fy": "Kuang Binh", "name:ga": "Quang Binh", "name:gl": "Provincia de Quảng Bình", "name:hr": "Quảng Bình", "name:ht": "Quang Binh", "name:hu": "Quảng Bình", "name:ia": "Provincia Quang Binh", "name:id": "Provinsi Quang Binh", "name:ie": "Quang Binh", "name:ik": "Quang Binh", "name:it": "Provincia di Quang Binh", "name:ja": "クアンビン", "name:jv": "Provinsi Quang Binh", "name:ko": "꽝빈성", "name:la": "Quảng Bình", "name:lb": "Provënz Quang Binh", "name:lo": "ແຂວງກວາງບິນ", "name:lt": "Kvangbinio provincija", "name:lv": "Kuanbiņa", "name:ms": "Quang Binh", "name:mt": "Provinċja ta' Quảng Bình", "name:nl": "Quảng Bình", "name:nn": "Quang Binh", "name:no": "Quang Binh", "name:oc": "Província de Quang Binh", "name:os": "Куангбинь", "name:pa": "ਕੂਏਂਗ ਬਿਨਾਹ ਸੂਬਾ", "name:pl": "Prowincja Quảng Bình", "name:pt": "Quang Binh", "name:ro": "Quảng Bình", "name:ru": "Куангбинь", "name:sc": "Provìntzia de Quảng Bình", "name:sk": "Quảng Bình", "name:sl": "Quảng Bình", "name:so": "Quang Binh", "name:sq": "Provinca Quang Binh", "name:sr": "Кванг Бињ", "name:su": "Quang Binh", "name:sv": "Quang Binh", "name:sw": "Quang Binh", "name:tg": "Вилояти Куанг Бин", "name:th": "จังหวัดกว๋างบิ่ญ", "name:tl": "Quang Binh", "name:tr": "Quang Binh", "name:uk": "Куангбінь", "name:ur": "قوانگ بنہ صوبہ", "name:ve": "Quang Binh", "name:vo": "Quang Binh", "name:wa": "Quảng Bình", "name:zh": "廣平省", "population": "853000", "is_in:country_code": "VN"}}, "center_lat": 17.53, "center_lon": 106.29, "area_m2": 8026492701, "timezone": "Asia/Bangkok", "population": 857818, "wikidata_id": "Q23533", "wikipedia_id": "vi:Quảng Bình"}}