{"type": "Feature", "geometry": {"type": "Polygon", "coordinates": [[[106.412, 11.974], [106.431, 11.972], [106.456, 11.989], [106.469, 11.973], [106.496, 11.969], [106.52, 11.981], [106.542, 11.968], [106.64, 11.974], [106.655, 11.99], [106.683, 11.965], [106.724, 11.976], [106.745, 12.003], [106.746, 12.022], [106.799, 12.084], [106.828, 12.081], [106.856, 12.068], [106.887, 12.073], [106.927, 12.063], [106.99, 12.085], [107.012, 12.12], [107.026, 12.121], [107.054, 12.142], [107.059, 12.161], [107.08, 12.169], [107.101, 12.207], [107.14, 12.233], [107.156, 12.278], [107.206, 12.296], [107.227, 12.164], [107.233, 12.035], [107.263, 12.017], [107.316, 12.008], [107.338, 11.991], [107.359, 11.934], [107.385, 11.918], [107.407, 11.866], [107.426, 11.859], [107.41, 11.807], [107.394, 11.795], [107.391, 11.767], [107.372, 11.77], [107.354, 11.754], [107.303, 11.74], [107.286, 11.724], [107.284, 11.699], [107.266, 11.659], [107.272, 11.636], [107.303, 11.619], [107.298, 11.586], [107.312, 11.553], [107.336, 11.548], [107.25, 11.527], [107.132, 11.501], [107.113, 11.481], [107.07, 11.448], [107.076, 11.418], [107.054, 11.377], [107.031, 11.355], [107.01, 11.348], [107.004, 11.333], [106.938, 11.308], [106.952, 11.322], [106.94, 11.352], [106.918, 11.356], [106.886, 11.342], [106.857, 11.317], [106.859, 11.362], [106.825, 11.384], [106.812, 11.376], [106.785, 11.38], [106.774, 11.399], [106.781, 11.427], [106.806, 11.451], [106.803, 11.482], [106.79, 11.491], [106.754, 11.477], [106.754, 11.447], [106.726, 11.432], [106.704, 11.396], [106.679, 11.398], [106.674, 11.355], [106.616, 11.363], [106.613, 11.387], [106.553, 11.373], [106.544, 11.385], [106.546, 11.433], [106.573, 11.457], [106.557, 11.484], [106.54, 11.468], [106.497, 11.496], [106.434, 11.5], [106.425, 11.494], [106.434, 11.539], [106.468, 11.543], [106.488, 11.569], [106.483, 11.595], [106.451, 11.671], [106.454, 11.69], [106.438, 11.706], [106.423, 11.739], [106.418, 11.77], [106.446, 11.83], [106.439, 11.852], [106.465, 11.872], [106.412, 11.974]]]}, "properties": {"name": "Bình Phước Province", "iso2": "VN-58", "admin_level": 4, "osm_id": 1898841, "countrylevel_id": "iso2:VN-58", "osm_data": {"localname": "Tỉnh Bình Phước", "official_name": "Tỉnh Bình Phước", "alltags": {"name:ar": "محافظة بنه فوك", "name:bg": "Бин Фуок", "name:en": "Bình Phước Province", "name:fa": "استان بین فوک", "name:fr": "Province de Bình Phước", "name:id": "Provinsi Binh Phuoc", "name:it": "Provincia di Binh Phuoc", "name:ja": "ビンフオック", "name:ko": "빈프억성", "name:nl": "Bình Phước", "name:pl": "Prowincja Bình Phước", "name:pt": "Binh Phuoc", "name:ru": "Биньфыок", "name:sr": "Бињ Фиок", "name:sv": "Binh Phuoc", "name:sw": "Mkoa wa Bình Phước", "name:tg": "Вилояти Бин Фуок", "name:th": "จังหวัดบิ่ญเฟื้อก", "name:uk": "Біньфиок", "name:ur": "بنہ فووک صوبہ", "name:zh": "平福省", "population": "905300", "official_name": "Tỉnh Bình Phước", "is_in:country_code": "VN"}}, "center_lat": 11.76, "center_lon": 106.91, "area_m2": 6919293259, "timezone": "Asia/Ho_Chi_Minh", "population": 932000, "wikidata_id": "Q36672", "wikipedia_id": "vi:Bình Phước"}}