{"type": "Feature", "geometry": {"type": "Polygon", "coordinates": [[[105.769, 20.565], [105.795, 20.567], [105.812, 20.604], [105.815, 20.634], [105.84, 20.659], [105.859, 20.645], [105.896, 20.652], [105.92, 20.676], [105.943, 20.682], [105.957, 20.655], [105.993, 20.683], [106.003, 20.704], [106.019, 20.7], [106.036, 20.675], [106.031, 20.646], [106.061, 20.606], [106.121, 20.617], [106.131, 20.607], [106.134, 20.573], [106.16, 20.564], [106.172, 20.546], [106.183, 20.485], [106.146, 20.469], [106.141, 20.495], [106.115, 20.496], [106.085, 20.465], [106.044, 20.471], [106.015, 20.4], [105.992, 20.403], [105.994, 20.429], [105.965, 20.426], [105.951, 20.403], [105.924, 20.395], [105.935, 20.368], [105.903, 20.373], [105.857, 20.427], [105.844, 20.478], [105.795, 20.512], [105.769, 20.565]]]}, "properties": {"name": "Ha Nam province", "iso2": "VN-63", "admin_level": 4, "osm_id": 1901010, "countrylevel_id": "iso2:VN-63", "osm_data": {"localname": "Tỉnh Hà Nam", "official_name": "", "alltags": {"name:ar": "محافظة ها نام", "name:bg": "Ха Нам", "name:en": "Ha Nam province", "name:es": "Hà Nam", "name:fa": "استان ها نام", "name:fi": "Hà Nam", "name:fr": "Province de Hà Nam", "name:id": "Provinsi Ha Nam", "name:it": "Provincia di Ha Nam", "name:ja": "ハナム", "name:ko": "하남성", "name:mn": "Хай Наам", "name:nl": "Hà Nam", "name:pl": "Prowincja Hà Nam", "name:pt": "Hà Nam", "name:ru": "Ханам", "name:sr": "Ха Нам", "name:sv": "Ha Nam", "name:sw": "Mkoa wa Hà Nam", "name:tg": "Вилояти Ха Нам", "name:th": "จังหวัดห่านาม", "name:uk": "Ханам", "name:ur": "ہا نام صوبہ", "name:zh": "河南省", "population": "786900", "is_in:country_code": "VN"}}, "center_lat": 20.54, "center_lon": 105.97, "area_m2": 867604427, "timezone": "Asia/Bangkok", "wikidata_id": "Q36413", "wikipedia_id": "vi:Hà Nam"}}