{"type": "Feature", "geometry": {"type": "Polygon", "coordinates": [[[107.206, 12.296], [107.231, 12.296], [107.268, 12.325], [107.341, 12.328], [107.363, 12.319], [107.389, 12.285], [107.387, 12.271], [107.419, 12.244], [107.434, 12.246], [107.447, 12.291], [107.468, 12.31], [107.51, 12.328], [107.544, 12.351], [107.543, 12.4], [107.58, 12.495], [107.562, 12.517], [107.59, 12.56], [107.579, 12.581], [107.584, 12.614], [107.569, 12.642], [107.571, 12.668], [107.582, 12.68], [107.559, 12.716], [107.56, 12.796], [107.607, 12.796], [107.636, 12.804], [107.686, 12.79], [107.745, 12.785], [107.761, 12.779], [107.804, 12.78], [107.822, 12.798], [107.85, 12.811], [107.863, 12.799], [107.854, 12.781], [107.871, 12.752], [107.907, 12.745], [107.896, 12.712], [107.912, 12.694], [107.905, 12.673], [107.921, 12.646], [107.934, 12.586], [107.894, 12.565], [107.887, 12.546], [107.905, 12.529], [107.945, 12.526], [107.992, 12.493], [107.995, 12.47], [107.984, 12.445], [107.944, 12.437], [107.913, 12.401], [107.932, 12.375], [107.936, 12.341], [107.974, 12.298], [107.999, 12.305], [108.04, 12.289], [108.046, 12.275], [108.083, 12.244], [108.087, 12.225], [108.106, 12.205], [108.113, 12.184], [108.115, 12.148], [108.09, 12.134], [108.078, 12.138], [108.019, 12.137], [107.991, 12.122], [107.983, 12.083], [107.963, 12.067], [108.012, 12.04], [108.023, 12.003], [108.045, 11.977], [108.054, 11.945], [108.073, 11.939], [108.088, 11.913], [108.112, 11.899], [108.068, 11.834], [108.059, 11.839], [108.003, 11.807], [107.973, 11.795], [107.954, 11.818], [107.924, 11.801], [107.9, 11.808], [107.89, 11.841], [107.898, 11.866], [107.854, 11.874], [107.824, 11.864], [107.787, 11.859], [107.774, 11.849], [107.735, 11.875], [107.712, 11.922], [107.674, 11.914], [107.66, 11.877], [107.631, 11.866], [107.619, 11.839], [107.578, 11.822], [107.548, 11.79], [107.528, 11.799], [107.484, 11.793], [107.464, 11.761], [107.435, 11.765], [107.419, 11.75], [107.391, 11.767], [107.394, 11.795], [107.41, 11.807], [107.426, 11.859], [107.407, 11.866], [107.385, 11.918], [107.359, 11.934], [107.338, 11.991], [107.316, 12.008], [107.263, 12.017], [107.233, 12.035], [107.227, 12.164], [107.206, 12.296]]]}, "properties": {"name": "Đắk Nông Province", "iso2": "VN-72", "admin_level": 4, "osm_id": 1884042, "countrylevel_id": "iso2:VN-72", "osm_data": {"localname": "Đắk Nông", "official_name": "", "alltags": {"name:ar": "محافظة داك نونغ", "name:bg": "Дак Нонг", "name:en": "Đắk Nông Province", "name:es": "Đăk Nông", "name:fa": "استان داک نونگ", "name:fr": "Province de Đắk Nông", "name:id": "Provinsi Dak Nong", "name:it": "Provincia di Dak Nong", "name:ja": "ダクノン", "name:ko": "닥농성", "name:nl": "Đắk Nông", "name:pl": "Prowincja Đăk Nông", "name:pt": "Dak Nong", "name:ru": "Дакнонг", "name:sr": "Дак Нонг", "name:sv": "Dak Nong", "name:sw": "Mkoa wa Đắk Nông", "name:tg": "Вилояти Дак Нонг", "name:uk": "Дакнонг", "name:ur": "داک نونگ صوبہ", "name:vi": "Đắk Nông", "name:zh": "多農省", "population": "516300", "official_name:vi": "Tỉnh Đắk Nông", "is_in:country_code": "VN"}}, "center_lat": 12.23, "center_lon": 107.69, "area_m2": 6555229075, "timezone": "Asia/Ho_Chi_Minh", "wikidata_id": "Q36723", "wikipedia_id": "vi:Đắk Nông"}}