{"type": "Feature", "geometry": {"type": "Polygon", "coordinates": [[[105.532, 9.919], [105.563, 9.987], [105.574, 9.994], [105.619, 9.945], [105.645, 9.965], [105.659, 9.95], [105.679, 9.948], [105.711, 9.958], [105.723, 9.972], [105.771, 9.956], [105.819, 9.965], [105.845, 9.983], [105.897, 9.938], [105.877, 9.917], [105.854, 9.803], [105.853, 9.801], [105.843, 9.749], [105.778, 9.71], [105.697, 9.66], [105.669, 9.633], [105.625, 9.616], [105.608, 9.62], [105.593, 9.607], [105.577, 9.615], [105.546, 9.586], [105.536, 9.597], [105.49, 9.583], [105.448, 9.588], [105.43, 9.601], [105.373, 9.597], [105.376, 9.615], [105.399, 9.623], [105.407, 9.652], [105.339, 9.676], [105.329, 9.701], [105.357, 9.713], [105.394, 9.745], [105.405, 9.769], [105.436, 9.795], [105.431, 9.816], [105.456, 9.823], [105.521, 9.859], [105.518, 9.867], [105.539, 9.913], [105.532, 9.919]]]}, "properties": {"name": "Hậu Giang Province", "iso2": "VN-73", "admin_level": 4, "osm_id": 1874249, "countrylevel_id": "iso2:VN-73", "osm_data": {"localname": "Tỉnh Hậu Giang", "official_name": "", "alltags": {"name:ar": "محافظة هو زانغ", "name:bg": "Хау Жианг", "name:en": "Hậu Giang Province", "name:es": "Hậu Giang", "name:fa": "استان هائو گیانگ", "name:fi": "Hậu Giang", "name:fr": "Province de Hậu Giang", "name:id": "Provinsi Hau Giang", "name:it": "Provincia di Hau Giang", "name:ja": "ハウザン", "name:ko": "하우장성", "name:nl": "Hậu Giang", "name:pl": "Prowincja Hậu Giang", "name:pt": "Hau Giang", "name:ru": "Хаузянг", "name:sr": "Хау Жјанг", "name:sv": "Hau Giang", "name:sw": "Mkoa wa Hậu Giang", "name:tg": "Вилояти Хау Гианг", "name:uk": "Хаузянг", "name:ur": "ہآو گیانگ صوبہ", "name:zh": "後江省", "population": "769200", "is_in:country_code": "VN"}}, "center_lat": 9.78, "center_lon": 105.62, "area_m2": 1633396894, "timezone": "Asia/Ho_Chi_Minh", "wikidata_id": "Q36320", "wikipedia_id": "vi:Hậu Giang"}}