{"type": "Feature", "geometry": {"type": "MultiPolygon", "coordinates": [[[[106.846, 20.806], [106.889, 20.816], [106.9, 20.799], [106.859, 20.786], [106.846, 20.806]]], [[[107, 20.728], [106.973, 20.755], [106.975, 20.766], [106.952, 20.794], [106.928, 20.796], [106.96, 20.854], [107.019, 20.862], [107.037, 20.859], [107.059, 20.832], [107.099, 20.809], [107.106, 20.793], [107.084, 20.778], [107.072, 20.786], [107.044, 20.761], [107.06, 20.737], [107, 20.728]]], [[[106.636, 20.627], [106.612, 20.627], [106.602, 20.64], [106.569, 20.62], [106.549, 20.628], [106.54, 20.609], [106.493, 20.617], [106.482, 20.599], [106.45, 20.621], [106.455, 20.639], [106.421, 20.676], [106.401, 20.689], [106.417, 20.717], [106.407, 20.728], [106.438, 20.72], [106.466, 20.728], [106.473, 20.753], [106.499, 20.76], [106.485, 20.794], [106.508, 20.801], [106.493, 20.819], [106.494, 20.867], [106.524, 20.863], [106.548, 20.869], [106.539, 20.901], [106.556, 20.935], [106.592, 20.947], [106.585, 20.973], [106.555, 20.999], [106.563, 21.012], [106.612, 21.02], [106.626, 21.012], [106.652, 21.019], [106.689, 21.005], [106.743, 20.999], [106.768, 20.976], [106.771, 20.915], [106.754, 20.883], [106.771, 20.845], [106.782, 20.838], [106.792, 20.826], [106.822, 20.823], [106.824, 20.822], [106.824, 20.816], [106.825, 20.814], [106.827, 20.813], [106.828, 20.812], [106.829, 20.808], [106.802, 20.794], [106.778, 20.794], [106.775, 20.766], [106.791, 20.701], [106.766, 20.714], [106.738, 20.701], [106.704, 20.674], [106.7, 20.651], [106.649, 20.623], [106.636, 20.628], [106.636, 20.627]]], [[[106.789, 20.838], [106.796, 20.838], [106.795, 20.837], [106.79, 20.837], [106.789, 20.838]]]]}, "properties": {"name": "Haiphong", "iso2": "VN-HP", "admin_level": 4, "osm_id": 1902682, "countrylevel_id": "iso2:VN-HP", "osm_data": {"localname": "Hải Phòng", "official_name": "Thành phố Hải Phòng", "alltags": {"name:af": "Hai Phong", "name:ar": "ها فونغ", "name:be": "Горад Хайфон", "name:bg": "Хайфонг", "name:bn": "হাইফোং", "name:ce": "Хайфон", "name:cs": "Haiphong", "name:cv": "Хайфон", "name:da": "Hai Phong", "name:el": "Χάι Φονγκ", "name:en": "Haiphong", "name:eo": "Hai Phong", "name:eu": "Hai Phong", "name:fa": "هایفونگ", "name:hy": "Հայֆոն", "name:it": "Haiphong", "name:ja": "ハイフォン", "name:kl": "Hai Phong", "name:ko": "하이퐁", "name:lt": "Haifongas", "name:ml": "ഹൈ ഫോങ്", "name:mr": "हाइ फाँग", "name:no": "Haiphong", "name:pl": "Hajfong", "name:pt": "Haiphong", "name:ru": "Хайфон", "name:sr": "Хајфонг", "name:sv": "Hai Phong", "name:sw": "Hai Phong", "name:th": "ไฮฟอง", "name:uk": "Хайфонг", "name:ur": "ہائیفونگ", "name:vi": "Hải Phòng", "name:zh": "海防市", "population": "1911977", "alt_name:en": "Hai Phong", "alt_name:vi": "Đất Cảng", "name:vi-hani": "海防", "official_name": "Thành phố Hải Phòng", "official_name:en": "Hai Phong City", "official_name:ko": "하이퐁시", "official_name:vi": "Thành phố Hải Phòng", "is_in:country_code": "VN"}}, "center_lat": 20.8, "center_lon": 106.68, "area_m2": 1390865599, "timezone": "Asia/Bangkok", "population": 2103500, "wikidata_id": "Q72818", "wikipedia_id": "vi:Hải Phòng"}}