{"type": "Feature", "geometry": {"type": "Polygon", "coordinates": [[[119.847, 39.989], [119.497, 40.552], [119.329, 40.526], [118.84, 40.821], [118.958, 41.077], [119.233, 41.313], [119.41, 41.587], [119.293, 41.709], [119.271, 42.256], [119.538, 42.305], [119.763, 42.208], [120.039, 41.802], [120.74, 42.221], [121.023, 42.24], [121.381, 42.473], [121.651, 42.441], [121.933, 42.687], [122.344, 42.676], [122.56, 42.824], [123.026, 42.766], [123.253, 42.991], [123.664, 43.179], [123.698, 43.368], [124.274, 43.228], [124.534, 42.876], [124.686, 43.056], [124.97, 42.8], [125.07, 42.503], [125.325, 42.139], [125.285, 41.839], [125.642, 41.262], [125.702, 40.864], [125.438, 40.665], [125.186, 40.608], [124.75, 40.379], [124.351, 40.081], [124.354, 39.971], [124.346, 39.974], [124.284, 39.96], [124.152, 39.809], [123.823, 39.836], [123.006, 39.662], [122.29, 39.347], [122.045, 39.069], [121.655, 39.005], [121.514, 38.826], [121.134, 38.726], [121.086, 38.909], [121.68, 39.123], [121.456, 39.745], [121.779, 39.936], [122.1, 40.236], [122.252, 40.514], [121.952, 40.8], [121.139, 40.882], [120.625, 40.485], [120.516, 40.257], [119.847, 39.989]]]}, "properties": {"name": "Liaoning", "iso2": "CN-LN", "admin_level": 4, "osm_id": 912942, "countrylevel_id": "iso2:CN-LN", "osm_data": {"localname": "辽宁省", "official_name": "", "alltags": {"name:af": "Liaoning", "name:ar": "لياونينغ", "name:be": "Ляанін", "name:bg": "Ляонин", "name:bn": "লিয়াওনিং", "name:bo": "ལའུ་ཉིང་ཞིང་ཆེན།", "name:br": "Liaoning", "name:ca": "Liaoning", "name:ce": "Ляонин", "name:cs": "Liao-ning", "name:cy": "Liaoning", "name:da": "Liaoning", "name:en": "Liaoning", "name:eo": "Ljaŭningo", "name:es": "Liaoning", "name:et": "Liaoning", "name:eu": "Liaoning", "name:fa": "لیائونینگ", "name:fi": "Liaoning", "name:fr": "Liaoning", "name:ga": "Liaoning", "name:gl": "Liaoning", "name:gv": "Liaoning", "name:he": "ליאונינג", "name:hi": "लियाओनिंग", "name:hr": "Liaoning", "name:hu": "Liaoning", "name:hy": "Լյաոնին", "name:ia": "Liaoning", "name:id": "Liaoning", "name:it": "Liaoning", "name:ja": "遼寧省", "name:ka": "ლიაონინი", "name:kg": "Liaoning", "name:ko": "랴오닝성", "name:la": "Liaoning", "name:lb": "Provënz Liaoning", "name:lt": "Liaoningas", "name:lv": "Liaonina", "name:mg": "Liaoning", "name:mn": "Ляонин муж", "name:mr": "ल्याओनिंग", "name:ms": "Liaoning", "name:my": "လျောင်းနင်ပြည်နယ်", "name:nl": "Liaoning", "name:nn": "Liaoning", "name:no": "Liaoning", "name:oc": "Liaoning", "name:os": "Ляонин", "name:pa": "ਲੀਆਓਨਿੰਗ", "name:pl": "Liaoning", "name:pt": "Liaoning", "name:qu": "Liaoning pruwinsya", "name:ro": "Liaoning", "name:ru": "Ляонин", "name:sr": "Љаонинг", "name:sv": "Liaoning", "name:sw": "Liaoning", "name:ta": "லியாவோனிங்", "name:tg": "Лиаонин", "name:th": "มณฑลเหลียวหนิง", "name:tl": "Liaoning", "name:tr": "Liaoning", "name:ug": "لياۋنىڭ ئۆلكىسى", "name:uk": "Ляонін", "name:ur": "لیاؤننگ", "name:uz": "Lyaonin", "name:vi": "Liêu Ninh", "name:wa": "Liaoning", "name:za": "Laeuzningz", "name:zh": "辽宁省", "alt_name": "辽宁", "int_name": "Liaoning", "name:lzh": "遼寧省", "name:nan": "Liâu-lêng-séng", "name:yue": "遼寧省", "name:zh-Hans": "辽宁省", "name:zh-Hant": "遼寧省", "is_in:country": "China", "name:zh_pinyin": "Liáoníng", "is_in:continent": "Asia", "is_in:country_code": "CN"}}, "center_lat": 41.29, "center_lon": 122.6, "area_m2": 147128900268, "timezone": "Asia/Shanghai", "population": 43746323, "wikidata_id": "Q43934", "wikipedia_id": "zh:辽宁省"}}