{"type": "Feature", "geometry": {"type": "Polygon", "coordinates": [[[97.172, 42.794], [97.789, 42.709], [98.192, 42.652], [99.505, 42.565], [99.597, 42.583], [100.318, 42.687], [100.848, 42.672], [101.801, 42.503], [102.097, 42.2], [102.767, 42.125], [103.411, 41.881], [103.891, 41.796], [104.524, 41.873], [104.517, 41.66], [104.916, 41.652], [106.786, 42.291], [107.566, 42.412], [107.98, 42.412], [108.241, 42.461], [108.839, 42.396], [109.528, 42.467], [110.436, 42.782], [111.006, 43.322], [111.573, 43.491], [111.955, 43.828], [111.409, 44.345], [111.77, 44.981], [111.953, 45.072], [112.426, 45.074], [112.702, 44.881], [113.626, 44.742], [114.056, 44.926], [114.385, 45.143], [114.547, 45.383], [115.372, 45.388], [115.687, 45.453], [116.281, 45.77], [116.265, 45.961], [116.543, 46.237], [116.831, 46.382], [117.368, 46.361], [117.414, 46.579], [117.83, 46.529], [118.301, 46.738], [119.101, 46.648], [119.763, 46.618], [119.928, 46.722], [119.708, 47.193], [119.122, 47.664], [118.755, 47.772], [118.555, 47.993], [117.805, 48.014], [117.375, 47.64], [116.871, 47.891], [116.253, 47.878], [115.935, 47.681], [115.571, 47.919], [115.548, 48.161], [115.813, 48.259], [115.787, 48.52], [116.714, 49.846], [117.061, 49.686], [117.793, 49.52], [118.074, 49.614], [118.555, 49.922], [119.084, 49.984], [119.274, 50.105], [119.274, 50.603], [119.754, 51.089], [120.05, 51.63], [120.648, 51.923], [120.78, 52.164], [120.686, 52.518], [120.185, 52.577], [120.027, 52.776], [120.281, 52.861], [120.941, 53.296], [121.488, 53.333], [121.809, 53.064], [121.316, 52.569], [121.92, 52.285], [122.126, 52.475], [122.78, 52.251], [122.624, 52.135], [122.896, 51.415], [123.275, 51.25], [124.483, 51.379], [124.857, 51.378], [125.127, 51.632], [125.344, 51.622], [126.033, 51.045], [126.013, 50.915], [125.753, 50.751], [125.823, 50.563], [125.521, 50.325], [125.221, 49.957], [125.257, 49.314], [125.106, 49.124], [124.863, 49.158], [124.726, 48.922], [124.535, 48.573], [124.308, 48.361], [124.068, 48.431], [123.161, 47.782], [122.587, 47.545], [122.402, 47.343], [122.889, 46.816], [123.135, 46.736], [123.522, 46.957], [123.597, 46.687], [122.995, 46.573], [123.171, 46.247], [122.636, 45.77], [122.253, 45.792], [121.917, 46.002], [121.747, 45.793], [121.943, 45.709], [122.16, 45.44], [122.064, 44.879], [122.124, 44.576], [122.311, 44.232], [122.676, 44.286], [123.021, 44.495], [123.317, 44.178], [123.531, 43.63], [123.31, 43.49], [123.698, 43.368], [123.664, 43.179], [123.253, 42.991], [123.026, 42.766], [122.56, 42.824], [122.344, 42.676], [121.933, 42.687], [121.651, 42.441], [121.381, 42.473], [121.023, 42.24], [120.74, 42.221], [120.039, 41.802], [119.763, 42.208], [119.538, 42.305], [119.271, 42.256], [119.293, 41.709], [119.41, 41.587], [119.233, 41.313], [118.35, 41.33], [118.124, 41.74], [118.333, 41.87], [118.262, 42.083], [117.971, 42.227], [117.992, 42.414], [117.774, 42.617], [117.455, 42.597], [116.879, 42.351], [116.863, 42.002], [116.586, 41.924], [116.304, 41.995], [116.01, 41.775], [115.91, 41.943], [115.197, 41.569], [114.889, 41.635], [114.934, 41.845], [114.819, 42.138], [114.194, 41.789], [114.222, 41.513], [113.971, 41.505], [113.862, 41.067], [114.126, 40.745], [114.035, 40.607], [113.529, 40.333], [113.223, 40.401], [112.89, 40.327], [112.738, 40.162], [112.405, 40.294], [112.227, 40.169], [111.965, 39.795], [111.932, 39.618], [111.433, 39.641], [111.332, 39.419], [111.119, 39.365], [110.885, 39.509], [109.714, 39.066], [109.64, 38.877], [109.33, 38.7], [109.045, 38.43], [108.8, 37.94], [108.792, 37.699], [108.148, 37.617], [107.976, 37.786], [107.647, 37.864], [107.329, 38.091], [107.012, 38.119], [106.541, 38.268], [106.696, 38.699], [106.949, 38.944], [106.795, 39.346], [106.283, 39.271], [105.892, 38.787], [105.761, 38.121], [105.801, 37.859], [105.568, 37.7], [105.362, 37.716], [105.021, 37.58], [104.431, 37.515], [104.284, 37.428], [104.181, 37.407], [103.672, 37.785], [103.4, 37.861], [103.366, 38.089], [103.53, 38.153], [103.412, 38.404], [103.856, 38.644], [104.204, 39.086], [103.836, 39.461], [103.346, 39.335], [103.007, 39.099], [102.45, 39.254], [101.827, 39.094], [102.043, 38.904], [101.766, 38.663], [101.327, 38.778], [101.196, 38.944], [100.827, 39.033], [100.838, 39.406], [100.496, 39.401], [100.248, 39.683], [99.9, 39.786], [99.693, 39.964], [100.168, 40.28], [100.236, 40.716], [100.052, 40.907], [99.671, 40.933], [99.566, 40.846], [99.173, 40.858], [98.343, 40.568], [98.332, 40.919], [97.972, 41.096], [97.614, 41.476], [97.845, 41.655], [97.172, 42.794]]]}, "properties": {"name": "Inner Mongolia", "iso2": "CN-NM", "admin_level": 4, "osm_id": 161349, "countrylevel_id": "iso2:CN-NM", "osm_data": {"localname": "内蒙古自治区", "official_name": "", "alltags": {"name:af": "Binne-Mongolië", "name:ar": "منغوليا الداخلية", "name:az": "Daxili Monqolustan Muxtar Rayonu", "name:be": "Унутраная Манголія", "name:bg": "Вътрешна Монголия", "name:bn": "অন্তর্দেশীয় মঙ্গোলিয়া", "name:bo": "ནང་སོག་རང་སྐྱོང་ལྗོངས།", "name:br": "Mongolia an Diabarzh", "name:bs": "Unutrašnja Mongolija", "name:ca": "Mongòlia Interior", "name:cs": "Vnitřní Mongolsko", "name:cy": "Mongolia Fewnol", "name:da": "Indre Mongoliet", "name:el": "Εσωτερική Μογγολία", "name:en": "Inner Mongolia", "name:eo": "Interna Mongolio", "name:es": "Mongolia Interior", "name:et": "Sise-Mongoolia", "name:eu": "Barne Mongolia", "name:fa": "مغولستان داخلی", "name:fi": "Sisä-Mongolia", "name:fo": "Innara-Mongolia", "name:fr": "Mongolie-Intérieure", "name:ga": "An Ion-Mhongóil", "name:gl": "Mongolia Interior", "name:gv": "Yn Vongoil Sthie", "name:he": "מונגוליה הפנימית", "name:hi": "भीतरी मंगोलिया", "name:hr": "Unutarnja Mongolija", "name:hu": "Belső-Mongólia Autonóm Terület", "name:ia": "Neimenggu", "name:id": "Mongolia Dalam", "name:it": "Mongolia Interna", "name:ja": "内モンゴル自治区", "name:ka": "შიდა მონღოლეთი", "name:kg": "Nei Mongol", "name:kk": "Ішкі Моңғолия", "name:ko": "내몽골 자치구", "name:la": "Mongolia Citerior", "name:lt": "Vidinė Mongolija", "name:lv": "Iekšējā Mongolija", "name:mk": "Внатрешна Монголија", "name:ml": "ഇന്നർ മംഗോളിയ", "name:mn": "ᠦᠪᠦᠷ ᠮᠣᠩᠭᠤᠯ ᠤᠨ ᠥᠪᠡᠷᠲᠡᠭᠡᠨ ᠵᠠᠰᠠᠬᠣ ᠣᠷᠣᠨ (Өвөр Монголын Өөртөө Засах Орон)", "name:mr": "आंतरिक मंगोलिया", "name:ms": "Mongolia Dalam", "name:nl": "Binnen-Mongolië", "name:nn": "Indre Mongolia", "name:no": "Indre Mongolia", "name:oc": "Mongolia Interiora", "name:os": "Мидæггаг Мангол", "name:pa": "ਅੰਦਰੂਨੀ ਮੰਗੋਲੀਆ", "name:pl": "Mongolia Wewnętrzna", "name:pt": "Mongólia Interior", "name:qu": "Mungul suyu ukhupi", "name:ro": "Mongolia Interioară", "name:ru": "Внутренняя Монголия", "name:sk": "Vnútorné Mongolsko", "name:sr": "Унутрашња Монголија", "name:su": "Mongolia Jero", "name:sv": "Inre Mongoliet", "name:sw": "Mongolia ya Kichina", "name:ta": "உள் மங்கோலியா", "name:tg": "Муғулистони дохилӣ", "name:th": "เขตปกครองตนเองมองโกเลียใน", "name:tl": "Nei Mongol", "name:tr": "İç Moğolistan", "name:tt": "Эчке Монголия", "name:ug": "ئىچكى موڭغۇل ئاپتونوم رايونى", "name:uk": "Внутрішня Монголія", "name:ur": "اندرونی منگولیا", "name:uz": "Ichki Mongoliya", "name:vi": "Nội Mông", "name:za": "Neimungzguj Swcigih", "name:zh": "内蒙古自治区", "alt_name": "内蒙古", "name:nan": "Lāi-bông-kó͘ Chū-tī-khu", "name:yue": "內蒙古自治區", "alt_name:en": "Nei Mongol", "alt_name:vi": "Nội Mông Cổ", "name:zh-Hans": "内蒙古自治区", "name:zh-Hant": "內蒙古自治區", "division_code": "150000", "is_in:country": "China", "name:zh_pinyin": "Nèi Měnggǔ", "is_in:continent": "Asia", "official_name:cs": "Autonomní oblast Vnitřní Mongolsko", "official_name:en": "Nei Mongol Autonomous Region", "is_in:country_code": "CN"}}, "center_lat": 44.09, "center_lon": 113.92, "area_m2": 1145913889047, "timezone": "Asia/Shanghai", "population": 24706321, "wikidata_id": "Q41079", "wikipedia_id": "zh:内蒙古自治区"}}