{"type": "Feature", "geometry": {"type": "Polygon", "coordinates": [[[120.401, 27.218], [120.342, 27.399], [119.785, 27.305], [119.704, 27.518], [119.497, 27.653], [119.265, 27.425], [119.007, 27.499], [118.712, 28.068], [118.73, 28.266], [118.429, 28.292], [118.363, 28.814], [118.031, 29.102], [118.188, 29.397], [118.49, 29.521], [118.889, 29.945], [118.843, 30.166], [118.946, 30.359], [119.223, 30.291], [119.232, 30.549], [119.551, 30.828], [119.618, 31.131], [119.911, 31.171], [120.145, 30.94], [120.577, 30.848], [120.897, 31.02], [121.267, 30.691], [120.947, 30.506], [120.847, 30.213], [121.334, 30.383], [121.709, 29.983], [121.981, 29.815], [121.916, 29.644], [121.97, 29.222], [121.679, 29.02], [121.665, 28.727], [121.558, 28.632], [121.641, 28.289], [121.238, 28.275], [121.007, 28.091], [120.832, 27.77], [120.629, 27.584], [120.432, 27.168], [120.397, 27.216], [120.397, 27.217], [120.398, 27.217], [120.4, 27.217], [120.401, 27.218]]]}, "properties": {"name": "Zhejiang", "iso2": "CN-ZJ", "admin_level": 4, "osm_id": 553302, "countrylevel_id": "iso2:CN-ZJ", "osm_data": {"localname": "浙江省", "official_name": "", "alltags": {"name:af": "Zhejiang", "name:ar": "تشيجيانغ", "name:az": "Çjetszyan", "name:be": "Чжэцзян", "name:bg": "Джъдзян", "name:bn": "চচিয়াং", "name:bo": "ཀྲེ་ཅང་ཞིང་ཆེན།", "name:br": "Zhejiang", "name:ca": "Zhejiang", "name:ce": "Чжэцзян", "name:cs": "Če-ťiang", "name:cy": "Zhejiang", "name:da": "Zhejiang", "name:el": "Τσετσιάνγκ", "name:en": "Zhejiang", "name:eo": "Ĝeĝjango", "name:es": "Zhejiang", "name:et": "Zhejiang", "name:eu": "Zhejiang", "name:fa": "چجیانگ", "name:fi": "Zhejiang", "name:fr": "Zhejiang", "name:ga": "Zhejiang", "name:gv": "Zhejiang", "name:he": "ג'ג'יאנג", "name:hi": "झेजियांग", "name:hr": "Zhejiang", "name:hu": "Csöcsiang", "name:ia": "Zhejiang", "name:id": "Zhejiang", "name:it": "Zhejiang", "name:ja": "浙江省", "name:ka": "ჯეძიანი", "name:kg": "Zhejiang", "name:ko": "저장성", "name:la": "Zhejiang", "name:lt": "Džedziangas", "name:lv": "Džedzjana", "name:mg": "Zhejiang", "name:mn": "Жөжян", "name:mr": "च-च्यांग", "name:ms": "Zhejiang", "name:nl": "Zhejiang", "name:nn": "Zhejiang", "name:no": "Zhejiang", "name:oc": "Zhejiang", "name:pl": "Zhejiang", "name:pt": "Zhejiang", "name:qu": "Zhejiang pruwinsya", "name:ro": "Zhejiang", "name:ru": "Чжэцзян", "name:sh": "Zhejiang", "name:sk": "Če-ťiang", "name:sr": "Џеђанг", "name:sv": "Zhejiang", "name:sw": "Zhejiang", "name:ta": "செஜியாங் மாகாணம்", "name:tg": "Чжеҷиан", "name:th": "มณฑลเจ้อเจียง", "name:tl": "Zhejiang", "name:tr": "Zhejiang", "name:ug": "جېجياڭ ئۆلكىسى", "name:uk": "Чжецзян", "name:ur": "ژجیانگ", "name:uz": "Chjetszyan", "name:vi": "Chiết Giang", "name:za": "Cezgyangh", "name:zh": "浙江省", "alt_name": "浙江", "int_name": "Zhejiang", "name:ace": "Zhejiang", "name:ast": "Zhejiang", "name:cdo": "Ciék-gŏng", "name:ceb": "Zhejiang Sheng", "name:frr": "Zhejiang", "name:gan": "浙江", "name:hak": "Chet-kông-sén", "name:nan": "Chiat-kang-séng", "name:nov": "Zhejiang", "name:pam": "Zhejiang", "name:pnb": "زیزیانگ", "name:sah": "Чжэцзян", "name:sco": "Zhejiang", "name:vec": "Zhejiang", "name:war": "Zhejiang", "name:wuu": "浙江省", "name:yue": "浙江", "name:zh-Hans": "浙江省", "name:zh-Hant": "浙江省", "is_in:country": "China", "name:zh_pinyin": "Zhèjiāng", "is_in:continent": "Asia", "is_in:country_code": "CN"}}, "center_lat": 29.18, "center_lon": 120.1, "area_m2": 104405941346, "timezone": "Asia/Shanghai", "population": 56570000, "wikidata_id": "Q16967", "wikipedia_id": "zh:浙江省"}}