{"type": "Feature", "geometry": {"type": "Polygon", "coordinates": [[[-90.38, 20.82], [-90.387, 20.556], [-90.004, 20.487], [-89.599, 19.998], [-89.587, 19.874], [-89.297, 19.551], [-89.147, 19.424], [-89.152, 17.94], [-89.152, 17.816], [-90.988, 17.815], [-91.565, 18.159], [-91.638, 17.873], [-92.13, 18.103], [-92.176, 18.458], [-92.413, 18.486], [-92.469, 18.65], [-91.986, 18.699], [-91.932, 18.552], [-91.564, 18.441], [-91.295, 18.567], [-91.342, 18.887], [-90.933, 19.159], [-90.723, 19.358], [-90.707, 19.675], [-90.49, 19.876], [-90.49, 20.488], [-90.38, 20.82]]]}, "properties": {"name": "Campeche", "iso2": "MX-CAM", "admin_level": 4, "osm_id": 2568834, "countrylevel_id": "iso2:MX-CAM", "osm_data": {"localname": "Campeche", "official_name": "", "alltags": {"gns:dsg": "ADM1", "gns:uni": "-2327989", "name:en": "Campeche", "name:es": "Campeche", "name:ja": "カンペチェ州", "name:pl": "Campeche", "name:ru": "Кампече", "name:uk": "Кампече", "is_in:country": "México", "is_in:country_code": "MX"}}, "center_lat": 18.85, "center_lon": -90.31, "area_m2": 55509656925, "timezone": "America/Merida", "population": 899931, "wikidata_id": "Q80908", "wikipedia_id": "es:Campeche"}}