{"type": "Feature", "geometry": {"type": "Polygon", "coordinates": [[[14.564, 52.625], [15.554, 53.012], [15.962, 53.041], [15.833, 52.111], [16.416, 51.785], [15.872, 51.721], [15.816, 51.602], [14.974, 51.364], [14.73, 51.582], [14.716, 52.233], [14.534, 52.396], [14.564, 52.625]]]}, "properties": {"name": "Lubusz Voivodeship", "iso2": "PL-08", "admin_level": 4, "osm_id": 130969, "countrylevel_id": "iso2:PL-08", "osm_data": {"localname": "województwo lubuskie", "official_name": "", "alltags": {"name:be": "Любушскае ваяводства", "name:cs": "Lubušské vojvodství", "name:en": "Lubusz Voivodeship", "name:eo": "Lubuŝa Provinco", "name:es": "Voivodato de Lubus", "name:fr": "Lubusz", "name:hr": "Lubusko vojvodstvo", "name:hu": "Lubusi vajdaság", "name:ja": "ルブシュ県", "name:lt": "Liubušo vaivadija", "name:nl": "Woiwodschap Lubusz", "name:pl": "województwo lubuskie", "name:ru": "Любуское воеводство", "name:sk": "Lubuské vojvodstvo", "name:sl": "Lubuško vojvodstvo", "name:uk": "Любуське воєводство", "loc_name": "Lubuskie", "name:szl": "wojewůdztwo lubuske", "short_name": "lubuskie", "teryt:terc": "08", "alt_name:en": "Lubusz Province", "alt_name:es": "Voivodato de Lubusz", "long_name:fr": "Voïvodie de Lubusz", "name:be-tarask": "Любускае ваяводзтва", "license_plate_code": "F"}}, "center_lat": 52.2, "center_lon": 15.34, "area_m2": 13963404939, "timezone": "Europe/Warsaw", "population": 1020767, "wikidata_id": "Q54157", "wikipedia_id": "pl:Województwo lubuskie"}}