{"type": "Feature", "geometry": {"type": "Polygon", "coordinates": [[[14.974, 51.364], [15.816, 51.602], [15.872, 51.721], [16.416, 51.785], [16.82, 51.577], [17.499, 51.616], [17.795, 51.194], [17.576, 51.129], [17.343, 50.785], [16.908, 50.449], [17.015, 50.219], [16.863, 50.198], [16.58, 50.142], [16.282, 50.367], [16.445, 50.58], [16.056, 50.61], [15.535, 50.779], [15.394, 50.777], [15.315, 50.86], [15.016, 51.022], [14.823, 50.871], [15.038, 51.244], [14.974, 51.364]]]}, "properties": {"name": "Lower Silesian Voivodeship", "iso2": "PL-02", "admin_level": 4, "osm_id": 224457, "countrylevel_id": "iso2:PL-02", "osm_data": {"localname": "województwo dolnośląskie", "official_name": "", "alltags": {"name:ar": "محافظة سيلزيا السفلى", "name:be": "Ніжнесілезскае ваяводства", "name:cs": "Dolnoslezské vojvodství", "name:en": "Lower Silesian Voivodeship", "name:eo": "Malsuprasilezia Provinco", "name:es": "Voivodato de Baja Silesia", "name:fr": "Basse-Silésie", "name:hr": "Donjošlesko vojvodstvo", "name:hu": "Alsó-Sziléziai vajdaság", "name:ja": "ドルヌィ・シロンスク県", "name:ka": "ქვემო სილეზიის სავოევოდო", "name:lt": "Žemutinės Silezijos vaivadija", "name:nl": "Woiwodschap Neder-Silezië", "name:pl": "województwo dolnośląskie", "name:pt": "Voivodia da Baixa Silésia", "name:ru": "Нижнесилезское воеводство", "name:sk": "Dolnosliezske vojvodstvo", "name:sl": "Spodnješlezijsko vojvodstvo", "name:uk": "Нижньосілезьке воєводство", "name:zh": "下西里西亚省", "int_name": "wojewodztwo dolnoslaskie", "loc_name": "Dolnośląskie", "name:hsb": "Delnjošleske wojewódstwo", "name:szl": "dolnoślůnske wojewůdztwo", "population": "2901225", "short_name": "dolnośląskie", "teryt:terc": "02", "alt_name:en": "Lower Silesian Province", "long_name:fr": "Voïvodie de Basse-Silésie", "name:be-tarask": "Ніжнесылескае ваяводзтва", "population:date": "2018-12-31", "license_plate_code": "D"}}, "center_lat": 51.09, "center_lon": 16.41, "area_m2": 19920120391, "timezone": "Europe/Warsaw", "population": 2909997, "wikidata_id": "Q54150", "wikipedia_id": "pl:Województwo dolnośląskie"}}