{"type": "Feature", "geometry": {"type": "Polygon", "coordinates": [[[19.95, 50.505], [20.194, 50.496], [20.385, 50.208], [21.209, 50.355], [21.15, 49.976], [21.399, 49.434], [20.464, 49.416], [19.884, 49.204], [19.467, 49.614], [19.119, 50.009], [19.429, 50.226], [19.488, 50.397], [19.95, 50.505]]]}, "properties": {"name": "Lesser Poland Voivodeship", "iso2": "PL-12", "admin_level": 4, "osm_id": 224459, "countrylevel_id": "iso2:PL-12", "osm_data": {"localname": "województwo małopolskie", "official_name": "", "alltags": {"name:be": "Малапольскае ваяводства", "name:cs": "Malopolské vojvodství", "name:en": "Lesser Poland Voivodeship", "name:eo": "Malgrandpollanda Provinco", "name:es": "Voivodato de Pequeña Polonia", "name:fr": "Petite-Pologne", "name:hr": "Malopoljsko vojvodstvo", "name:ja": "マウォポルスカ県", "name:nl": "Woiwodschap Klein-Polen", "name:pl": "województwo małopolskie", "name:ru": "Малопольское воеводство", "name:sk": "Malopoľské vojvodstvo", "name:sl": "Malopoljsko vojvodstvo", "name:uk": "Малопольське воєводство", "loc_name": "Małopolska", "name:szl": "wojewůwdztwo mauopolske", "short_name": "małopolskie", "teryt:terc": "12", "alt_name:en": "Małopolska Province", "long_name:fr": "Voïvodie de Petite-Pologne", "name:be-tarask": "Малапольскае ваяводзтва", "license_plate_code": "K"}}, "center_lat": 49.86, "center_lon": 20.27, "area_m2": 15164750610, "timezone": "Europe/Warsaw", "population": 3360581, "wikidata_id": "Q54159", "wikipedia_id": "pl:Województwo małopolskie"}}