{"type": "Feature", "geometry": {"type": "Polygon", "coordinates": [[[38.684, 44.951], [38.69, 45.06], [38.716, 45.06], [38.73, 45.042], [38.755, 45.037], [38.786, 45.005], [38.866, 45.012], [38.854, 45.025], [38.898, 45.054], [38.907, 45.022], [38.941, 45.036], [38.953, 44.998], [38.973, 45.007], [39.014, 45.004], [39.06, 44.974], [39.078, 44.988], [39.119, 44.998], [39.223, 44.99], [39.233, 45.01], [39.289, 45.018], [39.376, 45.057], [39.381, 45.075], [39.424, 45.09], [39.468, 45.13], [39.498, 45.14], [39.513, 45.161], [39.537, 45.161], [39.544, 45.187], [39.595, 45.211], [39.629, 45.217], [39.688, 45.193], [39.688, 45.155], [39.729, 45.151], [39.741, 45.136], [39.801, 45.131], [39.848, 45.108], [39.871, 45.113], [39.907, 45.094], [39.948, 45.095], [39.964, 45.086], [39.994, 45.095], [40.069, 45.097], [40.089, 45.11], [40.141, 45.122], [40.177, 45.113], [40.227, 45.118], [40.251, 45.1], [40.277, 45.106], [40.299, 45.065], [40.342, 45.045], [40.36, 45.052], [40.389, 45.034], [40.45, 44.98], [40.528, 44.933], [40.544, 44.894], [40.579, 44.855], [40.601, 44.808], [40.633, 44.775], [40.626, 44.761], [40.648, 44.72], [40.654, 44.687], [40.673, 44.677], [40.684, 44.648], [40.733, 44.608], [40.724, 44.558], [40.776, 44.465], [40.62, 44.465], [40.62, 44.483], [40.661, 44.483], [40.659, 44.53], [40.667, 44.553], [40.643, 44.584], [40.644, 44.636], [40.619, 44.654], [40.568, 44.654], [40.569, 44.739], [40.519, 44.742], [40.527, 44.763], [40.43, 44.762], [40.43, 44.735], [40.404, 44.718], [40.373, 44.717], [40.366, 44.689], [40.395, 44.672], [40.402, 44.655], [40.378, 44.635], [40.35, 44.649], [40.34, 44.627], [40.354, 44.597], [40.342, 44.58], [40.35, 44.548], [40.387, 44.549], [40.411, 44.532], [40.42, 44.511], [40.383, 44.479], [40.416, 44.425], [40.435, 44.422], [40.463, 44.348], [40.483, 44.315], [40.455, 44.305], [40.424, 44.281], [40.36, 44.247], [40.396, 44.191], [40.406, 44.133], [40.429, 44.114], [40.421, 44.073], [40.432, 44.036], [40.468, 43.986], [40.477, 43.959], [40.413, 43.942], [40.403, 43.895], [40.42, 43.883], [40.403, 43.861], [40.394, 43.828], [40.366, 43.773], [40.304, 43.782], [40.274, 43.76], [40.249, 43.762], [40.217, 43.779], [40.208, 43.819], [40.189, 43.844], [40.184, 43.874], [40.151, 43.858], [40.113, 43.868], [40.093, 43.845], [40.042, 43.881], [40.027, 43.88], [39.953, 43.934], [39.94, 43.958], [39.909, 43.974], [39.913, 43.939], [39.851, 43.924], [39.811, 43.933], [39.778, 43.962], [39.816, 43.982], [39.798, 43.996], [39.797, 44.017], [39.828, 44.065], [39.829, 44.085], [39.805, 44.117], [39.778, 44.129], [39.762, 44.149], [39.769, 44.18], [39.865, 44.184], [39.878, 44.148], [39.897, 44.124], [39.921, 44.117], [39.993, 44.076], [40.018, 44.088], [40.016, 44.106], [40.057, 44.138], [40.09, 44.126], [40.072, 44.17], [40.08, 44.234], [40.094, 44.247], [40.062, 44.268], [39.99, 44.261], [39.973, 44.279], [39.966, 44.306], [39.977, 44.327], [39.96, 44.349], [39.922, 44.337], [39.907, 44.351], [39.846, 44.353], [39.879, 44.397], [39.863, 44.407], [39.879, 44.433], [39.885, 44.555], [39.874, 44.591], [39.929, 44.59], [39.896, 44.662], [39.926, 44.684], [39.91, 44.713], [39.943, 44.736], [39.988, 44.717], [40.029, 44.747], [40.008, 44.76], [39.981, 44.8], [39.958, 44.794], [39.958, 44.842], [39.934, 44.884], [39.963, 44.892], [39.942, 44.93], [39.924, 44.927], [39.904, 45.002], [39.885, 45.023], [39.764, 44.99], [39.774, 44.974], [39.696, 44.952], [39.679, 44.993], [39.62, 44.96], [39.599, 44.983], [39.641, 45.003], [39.652, 45.034], [39.608, 45.042], [39.515, 45.047], [39.471, 45.036], [39.475, 44.988], [39.513, 44.988], [39.518, 44.967], [39.604, 44.911], [39.646, 44.888], [39.642, 44.866], [39.622, 44.861], [39.569, 44.828], [39.556, 44.807], [39.483, 44.82], [39.393, 44.813], [39.305, 44.825], [39.224, 44.825], [39.146, 44.836], [39.091, 44.817], [38.862, 44.899], [38.816, 44.944], [38.684, 44.951]]]}, "properties": {"name": "Republic of Adygea", "iso2": "RU-AD", "admin_level": 4, "osm_id": 253256, "countrylevel_id": "iso2:RU-AD", "osm_data": {"localname": "Адыгея", "official_name": "", "alltags": {"int_ref": "RU-AD", "name:av": "Адигъистан", "name:az": "Adıgey", "name:ba": "Адыгей Республикаһы", "name:be": "Адыгея", "name:ca": "Adiguèsia", "name:ce": "Адыгейчоь", "name:cs": "Adygsko", "name:en": "Republic of Adygea", "name:es": "Adigueya", "name:fr": "Adyguée", "name:hu": "Adigeföld", "name:hy": "Ադիգեա", "name:it": "Adighezia", "name:ja": "アディゲ共和国", "name:ka": "ადიღეს რესპუბლიკა", "name:nl": "Adygea", "name:pl": "Adygeja", "name:ru": "Адыгея", "name:sk": "Adygejská republika", "name:sv": "Adygeiska republiken", "name:tt": "Адыгея Республикасы", "name:uk": "Республіка Адигея", "name:zh": "阿迪格共和国", "name:ady": "Адыгэй", "name:kbd": "Адыгэ Республикэ", "name:krc": "Адыгея", "oktmo:user": "79000000", "alt_name:cs": "Adygská republika", "alt_name:ru": "Адыгея", "border_type": "region", "addr:country": "RU", "short_name:cs": "Adygejsko", "gost_7_67-2003": "РОФ-АДЫ", "name:be-tarask": "Адыгея", "official_name:cs": "Republika Adygsko", "official_name:de": "Republik Adygeja", "official_name:en": "Republic of Adygea", "official_name:fr": "République d'Adyguée", "official_name:ru": "Республика Адыгея"}}, "center_lat": 44.6, "center_lon": 39.99, "area_m2": 7821726652, "timezone": "Europe/Moscow", "population": 453376, "wikidata_id": "Q3734", "wikipedia_id": "ru:Адыгея"}}