{"type": "Feature", "geometry": {"type": "Polygon", "coordinates": [[[33.567, 44.838], [33.587, 44.808], [33.604, 44.81], [33.664, 44.795], [33.683, 44.77], [33.614, 44.75], [33.616, 44.712], [33.673, 44.71], [33.727, 44.717], [33.777, 44.69], [33.717, 44.633], [33.736, 44.601], [33.78, 44.613], [33.787, 44.586], [33.827, 44.571], [33.846, 44.519], [33.889, 44.481], [33.924, 44.423], [33.847, 44.417], [33.794, 44.405], [33.762, 44.389], [33.738, 44.387], [33.706, 44.422], [33.668, 44.418], [33.647, 44.429], [33.631, 44.479], [33.601, 44.494], [33.555, 44.488], [33.479, 44.512], [33.416, 44.55], [33.379, 44.583], [33.452, 44.609], [33.482, 44.608], [33.527, 44.619], [33.548, 44.689], [33.548, 44.73], [33.534, 44.791], [33.55, 44.834], [33.567, 44.838]]]}, "properties": {"name": "Sevastopol", "iso2": "RU-SEV", "admin_level": 4, "osm_id": 3788485, "countrylevel_id": "iso2:RU-SEV", "osm_data": {"localname": "Севастополь", "official_name": "", "alltags": {"name:ca": "Sebastòpol", "name:en": "Sevastopol", "name:eo": "Sebastopolo", "name:pl": "Sewastopol", "name:ru": "Севастополь", "name:sk": "Sevastopoľ", "name:uk": "Севастополь", "name:zh": "塞瓦斯托波尔", "addr:country": "RU", "official_status": "ru:город федерального значения"}}, "center_lat": 44.57, "center_lon": 33.66, "area_m2": 867178827, "timezone": "Europe/Simferopol", "wikidata_id": "Q17436425", "wikipedia_id": "ru:Административно-территориальное деление города федерального значения Севастополя"}}