{"type": "Feature", "geometry": {"type": "Polygon", "coordinates": [[[41.161, 45.952], [41.393, 45.952], [41.393, 45.997], [41.471, 45.998], [41.541, 45.986], [41.659, 45.978], [41.714, 45.982], [41.81, 45.979], [41.903, 45.968], [41.925, 45.974], [42.083, 45.966], [42.083, 45.932], [42.152, 45.943], [42.171, 46.11], [42.33, 46.135], [42.32, 46.042], [42.318, 45.97], [42.557, 46.008], [42.672, 46.09], [42.737, 46.091], [42.863, 46.178], [42.847, 46.198], [42.882, 46.208], [42.914, 46.236], [42.932, 46.236], [42.962, 46.196], [43.002, 46.169], [43.164, 46.129], [43.218, 46.112], [43.257, 46.11], [43.31, 46.09], [43.349, 46.05], [43.405, 46.009], [43.455, 45.993], [43.493, 45.997], [43.548, 45.987], [43.692, 45.979], [43.749, 45.979], [43.803, 45.958], [43.847, 45.957], [43.919, 45.944], [43.935, 45.898], [43.983, 45.89], [44.017, 45.871], [44.036, 45.849], [44.042, 45.82], [44.089, 45.786], [44.106, 45.738], [44.122, 45.731], [44.131, 45.692], [44.181, 45.635], [44.235, 45.599], [44.27, 45.586], [44.319, 45.551], [44.366, 45.545], [44.452, 45.507], [44.498, 45.502], [44.515, 45.51], [44.553, 45.499], [44.577, 45.505], [44.598, 45.478], [44.633, 45.464], [44.743, 45.435], [44.793, 45.429], [44.83, 45.438], [44.879, 45.405], [44.895, 45.387], [45.056, 45.334], [45.194, 45.284], [45.464, 45.175], [45.59, 45.126], [45.586, 45.121], [45.716, 44.996], [45.705, 44.977], [45.613, 44.874], [45.656, 44.804], [45.522, 44.679], [45.412, 44.594], [45.384, 44.607], [45.314, 44.592], [45.261, 44.589], [45.237, 44.556], [45.267, 44.514], [45.227, 44.507], [45.225, 44.465], [45.352, 44.462], [45.386, 44.451], [45.395, 44.434], [45.428, 44.425], [45.426, 44.394], [45.372, 44.29], [45.218, 44.271], [45.217, 44.264], [45.137, 44.254], [45.115, 44.193], [45.367, 44.181], [45.395, 44.177], [45.503, 44.176], [45.503, 44.13], [45.49, 44.13], [45.489, 44.01], [45.44, 44.009], [45.438, 43.876], [45.202, 43.877], [45.203, 43.957], [45.053, 43.958], [45.052, 43.888], [45.065, 43.888], [45.064, 43.72], [44.99, 43.72], [44.945, 43.672], [44.879, 43.658], [44.832, 43.682], [44.824, 43.707], [44.803, 43.719], [44.803, 43.807], [44.794, 43.817], [44.702, 43.817], [44.666, 43.827], [44.597, 43.829], [44.554, 43.814], [44.505, 43.815], [44.473, 43.801], [44.38, 43.801], [44.351, 43.808], [44.293, 43.81], [44.293, 43.892], [44.344, 43.904], [44.344, 43.946], [44.419, 43.945], [44.419, 44.016], [44.369, 44.005], [44.369, 43.973], [44.318, 43.973], [44.269, 43.964], [44.269, 43.918], [44.225, 43.928], [44.144, 43.928], [44.144, 43.97], [43.987, 43.971], [43.987, 43.986], [43.945, 43.986], [43.944, 44.01], [43.922, 44.02], [43.863, 43.988], [43.858, 43.96], [43.82, 43.96], [43.771, 43.928], [43.771, 43.873], [43.745, 43.819], [43.712, 43.83], [43.653, 43.834], [43.576, 43.85], [43.546, 43.843], [43.474, 43.866], [43.412, 43.858], [43.316, 43.799], [43.225, 43.959], [43.146, 43.959], [43.157, 43.94], [43.141, 43.923], [43.148, 43.896], [43.058, 43.9], [42.973, 43.898], [42.919, 43.865], [42.866, 43.868], [42.854, 43.84], [42.855, 43.802], [42.824, 43.801], [42.732, 43.819], [42.678, 43.81], [42.647, 43.827], [42.655, 43.856], [42.639, 43.893], [42.66, 43.937], [42.627, 43.952], [42.625, 43.974], [42.578, 43.974], [42.585, 44.026], [42.503, 44.026], [42.48, 44.014], [42.481, 43.98], [42.442, 43.972], [42.425, 43.978], [42.376, 43.972], [42.358, 44.038], [42.343, 44.024], [42.303, 44.029], [42.299, 44.054], [42.32, 44.065], [42.323, 44.096], [42.352, 44.114], [42.335, 44.134], [42.378, 44.152], [42.38, 44.168], [42.441, 44.17], [42.449, 44.197], [42.503, 44.224], [42.552, 44.224], [42.553, 44.269], [42.61, 44.269], [42.609, 44.312], [42.581, 44.32], [42.581, 44.342], [42.554, 44.352], [42.553, 44.368], [42.51, 44.368], [42.479, 44.325], [42.408, 44.325], [42.408, 44.308], [42.341, 44.311], [42.301, 44.329], [42.239, 44.338], [42.22, 44.348], [42.122, 44.349], [42.03, 44.353], [42.021, 44.367], [41.92, 44.413], [41.929, 44.473], [41.925, 44.496], [41.865, 44.498], [41.865, 44.487], [41.804, 44.484], [41.788, 44.473], [41.736, 44.474], [41.7, 44.5], [41.651, 44.49], [41.638, 44.525], [41.59, 44.516], [41.552, 44.618], [41.532, 44.603], [41.495, 44.596], [41.476, 44.648], [41.444, 44.663], [41.427, 44.708], [41.521, 44.727], [41.56, 44.738], [41.592, 44.773], [41.584, 44.794], [41.615, 44.8], [41.606, 44.826], [41.639, 44.864], [41.652, 44.905], [41.654, 44.986], [41.456, 44.988], [41.391, 45.076], [41.351, 45.091], [41.353, 45.223], [41.297, 45.224], [41.279, 45.264], [41.258, 45.233], [41.233, 45.224], [41.036, 45.225], [41.022, 45.256], [41.033, 45.28], [41.016, 45.316], [40.993, 45.323], [41.007, 45.35], [40.991, 45.377], [40.98, 45.422], [40.922, 45.447], [40.923, 45.517], [40.846, 45.517], [40.848, 45.694], [40.963, 45.694], [40.979, 45.714], [41.009, 45.712], [41.053, 45.693], [41.053, 45.675], [41.167, 45.674], [41.169, 45.76], [41.272, 45.759], [41.273, 45.795], [41.233, 45.831], [41.263, 45.857], [41.249, 45.88], [41.161, 45.88], [41.161, 45.952]]]}, "properties": {"name": "Stavropol Krai", "iso2": "RU-STA", "admin_level": 4, "osm_id": 108081, "countrylevel_id": "iso2:RU-STA", "osm_data": {"localname": "Ставропольский край", "official_name": "", "alltags": {"int_ref": "RU-STA", "name:av": "Ставропол улка", "name:az": "Stavropol diyarı", "name:be": "Стаўрапольскі край", "name:bg": "Ставрополски край", "name:ca": "Territori de Stàvropol", "name:ce": "Ставрополан мехкайист", "name:cs": "Stavropolský kraj", "name:cv": "Ставрополь Ен", "name:da": "Stavropol kraj", "name:el": "Κράι Σταυρούπολης", "name:en": "Stavropol Krai", "name:es": "Krai de Stávropol", "name:fr": "Kraï de Stavropol", "name:hu": "Sztavropoli határterület", "name:hy": "Ստավրոպոլի երկրամաս", "name:it": "Territorio di Stavropol'", "name:ja": "スタヴロポリ地方", "name:ka": "სტავროპოლის მხარე", "name:kv": "Ставрополь край", "name:lt": "Stavropolio kraštas", "name:mn": "Ставрополийн хязгаар", "name:nl": "Kraj Stavropol", "name:os": "Стъараполы край", "name:pl": "Kraj Stawropolski", "name:pt": "Krai de Stavropol", "name:ro": "Ținutul Stavropol", "name:ru": "Ставропольский край", "name:sk": "Stavropoľský kraj", "name:sl": "Stavropolski kraj", "name:sv": "Stavropol kraj", "name:tr": "Stavropol Krayı", "name:tt": "Ставрополь крае", "name:uk": "Ставропольський край", "name:vi": "Stavropol (vùng)", "name:zh": "斯塔夫罗波尔边疆区", "int_name": "Stavropol Krai", "name:kbd": "Ставропол щIыгу", "name:mhr": "Ставрополь мланде", "name:sah": "Ставрополь кыраайа", "name:udm": "Ставрополь шаер", "name:xal": "Ставрополин зах улс", "population": "2794458", "short_name": "Ставрополье", "border_type": "region", "gost_7.67-2003": "РОФ-СТА", "name:be-tarask": "Стаўрапольскі край", "official_status": "ru:край"}}, "center_lat": 44.95, "center_lon": 43.34, "area_m2": 66181390845, "timezone": "Europe/Moscow", "population": 2795243, "wikidata_id": "Q5207", "wikipedia_id": "ru:Ставропольский край"}}