{"type": "Feature", "geometry": {"type": "Polygon", "coordinates": [[[37.628, 58.483], [37.652, 58.491], [37.694, 58.523], [37.72, 58.562], [37.697, 58.571], [37.712, 58.626], [37.765, 58.623], [37.833, 58.631], [37.866, 58.611], [37.898, 58.615], [37.96, 58.68], [38.014, 58.683], [37.983, 58.707], [38.065, 58.73], [38.413, 58.727], [38.483, 58.7], [38.539, 58.727], [38.557, 58.773], [38.674, 58.746], [38.842, 58.747], [38.848, 58.735], [38.923, 58.733], [38.922, 58.77], [38.941, 58.806], [38.99, 58.827], [39.018, 58.849], [38.944, 58.907], [38.949, 58.943], [38.99, 58.956], [39.024, 58.928], [39.11, 58.938], [39.124, 58.951], [39.175, 58.93], [39.235, 58.915], [39.334, 58.926], [39.372, 58.905], [39.381, 58.886], [39.444, 58.897], [39.456, 58.875], [39.498, 58.882], [39.565, 58.876], [39.599, 58.902], [39.713, 58.838], [39.782, 58.838], [39.854, 58.779], [39.871, 58.752], [39.954, 58.758], [39.983, 58.739], [40.014, 58.736], [40.026, 58.69], [40.054, 58.676], [40.048, 58.656], [40.105, 58.659], [40.136, 58.627], [40.091, 58.623], [40.088, 58.595], [40.13, 58.579], [40.162, 58.579], [40.186, 58.555], [40.264, 58.552], [40.317, 58.534], [40.343, 58.555], [40.442, 58.537], [40.468, 58.55], [40.513, 58.547], [40.535, 58.567], [40.569, 58.568], [40.609, 58.585], [40.694, 58.594], [40.764, 58.587], [40.783, 58.594], [40.857, 58.577], [40.93, 58.576], [40.938, 58.563], [41.019, 58.542], [41.079, 58.469], [41.048, 58.442], [41.136, 58.395], [41.151, 58.37], [41.193, 58.341], [41.161, 58.332], [41.139, 58.306], [41.093, 58.287], [41.037, 58.284], [40.984, 58.243], [40.966, 58.202], [40.883, 58.177], [40.897, 58.111], [40.852, 58.11], [40.839, 58.066], [40.776, 58.064], [40.772, 58.042], [40.809, 58.007], [40.704, 57.992], [40.675, 57.983], [40.673, 57.959], [40.64, 57.941], [40.627, 57.915], [40.598, 57.897], [40.638, 57.864], [40.622, 57.848], [40.651, 57.819], [40.651, 57.799], [40.614, 57.782], [40.657, 57.759], [40.647, 57.728], [40.718, 57.662], [40.701, 57.624], [40.673, 57.594], [40.632, 57.569], [40.599, 57.572], [40.592, 57.598], [40.549, 57.583], [40.525, 57.593], [40.465, 57.566], [40.441, 57.539], [40.483, 57.521], [40.406, 57.493], [40.416, 57.466], [40.445, 57.438], [40.444, 57.417], [40.393, 57.407], [40.395, 57.392], [40.441, 57.38], [40.424, 57.303], [40.43, 57.286], [40.404, 57.266], [40.335, 57.281], [40.263, 57.286], [40.208, 57.229], [40.193, 57.204], [40.16, 57.195], [40.12, 57.202], [40.095, 57.195], [40.032, 57.209], [40.017, 57.193], [39.948, 57.17], [39.846, 57.171], [39.848, 57.148], [39.824, 57.128], [39.855, 57.106], [39.858, 57.085], [39.774, 57.105], [39.738, 57.084], [39.648, 57.077], [39.621, 57.06], [39.606, 57.029], [39.563, 57.035], [39.524, 57.018], [39.555, 56.999], [39.553, 56.96], [39.52, 56.957], [39.502, 56.936], [39.437, 56.902], [39.473, 56.887], [39.444, 56.87], [39.4, 56.865], [39.374, 56.82], [39.402, 56.771], [39.347, 56.757], [39.337, 56.74], [39.367, 56.692], [39.324, 56.682], [39.313, 56.661], [39.335, 56.627], [39.333, 56.596], [39.294, 56.586], [39.298, 56.559], [39.266, 56.54], [39.188, 56.554], [39.183, 56.571], [39.119, 56.578], [39.031, 56.539], [38.93, 56.543], [38.905, 56.563], [38.855, 56.568], [38.842, 56.605], [38.81, 56.596], [38.715, 56.593], [38.691, 56.581], [38.632, 56.583], [38.58, 56.534], [38.55, 56.547], [38.568, 56.563], [38.532, 56.59], [38.562, 56.614], [38.52, 56.622], [38.483, 56.649], [38.456, 56.647], [38.413, 56.679], [38.357, 56.673], [38.318, 56.659], [38.301, 56.698], [38.32, 56.722], [38.304, 56.76], [38.244, 56.793], [38.229, 56.825], [38.158, 56.819], [38.111, 56.827], [38.152, 56.846], [38.108, 56.877], [38.179, 56.893], [38.194, 56.903], [38.181, 56.934], [38.198, 56.947], [38.151, 56.969], [38.154, 56.985], [38.221, 56.985], [38.258, 57.042], [38.243, 57.117], [38.208, 57.12], [38.204, 57.159], [38.162, 57.171], [38.15, 57.225], [38.203, 57.228], [38.248, 57.24], [38.259, 57.256], [38.313, 57.26], [38.327, 57.301], [38.31, 57.347], [38.275, 57.368], [38.17, 57.357], [38.166, 57.342], [38.116, 57.332], [38.076, 57.335], [38.041, 57.352], [38.017, 57.336], [37.947, 57.373], [37.871, 57.399], [37.864, 57.428], [37.805, 57.448], [37.852, 57.471], [37.814, 57.49], [37.834, 57.53], [37.838, 57.574], [37.853, 57.588], [37.737, 57.621], [37.684, 57.657], [37.637, 57.668], [37.649, 57.703], [37.561, 57.739], [37.534, 57.769], [37.484, 57.796], [37.481, 57.811], [37.437, 57.822], [37.38, 57.82], [37.38, 57.837], [37.428, 57.868], [37.381, 57.884], [37.396, 57.897], [37.408, 57.94], [37.359, 57.952], [37.388, 57.979], [37.443, 57.982], [37.479, 57.964], [37.499, 57.988], [37.539, 57.996], [37.504, 58.016], [37.514, 58.041], [37.57, 58.051], [37.605, 58.077], [37.695, 58.071], [37.7, 58.082], [37.583, 58.136], [37.583, 58.162], [37.53, 58.167], [37.508, 58.18], [37.438, 58.188], [37.369, 58.242], [37.371, 58.268], [37.435, 58.276], [37.418, 58.313], [37.369, 58.338], [37.382, 58.362], [37.411, 58.357], [37.477, 58.402], [37.509, 58.381], [37.54, 58.404], [37.583, 58.421], [37.624, 58.42], [37.628, 58.483]]]}, "properties": {"name": "Yaroslavl Oblast", "iso2": "RU-YAR", "admin_level": 4, "osm_id": 81994, "countrylevel_id": "iso2:RU-YAR", "osm_data": {"localname": "Ярославская область", "official_name": "", "alltags": {"int_ref": "RU-YAR", "name:af": "Jaroslawl-oblast", "name:ar": "ياروسلافل أوبلاست", "name:az": "Yaroslavl vilayəti", "name:be": "Яраслаўская вобласць", "name:bg": "Ярославска област", "name:ca": "Província de Iaroslavl", "name:ce": "Ярославан область", "name:cs": "Jaroslavská oblast", "name:cv": "Ярославль облаçĕ", "name:da": "Jaroslavl oblast", "name:el": "Περιφέρεια Γιαροσλάβλ", "name:en": "Yaroslavl Oblast", "name:es": "Óblast de Yaroslavl", "name:eu": "Jaroslavl oblasta", "name:fi": "Jaroslavlin alue", "name:fr": "Oblast de Iaroslavl", "name:he": "מחוז ירוסלבל", "name:hu": "Jaroszlavli terület", "name:hy": "Յարոսլավլի մարզ", "name:id": "Oblast Yaroslavl", "name:it": "Oblast' di Jaroslavl'", "name:ka": "იაროსლავლის ოლქი", "name:kv": "Ярославль обласьт", "name:lt": "Jaroslavlio sritis", "name:lv": "Jaroslavļas apgabals", "name:nl": "Oblast Jaroslavl", "name:no": "Jaroslavl oblast", "name:os": "Ярославлы облæст", "name:pl": "Obwód jarosławski", "name:ru": "Ярославская область", "name:sk": "Jaroslavlianska oblasť", "name:sv": "Jaroslavl oblast", "name:sw": "Yaroslavl Oblast", "name:tr": "Yaroslavl Oblastı", "name:tt": "Ярославль өлкәсе", "name:uk": "Ярославська область", "name:kbd": "Ярослав област", "name:mhr": "Ярославль вел", "name:myv": "Ярославонь ёнкс", "name:sah": "Ярославскай уобалас", "name:xal": "Ярославла төгәлң", "oktmo:user": "78000000", "population": "1271672", "border_type": "region", "addr:country": "RU", "gost_7.67-2003": "РОФ-ЯРО", "name:be-tarask": "Яраслаўская вобласьць"}}, "center_lat": 57.86, "center_lon": 39.14, "area_m2": 36069407709, "timezone": "Europe/Moscow", "population": 1265684, "wikidata_id": "Q2448", "wikipedia_id": "ru:Ярославская область"}}