{"type": "Feature", "geometry": {"type": "Polygon", "coordinates": [[[35.769, 35.612], [35.77, 35.612], [35.776, 35.611], [35.776, 35.612], [35.785, 35.633], [35.768, 35.67], [35.798, 35.685], [35.83, 35.715], [35.845, 35.75], [35.84, 35.78], [35.82, 35.829], [35.837, 35.85], [35.839, 35.85], [35.878, 35.871], [35.894, 35.91], [35.894, 35.911], [35.918, 35.929], [35.931, 35.921], [35.976, 35.939], [36.007, 35.941], [36.018, 35.921], [35.998, 35.884], [36.048, 35.88], [36.068, 35.869], [36.113, 35.862], [36.136, 35.841], [36.149, 35.809], [36.152, 35.791], [36.27, 35.797], [36.284, 35.771], [36.255, 35.756], [36.24, 35.75], [36.237, 35.716], [36.196, 35.679], [36.213, 35.657], [36.224, 35.606], [36.221, 35.537], [36.201, 35.429], [36.224, 35.37], [36.225, 35.345], [36.25, 35.27], [36.253, 35.223], [36.208, 35.243], [36.18, 35.23], [36.136, 35.224], [36.065, 35.224], [36.022, 35.218], [35.958, 35.256], [35.934, 35.257], [35.92, 35.278], [35.921, 35.345], [35.914, 35.419], [35.845, 35.479], [35.838, 35.483], [35.802, 35.504], [35.776, 35.5], [35.775, 35.5], [35.762, 35.508], [35.773, 35.534], [35.758, 35.546], [35.758, 35.545], [35.755, 35.549], [35.754, 35.549], [35.755, 35.549], [35.756, 35.549], [35.756, 35.548], [35.757, 35.551], [35.754, 35.551], [35.749, 35.552], [35.749, 35.553], [35.747, 35.554], [35.746, 35.554], [35.733, 35.563], [35.769, 35.612]]]}, "properties": {"name": "Latakia", "iso2": "SY-LA", "admin_level": 4, "osm_id": 184883, "countrylevel_id": "iso2:SY-LA", "osm_data": {"localname": "اللاذقية", "official_name": "محافظة اللاذقية", "alltags": {"name:ar": "اللاذقية", "name:cs": "guvernorát Latákia", "name:en": "Latakia", "name:es": "Gobernación de Latakia", "name:fa": "لاذقیه", "name:fr": "Gouvernorat de Lattaquié", "name:ja": "ラタキア県", "name:pl": "Latakia", "name:ru": "Латакия", "name:uk": "Провінція Латакія", "name:ur": "لاذقیہ", "name:zh": "拉塔基亚省", "alt_name:cs": "guvernorát Lázikíja", "official_name": "محافظة اللاذقية", "sorting_name:cs": "Latákia", "official_name:ar": "محافظة اللاذقية", "official_name:fa": "استان لاذقیه", "official_name:ur": "محافظہ لاذقیہ"}}, "center_lat": 35.57, "center_lon": 36.02, "area_m2": 2473111492, "timezone": "Asia/Damascus", "population": 1364985, "wikidata_id": "Q233236", "wikipedia_id": "ar:محافظة اللاذقية"}}