{"type": "Feature", "geometry": {"type": "Polygon", "coordinates": [[[35.756, 32.745], [35.783, 32.774], [35.8, 32.782], [35.838, 32.828], [35.851, 32.89], [35.873, 32.923], [35.895, 32.945], [35.871, 32.981], [35.85, 33.102], [35.817, 33.113], [35.818, 33.127], [35.844, 33.168], [35.838, 33.193], [35.817, 33.203], [35.815, 33.245], [35.777, 33.277], [35.813, 33.317], [35.773, 33.336], [35.816, 33.371], [35.827, 33.405], [35.838, 33.411], [35.876, 33.426], [35.901, 33.443], [35.906, 33.412], [35.879, 33.388], [35.87, 33.358], [35.872, 33.313], [35.896, 33.299], [35.885, 33.285], [35.919, 33.256], [35.96, 33.252], [35.962, 33.205], [35.954, 33.154], [35.981, 33.127], [35.952, 33.079], [35.946, 33.028], [35.985, 32.974], [35.969, 32.963], [35.937, 32.962], [35.943, 32.917], [35.921, 32.894], [35.882, 32.876], [35.839, 32.799], [35.808, 32.771], [35.799, 32.754], [35.756, 32.745]]]}, "properties": {"name": "Al-Qunaitra", "iso2": "SY-QU", "admin_level": 4, "osm_id": 184885, "countrylevel_id": "iso2:SY-QU", "osm_data": {"localname": "القنيطرة", "official_name": "", "alltags": {"name:ar": "القنيطرة", "name:cs": "guvernorát Kunejtra", "name:en": "Al-Qunaitra", "name:es": "Gobernación de Quneitra", "name:fr": "Gouvernorat de Qouneitra", "name:ja": "クネイトラ県", "name:pl": "Al-Kunajtira", "name:ru": "Эль-Кунейтра", "name:zh": "库奈特拉省", "long_name:ar": "محافظة القنيطرة", "sorting_name:cs": "Kunejtra", "official_name:ar": "محافظة القنيطرة"}}, "center_lat": 33.14, "center_lon": 35.88, "area_m2": 591732256, "timezone": "Asia/Damascus", "population": 49195, "wikidata_id": "Q219690", "wikipedia_id": "ar:محافظة القنيطرة"}}