{"type": "Feature", "geometry": {"type": "Polygon", "coordinates": [[[22.866, 42.022], [23.495, 42.097], [23.773, 42.181], [23.786, 41.834], [24.075, 41.673], [24.06, 41.522], [23.624, 41.376], [22.927, 41.339], [22.968, 41.52], [23.013, 41.692], [22.902, 41.878], [22.866, 42.022]]]}, "properties": {"name": "Blagoevgrad", "iso2": "BG-01", "admin_level": 4, "osm_id": 1739521, "countrylevel_id": "iso2:BG-01", "osm_data": {"localname": "Благоевград", "official_name": "", "alltags": {"name:bg": "Благоевград", "name:el": "Μπλαγκόεβγκραντ", "name:en": "Blagoevgrad", "name:fr": "Oblast de Blagoevgrad", "name:mk": "Пиринска Македонија", "name:ro": "Regiunea Blagoevgrad", "name:ru": "Благоевградская область", "alt_name:mk": "Благоевградска област", "name:prefix": "Област", "name:prefix:bg": "Област", "name:suffix:en": "Region"}}, "center_lat": 41.72, "center_lon": 23.44, "area_m2": 6454703771, "timezone": "Europe/Sofia", "population": 323522, "wikidata_id": "Q804311", "wikipedia_id": "bg:Благоевград (област)"}}