{"type": "Feature", "geometry": {"type": "Polygon", "coordinates": [[[27.882, 42.838], [27.1, 42.945], [27.284, 43.178], [27.304, 43.515], [27.428, 43.599], [28.063, 43.319], [28.05, 43.3], [28.038, 43.268], [28.038, 43.267], [28.037, 43.265], [28.037, 43.264], [28.021, 43.245], [28.02, 43.244], [28.019, 43.243], [28.017, 43.24], [28.017, 43.239], [28.016, 43.237], [27.942, 43.208], [27.941, 43.208], [27.94, 43.209], [27.932, 43.206], [27.93, 43.206], [27.927, 43.205], [27.882, 42.838]]]}, "properties": {"name": "Varna", "iso2": "BG-03", "admin_level": 4, "osm_id": 1437135, "countrylevel_id": "iso2:BG-03", "osm_data": {"localname": "Варна", "official_name": "", "alltags": {"name:bg": "Варна", "name:en": "Varna", "name:fr": "Oblast de Varna", "name:ro": "Regiunea Varna", "name:ru": "Варненская область", "website": "http://www.vn.government.bg/", "name:prefix": "Област", "name:prefix:bg": "Област", "name:suffix:en": "Region"}}, "center_lat": 43.18, "center_lon": 27.59, "area_m2": 3796482504, "timezone": "Europe/Sofia", "population": 472654, "wikidata_id": "Q183487", "wikipedia_id": "bg:Варна (област)"}}