{"type": "Feature", "geometry": {"type": "Polygon", "coordinates": [[[26.585, 42.922], [27.1, 42.945], [27.882, 42.838], [27.862, 42.7], [27.843, 42.701], [27.836, 42.702], [27.831, 42.703], [27.809, 42.701], [27.808, 42.701], [27.79, 42.704], [27.789, 42.704], [27.712, 42.678], [27.712, 42.676], [27.697, 42.652], [27.696, 42.652], [27.512, 42.553], [27.511, 42.552], [27.55, 42.452], [27.551, 42.452], [27.552, 42.451], [27.65, 42.451], [27.65, 42.45], [27.65, 42.448], [27.65, 42.445], [27.649, 42.445], [27.65, 42.442], [27.65, 42.437], [27.65, 42.418], [27.696, 42.424], [27.733, 42.332], [27.734, 42.332], [27.783, 42.332], [27.789, 42.218], [27.828, 42.194], [27.828, 42.193], [27.829, 42.193], [27.833, 42.194], [27.834, 42.195], [27.835, 42.194], [27.838, 42.193], [27.839, 42.193], [27.84, 42.193], [27.84, 42.194], [27.841, 42.194], [27.84, 42.189], [27.842, 42.189], [27.843, 42.189], [27.843, 42.187], [27.844, 42.187], [27.843, 42.186], [27.845, 42.186], [27.846, 42.186], [27.881, 42.147], [27.883, 42.147], [27.973, 42.067], [27.974, 42.066], [28.007, 42.033], [28.008, 42.033], [28.009, 42.033], [28.03, 41.983], [27.447, 41.967], [27.061, 42.09], [26.966, 42.413], [26.718, 42.684], [26.585, 42.922]]]}, "properties": {"name": "Burgas", "iso2": "BG-02", "admin_level": 4, "osm_id": 1739523, "countrylevel_id": "iso2:BG-02", "osm_data": {"localname": "Бургас", "official_name": "", "alltags": {"name:ar": "مقاطعة بورغاس", "name:be": "Бургаская вобласць", "name:bg": "Бургас", "name:ca": "Província de Burgàs", "name:cs": "Burgaská oblast", "name:da": "Burgas (provins)", "name:el": "Επαρχία Μπουργκάς", "name:en": "Burgas", "name:eo": "Provinco Burgas", "name:es": "Provincia de Burgas", "name:et": "Burgasi piirkond", "name:eu": "Burgas probintzia", "name:fa": "استان بورگاس", "name:fi": "Burgasin alue", "name:fr": "Oblast de Bourgas", "name:he": "בורגס (מחוז)", "name:hr": "Oblast Burgas", "name:hu": "Burgasz megye", "name:hy": "Բուրգասի մարզ", "name:id": "Provinsi Burgas", "name:it": "Distretto di Burgas", "name:ja": "ブルガス州", "name:ka": "ბურგასის ოლქი", "name:ko": "부르가스 주", "name:la": "Pyrgos (provincia)", "name:lt": "Burgaso sritis", "name:mk": "Бургаска област", "name:mn": "Бургас аймаг", "name:nl": "Boergas", "name:no": "Burgas oblast", "name:oc": "Borgas (region)", "name:os": "Бургасы облæст", "name:pl": "Obwód Burgas", "name:pt": "Burgas (província)", "name:ro": "Regiunea Burgas", "name:ru": "Бургасская область", "name:sh": "Burgaska oblast", "name:sk": "Burgas (oblasť)", "name:sl": "Burgas (okraj)", "name:sq": "Provinca Burgas", "name:sr": "Бургаска област", "name:sv": "Burgas (region)", "name:tg": "Вилояти Бургас", "name:tr": "Burgaz (il)", "name:uk": "Бургаська область", "name:ur": "بورگاس صوبہ", "name:uz": "Burgas", "name:vi": "Burgas (tỉnh)", "name:zh": "布爾加斯州", "name:ceb": "Burgas (rehiyon)", "name:nan": "Burgas Chiu", "name:pnb": "صوبہ برگاس", "name:sco": "Burgas", "name:war": "Burgas (lalawigan)", "name:prefix": "Област", "wikipedia:en": "Burgas_Province", "name:be-tarask": "Бургаская вобласьць", "name:prefix:bg": "Област", "name:suffix:en": "Region"}}, "center_lat": 42.49, "center_lon": 27.3, "area_m2": 7753280193, "timezone": "Europe/Sofia", "population": 415817, "wikidata_id": "Q369220", "wikipedia_id": "en:Burgas Province"}}