{"type": "Feature", "geometry": {"type": "Polygon", "coordinates": [[[22.748, 42.89], [23.006, 43.193], [23.413, 43.162], [23.521, 43.022], [23.968, 43.058], [24.39, 42.751], [24.421, 42.553], [24.279, 42.624], [23.893, 42.545], [23.963, 42.265], [23.773, 42.181], [23.495, 42.097], [23.225, 42.377], [23.291, 42.533], [23.546, 42.412], [23.565, 42.825], [23.247, 42.866], [23.056, 42.713], [22.748, 42.89]]]}, "properties": {"name": "Sofia", "iso2": "BG-23", "admin_level": 4, "osm_id": 1739542, "countrylevel_id": "iso2:BG-23", "osm_data": {"localname": "Софийска", "official_name": "", "alltags": {"name:bg": "Софийска", "name:en": "Sofia", "name:fr": "Oblast de Sofia", "name:ro": "Regiunea Sofia", "name:ru": "Софийская область", "name:sr": "Софијска област", "name:suffix": "област", "name:sr-Latn": "Sofijska oblast", "wikipedia:en": "Sofia_Province", "name:suffix:bg": "област", "name:suffix:en": "Region"}}, "center_lat": 42.71, "center_lon": 23.61, "area_m2": 7068159882, "timezone": "Europe/Sofia", "population": 247489, "wikidata_id": "Q202904", "wikipedia_id": "bg:Софийска (област)"}}