{"type": "Feature", "geometry": {"type": "Polygon", "coordinates": [[[36.665, 36.827], [36.712, 36.827], [37.471, 36.635], [37.581, 36.709], [38.025, 36.83], [38.243, 36.924], [38.631, 36.783], [38.631, 36.285], [38.228, 36.284], [38.064, 36.073], [38.182, 35.953], [38.235, 35.436], [38.212, 35.384], [37.216, 35.551], [37.091, 35.624], [36.836, 36.22], [36.665, 36.326], [36.544, 36.502], [36.665, 36.827]]]}, "properties": {"name": "Aleppo", "iso2": "SY-HL", "admin_level": 4, "osm_id": 184879, "countrylevel_id": "iso2:SY-HL", "osm_data": {"localname": "حلب", "official_name": "", "alltags": {"name:ar": "حلب", "name:cs": "guvernorát Aleppo", "name:en": "Aleppo", "name:es": "Gobernación de Alepo", "name:fr": "Gouvernorat d'Alep", "name:ja": "アレッポ県", "name:pl": "Aleppo", "name:ru": "Алеппо", "name:uk": "Халеб мухафаза", "name:zh": "阿勒颇省", "sorting_name:cs": "Aleppo"}}, "center_lat": 36.22, "center_lon": 37.64, "area_m2": 20020481820, "timezone": "Asia/Damascus", "population": 4868000, "wikidata_id": "Q214064", "wikipedia_id": "ar:محافظة حلب"}}