{"type": "Feature", "geometry": {"type": "Polygon", "coordinates": [[[-83.001, 21.464], [-83.086, 21.779], [-82.943, 21.937], [-82.69, 21.882], [-82.561, 21.559], [-83.001, 21.464]]]}, "properties": {"name": "Isle of Youth", "iso2": "CU-99", "admin_level": 4, "osm_id": 1854614, "countrylevel_id": "iso2:CU-99", "osm_data": {"localname": "Isla de la Juventud", "official_name": "Municipio Especial Isla de la Juventud", "alltags": {"name:en": "Isle of Youth", "name:es": "Isla de la Juventud", "name:fr": "Île de la Jeunesse", "name:it": "Isola della Gioventù", "name:la": "Insula Iuventutis", "name:pt": "Ilha da Juventude", "name:ru": "Остров Хувентуд", "old_name": "Isla de Pinos", "old_name:de": "Kieferninsel", "old_name:es": "Isla de Pinos", "old_name:fr": "Île des Pins", "official_name": "Municipio Especial Isla de la Juventud"}}, "center_lat": 21.68, "center_lon": -82.78, "area_m2": 2425410076, "timezone": "America/Havana", "population": 84263, "wikidata_id": "Q115027", "wikipedia_id": "es:Isla de la Juventud"}}