{"type": "Feature", "geometry": {"type": "Polygon", "coordinates": [[[36.017, 36.507], [36.017, 36.508], [36.194, 36.601], [36.188, 36.805], [36.185, 36.808], [36.027, 36.926], [36.022, 36.927], [35.944, 36.89], [36.058, 37.008], [36.443, 36.933], [36.665, 36.827], [36.544, 36.502], [36.665, 36.326], [36.373, 36.179], [36.376, 36.012], [36.149, 35.809], [35.918, 35.929], [35.781, 36.299], [36.017, 36.507]]]}, "properties": {"name": "Hatay", "iso2": "TR-31", "admin_level": 4, "osm_id": 223122, "countrylevel_id": "iso2:TR-31", "osm_data": {"localname": "Hatay", "official_name": "", "alltags": {"name:ar": "خطاي", "name:cs": "Hatay", "name:en": "Hatay", "name:fa": "ختای", "name:ru": "Хатай", "name:tr": "Hatay", "name:ug": "ھاتاي", "name:uk": "Хатай", "name:ur": "ہاتے", "network": "TR-provinces", "name:ckb": "خەتای", "name:lrc": "خوتای", "name:pnb": "ہاتے", "old_name": "لواء إسكندرون", "ref:NUTS": "TR631", "alt_name:ar": "هتاي;هاتاي", "alt_name:ur": "ھتای", "old_name:ar": "لواء إسكندرون", "wikipedia:tr": "Hatay"}}, "center_lat": 36.43, "center_lon": 36.25, "area_m2": 5546826036, "timezone": "Europe/Istanbul", "population": 1609856, "wikidata_id": "Q83274", "wikipedia_id": "ar:هاتاي (محافظة)"}}