{"type": "Feature", "geometry": {"type": "Polygon", "coordinates": [[[50.114, 30.152], [50.2, 30.295], [50.514, 30.166], [50.603, 29.944], [50.837, 29.773], [51.297, 29.687], [51.365, 29.463], [51.593, 29.383], [51.96, 28.821], [52.171, 28.13], [52.363, 28.015], [52.563, 27.625], [52.944, 27.33], [52.738, 27.274], [52.435, 27.646], [52.033, 27.842], [51.701, 27.824], [51.382, 27.993], [51.134, 28.419], [50.927, 29.042], [50.65, 29.15], [50.641, 29.467], [50.154, 29.937], [50.114, 30.152]]]}, "properties": {"name": "Bushehr Province", "iso2": "IR-06", "admin_level": 3, "osm_id": 269575, "countrylevel_id": "iso2:IR-06", "osm_data": {"localname": "استان بوشهر", "official_name": "", "alltags": {"name:ar": "محافظة بوشهر", "name:en": "Bushehr Province", "name:es": "Bushehr", "name:fr": "Bouchehr", "name:ja": "ブーシェフル", "name:ku": "Bûşehr", "name:pl": "Buszehr", "name:ru": "Бушир", "name:tr": "Buşehr Eyaleti", "name:uk": "Бушер", "is_in:country": "Iran", "short_name:ar": "بوشهر", "is_in:continent": "Asia", "is_in:country_code": "IR"}}, "center_lat": 28.83, "center_lon": 51.39, "area_m2": 22757351660, "timezone": "Asia/Tehran", "population": 1163400, "wikidata_id": "Q132945", "wikipedia_id": "en:Bushehr Province"}}