{"type": "Feature", "geometry": {"type": "Polygon", "coordinates": [[[49.516, 32.725], [49.732, 32.808], [49.982, 32.635], [50.33, 32.537], [50.652, 32.711], [50.872, 32.708], [50.971, 32.391], [51.346, 32.14], [51.434, 31.97], [51.293, 31.82], [51.26, 31.459], [51.33, 31.196], [51.031, 31.182], [50.892, 31.309], [50.293, 31.482], [50.458, 31.614], [50.24, 31.94], [50, 32.113], [49.902, 32.325], [49.516, 32.725]]]}, "properties": {"name": "Chaharmahal and Bakhtiyari Province", "iso2": "IR-08", "admin_level": 3, "osm_id": 230033, "countrylevel_id": "iso2:IR-08", "osm_data": {"localname": "استان چهارمحال و بختیاری", "official_name": "", "alltags": {"name:ar": "محافظة تشهارمحال وبختياري", "name:en": "Chaharmahal and Bakhtiyari Province", "name:es": "Chahar y Bajtiari", "name:fr": "Chahar Mahaal et Bakhtiari", "name:ja": "チャハール=マハール・バフティヤーリー", "name:ku": "Çarmihal û Bextiyarî", "name:pl": "Czahar Mahal wa Bachtijari", "name:ru": "Чехармехаль и Бахтиария", "name:tr": "Çaharmahal ve Bahtiyari Eyaleti", "name:uk": "Чехармехаль і Бахтиарія", "is_in:country": "Iran", "short_name:ar": "تشهارمحال وبختياري", "is_in:continent": "Asia", "is_in:country_code": "IR"}}, "center_lat": 32.04, "center_lon": 50.65, "area_m2": 16343249400, "timezone": "Asia/Tehran", "population": 947763, "wikidata_id": "Q171702", "wikipedia_id": "en:Chaharmahal and Bakhtiari Province"}}