{"type": "Feature", "geometry": {"type": "Polygon", "coordinates": [[[51.459, 36.14], [51.882, 35.857], [52.22, 35.766], [52.541, 35.941], [53.017, 35.854], [52.801, 35.549], [52.369, 35.341], [52.038, 35.492], [51.872, 35.281], [52.035, 35.091], [51.965, 34.865], [51.495, 35.104], [50.849, 35.173], [50.896, 35.485], [50.353, 35.571], [50.397, 35.638], [51.074, 35.723], [51.459, 36.14]]]}, "properties": {"name": "Tehran Province", "iso2": "IR-07", "admin_level": 3, "osm_id": 537701, "countrylevel_id": "iso2:IR-07", "osm_data": {"localname": "استان تهران", "official_name": "", "alltags": {"name:af": "Teheran", "name:am": "ቴህራን", "name:an": "Teherán", "name:ar": "طهران", "name:az": "Tehran", "name:ba": "Тегеран", "name:be": "Тэгеран", "name:bg": "Техеран", "name:bn": "তেহরান", "name:bo": "ཏེ་ཧི་རན།", "name:br": "Tehran", "name:bs": "Teheran", "name:ca": "Teheran", "name:cs": "Teherán", "name:cv": "Тегеран", "name:cy": "Tehran", "name:da": "Teheran", "name:el": "Τεχεράνη", "name:en": "Tehran Province", "name:eo": "Tehrano", "name:es": "Teherán", "name:et": "Teheran", "name:eu": "Teheran", "name:fi": "Teheran", "name:fo": "Teheran", "name:fr": "Téhéran", "name:fy": "Teheran", "name:ga": "Teheran", "name:gd": "Tehran", "name:gl": "Teherán - تهران", "name:he": "טהראן", "name:hi": "तेहरान", "name:hr": "Teheran", "name:ht": "Teheran", "name:hu": "Teherán", "name:hy": "Թեհրան", "name:id": "Teheran", "name:ie": "Teheran", "name:io": "Tehran", "name:is": "Teheran", "name:it": "Teheran", "name:ja": "テヘラン", "name:ka": "თეირანი", "name:kk": "Тегеран", "name:kl": "Tehran", "name:kn": "ತೆಹ್ರಾನ್", "name:ko": "테헤란", "name:ku": "Tehran", "name:kw": "Tehran", "name:la": "Teheranum", "name:lb": "Teheran", "name:lt": "Teheranas", "name:lv": "Teherāna", "name:mi": "Tehran", "name:mk": "Техеран", "name:ml": "ടെഹ്റാന്", "name:mn": "Тегеран", "name:mr": "तेहरान", "name:ms": "Teheran", "name:my": "တီဟီရန်မြို့", "name:nl": "Teheran", "name:nn": "Teheran", "name:no": "Teheran", "name:oc": "Teheran", "name:or": "ତେହେରାନ", "name:os": "Тæхран", "name:pa": "ਤਹਿਰਾਨ", "name:pl": "Teheran", "name:pt": "Teerã", "name:rm": "Teheran", "name:ro": "Teheran", "name:ru": "Тегеран", "name:sc": "Teheran", "name:se": "Teheran", "name:sk": "Teherán", "name:sl": "Teheran", "name:so": "Tahraan", "name:sq": "Teherani", "name:sr": "Техеран", "name:sv": "Teheran", "name:sw": "Tehran", "name:ta": "தெஹ்ரான்", "name:te": "టెహరాన్", "name:tg": "Теҳрон", "name:th": "เตหะราน", "name:tk": "Tähran", "name:tl": "Tehrān", "name:tr": "Tahran Eyaleti", "name:tt": "Тәһран", "name:ug": "تېھران", "name:uk": "Тегеран", "name:ur": "تہران", "name:uz": "Tehron", "name:vi": "Tehran", "name:vo": "Tehran", "name:yi": "טעהראן", "name:yo": "Tehran", "name:zh": "德黑兰", "alt_name:vi": "Têhêrăng", "is_in:country": "Iran", "name:be-tarask": "Тэгеран", "is_in:continent": "Asia", "official_name:ar": "محافظة طهران", "is_in:country_code": "IR"}}, "center_lat": 35.55, "center_lon": 51.73, "area_m2": 13637920327, "timezone": "Asia/Tehran", "population": 13267637, "wikidata_id": "Q590866", "wikipedia_id": "en:Tehran Province"}}