{"type": "Feature", "geometry": {"type": "MultiPolygon", "coordinates": [[[[59.214, 25.517], [59.215, 25.5], [59.216, 25.49], [59.218, 25.468], [59.213, 25.515], [59.214, 25.517]]], [[[59.219, 25.458], [59.221, 25.439], [59.218, 25.439], [59.021, 25.414], [58.799, 25.574], [58.125, 25.558], [57.962, 25.693], [57.349, 25.781], [57.19, 26.036], [57.053, 26.46], [57.061, 26.7], [56.844, 27.07], [56.354, 27.189], [55.675, 26.989], [54.795, 26.496], [54.404, 26.596], [54.276, 26.728], [53.833, 26.708], [53.611, 26.77], [53.479, 26.961], [52.984, 27.132], [52.738, 27.274], [52.944, 27.33], [53.796, 27.046], [54.035, 27.235], [53.973, 27.354], [54.352, 27.458], [55.129, 27.431], [55.576, 27.821], [55.387, 27.999], [55.448, 28.56], [55.248, 28.747], [55.537, 28.697], [56.045, 28.881], [56.036, 28.376], [56.136, 28.211], [56.652, 28.143], [56.743, 28.263], [57, 28.235], [57.008, 27.974], [57.417, 27.891], [57.468, 27.784], [57.228, 27.593], [57.319, 27.345], [57.798, 26.943], [58.373, 26.753], [58.844, 26.483], [59.029, 26.167], [59.001, 25.932], [59.21, 25.754], [59.214, 25.517], [59.184, 25.507], [59.126, 25.43], [59.219, 25.458]]]]}, "properties": {"name": "Hormozgan Province", "iso2": "IR-23", "admin_level": 3, "osm_id": 3385992, "countrylevel_id": "iso2:IR-23", "osm_data": {"localname": "استان هرمزگان", "official_name": "", "alltags": {"name:ar": "محافظة هرمزغان", "name:cs": "Hormozgán", "name:en": "Hormozgan Province", "name:es": "Hormozgan", "name:fr": "Hormozgan", "name:ja": "ホルモズガーン", "name:ko": "호르모즈간주", "name:ku": "Hurmizgan", "name:pl": "Hormozgan", "name:ru": "Хормозган", "name:tr": "Hürmüzgan Eyaleti", "name:uk": "Хормозган", "is_in:country": "Iran", "short_name:ar": "هرمزغان", "is_in:continent": "Asia", "is_in:country_code": "IR"}}, "center_lat": 27.02, "center_lon": 56.48, "area_m2": 70679351296, "timezone": "Asia/Tehran", "population": 1776415, "wikidata_id": "Q633659", "wikipedia_id": "en:Hormozgan Province"}}