{"type": "Feature", "geometry": {"type": "Polygon", "coordinates": [[[55.908, 37.332], [56.119, 37.635], [56.289, 38.085], [56.424, 38.255], [56.756, 38.285], [57.067, 38.196], [57.242, 38.272], [57.512, 37.919], [58.203, 37.775], [58.311, 37.662], [58.327, 37.326], [58.159, 37.075], [58.096, 36.614], [57.964, 36.579], [57.589, 36.734], [57.037, 36.871], [56.532, 36.668], [56.22, 36.901], [55.984, 36.9], [56.059, 37.153], [55.908, 37.332]]]}, "properties": {"name": "North Khorasan Province", "iso2": "IR-31", "admin_level": 3, "osm_id": 225444, "countrylevel_id": "iso2:IR-31", "osm_data": {"localname": "استان خراسان شمالی", "official_name": "", "alltags": {"name:ar": "محافظة خراسان الشمالية", "name:en": "North Khorasan Province", "name:es": "Jorasán del Norte", "name:fr": "Khorassan du Nord", "name:ja": "北ホラーサーン", "name:ku": "Xorasana Bakur", "name:pl": "Chorasan Północny", "name:ru": "Северный Хорасан", "name:tr": "Kuzey Horasan Eyaleti", "name:uk": "Північний Хорасан", "is_in:country": "Iran", "short_name:ar": "خراسان الشمالية", "is_in:continent": "Asia", "is_in:country_code": "IR"}}, "center_lat": 37.41, "center_lon": 57.14, "area_m2": 28229469527, "timezone": "Asia/Tehran", "population": 863092, "wikidata_id": "Q180075", "wikipedia_id": "en:North Khorasan Province"}}