{"type": "Feature", "geometry": {"type": "Polygon", "coordinates": [[[23.154, 54.488], [23.26, 54.46], [23.273, 54.478], [23.334, 54.472], [23.319, 54.424], [23.355, 54.405], [23.391, 54.398], [23.399, 54.367], [23.365, 54.359], [23.338, 54.329], [23.343, 54.308], [23.312, 54.297], [23.332, 54.278], [23.322, 54.253], [23.234, 54.261], [23.202, 54.289], [23.154, 54.297], [23.14, 54.316], [23.092, 54.298], [23.042, 54.316], [23.048, 54.349], [22.994, 54.362], [23, 54.384], [22.997, 54.444], [23.035, 54.451], [23.087, 54.451], [23.115, 54.485], [23.154, 54.488]]]}, "properties": {"name": "Kalvarija Municipality", "iso2": "LT-14", "admin_level": 5, "osm_id": 974208, "countrylevel_id": "iso2:LT-14", "osm_data": {"localname": "Kalvarijos savivaldybė", "official_name": "", "alltags": {"name:el": "Δήμος Καλβαρίγια", "name:en": "Kalvarija Municipality", "name:fi": "Kalvarijan kunta", "name:fr": "Municipalité de Kalvarija", "name:it": "Comune di Kalvarija", "name:lt": "Kalvarijos savivaldybė", "name:lv": "Kalvarijas pašvaldība", "name:nl": "Kalvarija gemeente", "name:pl": "Rejon kalwaryjski", "name:ru": "Калварийское самоуправление", "name:bat-smg": "Kalvarėjės savėvaldībė"}}, "center_lat": 54.38, "center_lon": 23.2, "area_m2": 440973764, "timezone": "Europe/Vilnius", "population": 11486, "wikidata_id": "Q1461987", "wikipedia_id": "lt:Kalvarijos savivaldybė"}}