{"type": "Feature", "geometry": {"type": "Polygon", "coordinates": [[[23.345, 54.687], [23.378, 54.702], [23.483, 54.696], [23.492, 54.674], [23.544, 54.639], [23.576, 54.648], [23.657, 54.645], [23.626, 54.629], [23.637, 54.613], [23.675, 54.616], [23.699, 54.594], [23.658, 54.583], [23.701, 54.542], [23.75, 54.55], [23.759, 54.527], [23.794, 54.503], [23.755, 54.469], [23.718, 54.484], [23.687, 54.474], [23.667, 54.503], [23.643, 54.513], [23.595, 54.484], [23.535, 54.465], [23.51, 54.466], [23.512, 54.416], [23.432, 54.401], [23.444, 54.366], [23.399, 54.367], [23.391, 54.398], [23.355, 54.405], [23.319, 54.424], [23.334, 54.472], [23.273, 54.478], [23.26, 54.46], [23.154, 54.488], [23.191, 54.514], [23.21, 54.541], [23.182, 54.553], [23.188, 54.577], [23.227, 54.582], [23.257, 54.571], [23.292, 54.616], [23.315, 54.667], [23.345, 54.687]]]}, "properties": {"name": "Marijampolė Municipality", "iso2": "LT-25", "admin_level": 5, "osm_id": 974204, "countrylevel_id": "iso2:LT-25", "osm_data": {"localname": "Marijampolės savivaldybė", "official_name": "", "alltags": {"name:ca": "Municipi de Marijampolė", "name:en": "Marijampolė Municipality", "name:fr": "Municipalité de Marijampolė", "name:it": "Comune di Marijampolė", "name:lt": "Marijampolės savivaldybė", "name:lv": "Marijampoles pašvaldība", "name:pl": "Rejon mariampolski", "name:ru": "Мариямпольское самоуправление", "name:zh": "馬里揚泊列區", "name:bat-smg": "Marėjampuolės savėvaldībė"}}, "center_lat": 54.55, "center_lon": 23.45, "area_m2": 752840457, "timezone": "Europe/Vilnius", "population": 58027, "wikidata_id": "Q1931377", "wikipedia_id": "lt:Marijampolės savivaldybė"}}