{"type": "Feature", "geometry": {"type": "MultiPolygon", "coordinates": [[[[20.984, 55.278], [20.954, 55.281], [21.028, 55.375], [21.06, 55.429], [21.076, 55.472], [21.078, 55.475], [21.098, 55.538], [21.105, 55.595], [21.103, 55.667], [21.135, 55.674], [21.134, 55.622], [21.133, 55.621], [21.128, 55.552], [21.126, 55.549], [21.123, 55.542], [21.122, 55.542], [21.11, 55.482], [21.09, 55.438], [21.111, 55.421], [21.088, 55.398], [21.084, 55.397], [21.057, 55.368], [21.058, 55.331], [21.02, 55.317], [21.012, 55.312], [21.011, 55.311], [21.01, 55.31], [21.013, 55.308], [21.01, 55.31], [21.009, 55.309], [21.009, 55.308], [21.005, 55.301], [21.006, 55.3], [20.984, 55.278]]], [[[21.065, 56.069], [21.123, 56.077], [21.162, 56.086], [21.201, 56.077], [21.234, 56.115], [21.228, 56.147], [21.273, 56.172], [21.322, 56.215], [21.453, 56.249], [21.492, 56.289], [21.545, 56.297], [21.568, 56.315], [21.618, 56.325], [21.67, 56.312], [21.722, 56.314], [21.758, 56.337], [21.789, 56.345], [21.836, 56.372], [21.88, 56.364], [21.978, 56.385], [21.971, 56.349], [21.94, 56.351], [21.932, 56.319], [21.981, 56.315], [21.969, 56.27], [21.991, 56.249], [22.013, 56.196], [21.963, 56.2], [21.941, 56.159], [21.935, 56.133], [21.899, 56.12], [21.83, 56.123], [21.828, 56.098], [21.747, 56.108], [21.723, 56.073], [21.7, 56.07], [21.638, 56.003], [21.587, 56.002], [21.572, 55.98], [21.6, 55.974], [21.582, 55.944], [21.594, 55.917], [21.619, 55.896], [21.586, 55.86], [21.558, 55.862], [21.512, 55.809], [21.548, 55.799], [21.588, 55.803], [21.628, 55.785], [21.629, 55.76], [21.671, 55.759], [21.713, 55.749], [21.742, 55.759], [21.763, 55.75], [21.751, 55.712], [21.797, 55.685], [21.782, 55.662], [21.815, 55.623], [21.88, 55.597], [21.882, 55.582], [21.835, 55.57], [21.817, 55.556], [21.827, 55.518], [21.85, 55.499], [21.872, 55.423], [21.92, 55.436], [21.971, 55.423], [22, 55.424], [22.025, 55.394], [21.999, 55.354], [21.966, 55.34], [21.896, 55.288], [21.872, 55.294], [21.85, 55.27], [21.883, 55.238], [21.866, 55.203], [21.825, 55.212], [21.792, 55.23], [21.748, 55.229], [21.721, 55.211], [21.668, 55.199], [21.65, 55.181], [21.572, 55.198], [21.507, 55.185], [21.449, 55.221], [21.433, 55.25], [21.384, 55.294], [21.331, 55.275], [21.271, 55.245], [21.27, 55.246], [21.264, 55.246], [21.264, 55.277], [21.291, 55.299], [21.271, 55.328], [21.234, 55.343], [21.189, 55.343], [21.245, 55.41], [21.251, 55.466], [21.233, 55.516], [21.214, 55.526], [21.201, 55.568], [21.181, 55.587], [21.157, 55.634], [21.138, 55.69], [21.086, 55.735], [21.075, 55.774], [21.058, 55.855], [21.058, 55.858], [21.057, 55.862], [21.057, 55.867], [21.057, 55.869], [21.053, 55.884], [21.053, 55.886], [21.053, 55.888], [21.053, 55.89], [21.053, 55.891], [21.052, 55.892], [21.052, 55.893], [21.052, 55.894], [21.052, 55.895], [21.052, 55.896], [21.052, 55.897], [21.051, 55.897], [21.05, 55.902], [21.05, 55.903], [21.05, 55.904], [21.05, 55.907], [21.05, 55.909], [21.05, 55.912], [21.05, 55.915], [21.049, 55.919], [21.05, 55.92], [21.05, 55.921], [21.054, 55.925], [21.055, 55.926], [21.057, 55.932], [21.057, 55.933], [21.062, 55.945], [21.064, 55.948], [21.065, 55.952], [21.066, 55.956], [21.07, 55.972], [21.071, 55.978], [21.07, 56.023], [21.069, 56.026], [21.069, 56.027], [21.069, 56.03], [21.072, 56.042], [21.068, 56.058], [21.065, 56.069]]]]}, "properties": {"name": "Klaipeda County", "iso2": "LT-KL", "admin_level": 4, "osm_id": 1189583, "countrylevel_id": "iso2:LT-KL", "osm_data": {"localname": "Klaipėdos apskritis", "official_name": "", "alltags": {"name:an": "Rechión de Klaipėda", "name:ar": "مقاطعة كلايبيدا", "name:be": "Клайпедскі павет", "name:bg": "Клайпедски окръг", "name:ca": "Comtat de Klaipėda", "name:ce": "Клайпедин кӀошт", "name:cs": "Klaipėdský kraj", "name:da": "Det tidligere Klaipėda amt", "name:el": "Επαρχία Κλάιπεντα", "name:en": "Klaipeda County", "name:eo": "Distrikto Klaipėda", "name:es": "Provincia de Klaipėda", "name:et": "Klaipėda maakond", "name:eu": "Klaipėdako konderria", "name:fi": "Klaipėdan lääni", "name:fr": "Apskritis de Klaipėda", "name:he": "מחוז קלייפדה", "name:hr": "Okrug Klaipėda", "name:hu": "Klaipėda megye", "name:id": "County Klaipėda", "name:it": "Contea di Klaipėda", "name:ja": "クライペダ県", "name:ka": "კლაიპედის მაზრა", "name:ko": "클라이페다 주", "name:kw": "Konteth Klaipėda", "name:lt": "Klaipėdos apskritis", "name:lv": "Klaipēdas apriņķis", "name:mk": "Клајпедски округ", "name:mr": "क्लीपेदा काउंटी", "name:nl": "Klaipėda district", "name:nn": "Klaipėda fylke", "name:no": "Klaipėda fylke", "name:pl": "Okręg kłajpedzki", "name:pt": "Condado de Klaipėda", "name:ro": "Județul Klaipėda", "name:ru": "Клайпедский уезд", "name:sh": "Okrug Klajpeda", "name:sr": "Клајпедски округ", "name:sv": "Klaipėda provins", "name:sw": "Wilaya ya Klaipėda", "name:tg": "Вилояти Клайпеда", "name:tt": "Клайпеда өязе", "name:uk": "Клайпедський повіт", "name:vi": "Hạt Klaipėda", "name:zh": "克萊佩達縣", "name:mhr": "Клайпеде уезд", "name:pms": "Contà ëd Klaipėda", "name:pnb": "کلائیپیدا کاؤنٹی", "name:sco": "Klaipėda Coonty", "name:stq": "Distrikt Klaipėda", "population": "329146", "name:bat-smg": "Klaipiedas apskrėtės", "is_in:country": "Lithuania", "name:be-tarask": "Клайпедзкі павет", "is_in:continent": "Europe", "is_in:country_code": "LT"}}, "center_lat": 55.75, "center_lon": 21.51, "area_m2": 4811280794, "timezone": "Europe/Vilnius", "population": 324628, "wikidata_id": "Q475207", "wikipedia_id": "lt:Klaipėdos apskritis"}}