{"type": "Feature", "geometry": {"type": "Polygon", "coordinates": [[[24.119, 57.086], [24.153, 57.056], [24.187, 57.054], [24.213, 57.017], [24.272, 57.01], [24.325, 56.968], [24.253, 56.954], [24.235, 56.936], [24.228, 56.897], [24.275, 56.87], [24.262, 56.858], [24.207, 56.882], [24.169, 56.907], [24.101, 56.892], [24.105, 56.88], [24.071, 56.879], [24.077, 56.909], [24.04, 56.927], [23.956, 56.938], [24.012, 56.972], [23.971, 56.986], [23.947, 56.997], [23.934, 56.996], [23.935, 57.005], [23.934, 57.008], [23.932, 57.009], [23.933, 57.009], [23.953, 57.017], [23.989, 57.033], [24.029, 57.064], [24.119, 57.086]]]}, "properties": {"name": "Riga", "iso2": "LV-RIX", "admin_level": 6, "osm_id": 1554509, "countrylevel_id": "iso2:LV-RIX", "osm_data": {"localname": "Rīga", "official_name": "", "alltags": {"name:be": "Рыга", "name:en": "Riga", "name:et": "Riia", "name:fr": "Riga", "name:lt": "Ryga", "name:lv": "Rīga", "name:pl": "Ryga", "name:ru": "Рига", "name:sk": "Riga"}}, "center_lat": 56.98, "center_lon": 24.12, "area_m2": 303339881, "timezone": "Europe/Riga", "population": 632614, "wikidata_id": "Q1773"}}