{"type": "Feature", "geometry": {"type": "MultiPolygon", "coordinates": [[[[73.211, 20.121], [73.213, 20.089], [73.191, 20.077], [73.173, 20.052], [73.133, 20.085], [73.064, 20.099], [73.038, 20.069], [73.012, 20.103], [72.993, 20.118], [72.971, 20.115], [72.961, 20.136], [72.974, 20.161], [72.962, 20.185], [72.962, 20.21], [72.97, 20.234], [72.941, 20.247], [72.925, 20.279], [72.946, 20.293], [72.975, 20.272], [72.981, 20.289], [73.037, 20.293], [73.042, 20.326], [73.077, 20.324], [73.097, 20.36], [73.112, 20.335], [73.101, 20.306], [73.125, 20.305], [73.152, 20.317], [73.165, 20.299], [73.142, 20.274], [73.115, 20.257], [73.088, 20.226], [73.064, 20.228], [73.049, 20.201], [73.099, 20.156], [73.141, 20.176], [73.132, 20.199], [73.217, 20.186], [73.206, 20.163], [73.189, 20.164], [73.186, 20.129], [73.211, 20.121]]], [[[72.932, 20.322], [72.947, 20.353], [72.986, 20.354], [72.998, 20.326], [72.968, 20.313], [72.932, 20.322]]]]}, "properties": {"name": "Dadra and Nagar Haveli", "iso2": "IN-DN", "admin_level": 4, "osm_id": 1952530, "countrylevel_id": "iso2:IN-DN", "osm_data": {"localname": "Dadra and Nagar Haveli", "official_name": "", "alltags": {"name:en": "Dadra and Nagar Haveli", "name:gu": "દાદરા અને નગરહવેલી", "name:hi": "दादरा और नगर हवेली", "name:ja": "ダードラー及びナガル・ハヴェーリー連邦直轄領", "name:ku": "Dadra û Nagar", "name:pa": "ਦਾਦਰਾ ਅਤੇ ਨਗਰ ਹਵੇਲੀ", "name:ru": "Дадра и Нагар-Хавели", "name:uk": "Дадра і Нагар-Хавелі", "name:zh": "达德拉-纳加尔哈维利中央直辖区", "is_in:country_code": "IN"}}, "center_lat": 20.2, "center_lon": 73.07, "area_m2": 510423348, "timezone": "Asia/Kolkata", "population": 342853, "wikidata_id": "Q46107", "wikipedia_id": "en:Dadra and Nagar Haveli"}}