{"type": "Feature", "geometry": {"type": "Polygon", "coordinates": [[[46.355, 40.742], [46.365, 40.736], [46.401, 40.727], [46.405, 40.723], [46.404, 40.722], [46.417, 40.714], [46.424, 40.707], [46.435, 40.704], [46.462, 40.701], [46.46, 40.69], [46.442, 40.689], [46.44, 40.684], [46.41, 40.681], [46.402, 40.674], [46.389, 40.652], [46.375, 40.644], [46.358, 40.63], [46.342, 40.621], [46.316, 40.622], [46.321, 40.64], [46.304, 40.655], [46.303, 40.662], [46.307, 40.669], [46.32, 40.69], [46.314, 40.71], [46.309, 40.714], [46.323, 40.733], [46.333, 40.728], [46.336, 40.741], [46.35, 40.731], [46.356, 40.732], [46.355, 40.742]]]}, "properties": {"name": "Ganja District", "iso2": "AZ-GA", "admin_level": 4, "osm_id": 3764556, "countrylevel_id": "iso2:AZ-GA", "osm_data": {"localname": "Gəncə İnzibati Ərazisi", "official_name": "", "alltags": {"name:ar": "رقعة المدينة كنجه", "name:en": "Ganja District", "name:es": "Ganja", "name:fr": "Ganja", "name:ja": "ギャンジャ", "name:ru": "Гянджинская Администрация", "name:tr": "Gence", "is_in:country": "Azerbaijan", "is_in:continent": "Asia", "is_in:country_code": "AZ"}}, "center_lat": 40.68, "center_lon": 46.36, "area_m2": 93950663, "timezone": "Asia/Baku", "population": 331400, "wikidata_id": "Q131290", "wikipedia_id": "de:Gəncə"}}