{"type": "Feature", "geometry": {"type": "Polygon", "coordinates": [[[45.381, 39.196], [45.381, 39.201], [45.391, 39.206], [45.385, 39.215], [45.392, 39.222], [45.385, 39.229], [45.385, 39.234], [45.404, 39.241], [45.415, 39.229], [45.422, 39.23], [45.429, 39.235], [45.433, 39.23], [45.425, 39.222], [45.436, 39.219], [45.432, 39.185], [45.419, 39.183], [45.423, 39.178], [45.417, 39.174], [45.409, 39.178], [45.404, 39.182], [45.393, 39.187], [45.39, 39.186], [45.387, 39.187], [45.386, 39.189], [45.386, 39.192], [45.384, 39.195], [45.381, 39.196]]]}, "properties": {"name": "Nakhchivan", "iso2": "AZ-NV", "admin_level": 4, "osm_id": 2379566, "countrylevel_id": "iso2:AZ-NV", "osm_data": {"localname": "Naxçıvan", "official_name": "", "alltags": {"is_in": "Azerbaijan, Nakhchivan", "name:ar": "نخجوان", "name:en": "Nakhchivan", "name:es": "Najicheván", "name:fr": "Nakhitchevan", "name:ja": "ナヒチェヴァン", "name:ku": "Naxciwan", "name:ru": "Нахичевань", "int_name": "Nakhchivan", "is_in:country": "Azerbaijan", "is_in:continent": "Asia", "is_in:country_code": "AZ"}}, "center_lat": 39.21, "center_lon": 45.41, "area_m2": 23525098, "timezone": "Asia/Baku", "population": 74500, "wikidata_id": "Q230104", "wikipedia_id": "ru:Нахичевань"}}