{"type": "Feature", "geometry": {"type": "Polygon", "coordinates": [[[9.675, 12.825], [10.011, 13.182], [10.204, 13.271], [10.67, 13.361], [11.459, 13.381], [11.883, 13.256], [12.038, 13.141], [12.43, 13.074], [12.379, 12.87], [12.497, 12.765], [12.287, 12.425], [12.221, 11.756], [12.374, 11.55], [12.102, 11.237], [12.126, 11.038], [11.799, 10.938], [11.745, 10.689], [11.583, 10.594], [11.513, 10.969], [11.342, 11.164], [11.007, 11.296], [10.925, 11.644], [10.807, 11.856], [10.724, 12.452], [10.602, 12.521], [10.545, 12.815], [10.314, 12.849], [10.242, 13.026], [9.675, 12.825]]]}, "properties": {"name": "Yobe", "iso2": "NG-YO", "admin_level": 4, "osm_id": 3698564, "countrylevel_id": "iso2:NG-YO", "osm_data": {"localname": "Yobe", "official_name": "", "alltags": {"name:ar": "يوبي", "name:fa": "یوبه", "name:ja": "ヨベ州", "name:ru": "Йобе", "name:uk": "Йобе", "name:ur": "یوبے", "name:azb": "یوبه"}}, "center_lat": 12.3, "center_lon": 11.43, "area_m2": 45986332464, "timezone": "Africa/Lagos", "wikidata_id": "Q682777", "wikipedia_id": "en:Yobe State"}}