{"type": "Feature", "geometry": {"type": "Polygon", "coordinates": [[[8.514, 45.313], [8.843, 45.394], [8.707, 45.558], [8.594, 45.828], [8.715, 46.098], [8.912, 45.83], [9.159, 46.17], [9.249, 46.234], [9.91, 46.38], [10.224, 46.629], [10.453, 46.531], [10.622, 46.448], [10.516, 46.343], [10.454, 45.976], [10.562, 45.784], [10.843, 45.832], [10.628, 45.607], [10.654, 45.416], [11.206, 45.11], [11.426, 44.949], [11.251, 44.95], [10.889, 44.915], [10.852, 44.926], [10.509, 44.92], [10.467, 44.938], [10.083, 45.044], [9.891, 45.131], [9.546, 45.134], [9.377, 45.055], [9.2, 44.686], [8.903, 45.005], [8.548, 45.168], [8.514, 45.313]]]}, "properties": {"name": "Lombardy", "iso2": "IT-25", "admin_level": 4, "osm_id": 44879, "countrylevel_id": "iso2:IT-25", "osm_data": {"localname": "Lombardia", "official_name": "", "alltags": {"name:br": "Lombardia", "name:ca": "Llombardia", "name:cs": "Lombardie", "name:en": "Lombardy", "name:es": "Lombardía", "name:fi": "Lombardia", "name:fr": "Lombardie", "name:it": "Lombardia", "name:ja": "ロンバルディア州", "name:nl": "Lombardije", "name:pl": "Lombardia", "name:ru": "Ломбардия", "name:sc": "Lombardia", "name:sk": "Lombardia", "name:sl": "Lombardija", "name:scn": "Lummardia", "ref:nuts": "ITC4", "ref:ISTAT": "03", "ref:nuts:2": "ITC4", "short_name": "LOM"}}, "center_lat": 45.62, "center_lon": 9.77, "area_m2": 23873847059, "timezone": "Europe/Rome", "population": 10067494, "wikidata_id": "Q1210", "wikipedia_id": "it:Lombardia"}}