{"type": "Feature", "geometry": {"type": "Polygon", "coordinates": [[[10.47, 46.855], [11.021, 46.766], [11.187, 46.969], [11.764, 46.973], [12.136, 47.081], [12.241, 47.069], [12.211, 46.878], [12.478, 46.68], [11.828, 46.509], [11.893, 46.121], [11.684, 45.984], [11.262, 45.917], [11.139, 45.697], [10.843, 45.832], [10.562, 45.784], [10.454, 45.976], [10.516, 46.343], [10.622, 46.448], [10.453, 46.531], [10.47, 46.855]]]}, "properties": {"name": "Trentino-Alto Adige/Südtirol", "iso2": "IT-32", "admin_level": 4, "osm_id": 45757, "countrylevel_id": "iso2:IT-32", "osm_data": {"localname": "Trentino-Alto Adige/Südtirol", "official_name": "", "alltags": {"name:ca": "Trentino - Tirol del Sud", "name:cs": "Tridentsko-Horní Adiže", "name:en": "Trentino-Alto Adige/Südtirol", "name:es": "Trentino-Alto Adigio", "name:fi": "Trentino-Etelä-Tiroli", "name:fr": "Trentin-Haut-Adige", "name:it": "Trentino-Alto Adige", "name:ja": "トレンティーノ＝アルト・アディジェ自治州/南ティロル自治州", "name:nl": "Trento-Zuid-Tirol", "name:pl": "Trydent-Górna Adyga", "name:ru": "Трентино - Альто-Адидже", "name:sc": "Trentinu-Südtirol", "name:sk": "Tridentsko-Horná Adiža/Južné Tirolsko", "name:lld": "Trentin-Südtirol", "name:scn": "Trintinu-Autu Adiggi", "ref:ISTAT": "04", "short_name": "TAA", "official_name:de": "Autonome Region Trentino-Südtirol", "official_name:it": "Regione Autonoma Trentino-Alto Adige/Südtirol", "official_name:lld": "Region Autonoma Trentin-Südtirol"}}, "center_lat": 46.44, "center_lon": 11.28, "area_m2": 13600604553, "timezone": "Europe/Rome", "population": 1072276, "wikidata_id": "Q1237", "wikipedia_id": "it:Trentino-Alto Adige"}}