{"type": "Feature", "geometry": {"type": "MultiPolygon", "coordinates": [[[[11.449, 42.378], [11.735, 42.612], [11.746, 42.786], [11.895, 42.835], [12.445, 42.399], [12.466, 42.395], [12.488, 42.399], [12.896, 42.616], [13.19, 42.734], [13.359, 42.695], [13.395, 42.592], [13.192, 42.588], [13.031, 42.116], [13.296, 41.949], [13.576, 41.755], [13.941, 41.688], [13.978, 41.462], [13.874, 41.338], [13.762, 41.223], [13.621, 41.261], [13.619, 41.26], [13.582, 41.212], [13.539, 41.214], [13.447, 41.252], [13.445, 41.253], [13.26, 41.287], [13.258, 41.285], [13.046, 41.227], [12.773, 41.416], [12.708, 41.444], [12.705, 41.445], [12.63, 41.444], [12.629, 41.444], [12.628, 41.444], [12.337, 41.703], [12.336, 41.704], [12.276, 41.728], [12.276, 41.729], [12.256, 41.736], [12.242, 41.738], [12.244, 41.737], [12.242, 41.738], [12.242, 41.742], [12.244, 41.743], [12.178, 41.872], [12.168, 41.886], [11.874, 42.037], [11.873, 42.034], [11.874, 42.034], [11.873, 42.034], [11.866, 42.033], [11.833, 42.033], [11.782, 42.095], [11.781, 42.096], [11.781, 42.1], [11.778, 42.103], [11.734, 42.159], [11.449, 42.378]], [[12.446, 41.902], [12.455, 41.9], [12.458, 41.906], [12.451, 41.906], [12.446, 41.902]]], [[[12.944, 40.906], [12.945, 40.907], [12.96, 40.907], [12.96, 40.906], [12.944, 40.906]]]]}, "properties": {"name": "Lazio", "iso2": "IT-62", "admin_level": 4, "osm_id": 40784, "countrylevel_id": "iso2:IT-62", "osm_data": {"localname": "Lazio", "official_name": "", "alltags": {"name:br": "Latiom", "name:ca": "Laci", "name:cs": "Lazio", "name:en": "Lazio", "name:es": "Lacio", "name:fr": "Latium", "name:it": "Lazio", "name:ja": "ラツィオ州", "name:nl": "Lazio", "name:pl": "Lacjum", "name:ru": "Лацио", "name:sc": "Làtziu", "name:sl": "Lacij", "name:scn": "Lazziu", "ref:ISTAT": "12", "short_name": "LAZ"}}, "center_lat": 41.98, "center_lon": 12.77, "area_m2": 17222808845, "timezone": "Europe/Rome", "population": 5879082, "wikidata_id": "Q1282", "wikipedia_id": "it:Lazio"}}