{"type": "Feature", "geometry": {"type": "Polygon", "coordinates": [[[15.092, 37.358], [14.921, 37.413], [14.795, 37.131], [14.444, 37.053], [14.352, 37.306], [14.544, 37.543], [14.826, 37.632], [14.742, 37.818], [14.764, 37.94], [15.258, 37.806], [15.199, 37.677], [15.199, 37.676], [15.199, 37.674], [15.199, 37.673], [15.199, 37.658], [15.187, 37.642], [15.186, 37.642], [15.176, 37.578], [15.176, 37.577], [15.164, 37.562], [15.164, 37.561], [15.163, 37.561], [15.161, 37.559], [15.141, 37.543], [15.14, 37.542], [15.138, 37.542], [15.135, 37.541], [15.132, 37.539], [15.122, 37.533], [15.121, 37.532], [15.12, 37.532], [15.121, 37.532], [15.12, 37.532], [15.12, 37.531], [15.117, 37.526], [15.098, 37.505], [15.097, 37.502], [15.099, 37.5], [15.098, 37.501], [15.092, 37.358]]]}, "properties": {"name": "Catania", "iso2": "IT-CT", "admin_level": 6, "osm_id": 39181, "countrylevel_id": "iso2:IT-CT", "osm_data": {"localname": "Catania", "official_name": "Città Metropolitana di Catania", "alltags": {"name:ar": "قطانية", "name:be": "Катанія", "name:ca": "Catània", "name:el": "Κατάνια", "name:es": "Catania", "name:fi": "Catania", "name:fr": "Catane", "name:he": "קטניה", "name:it": "Catania", "name:la": "Catina", "name:pl": "Katania", "name:pt": "Catânia", "name:ru": "Катания", "name:uk": "Катанія", "name:zh": "卡塔尼亞", "ref:ISTAT": "087", "population": "1108475", "short_name": "CT", "alt_name:el": "Κατάνη", "official_name": "Città Metropolitana di Catania"}}, "center_lat": 37.51, "center_lon": 14.83, "area_m2": 3559377673, "timezone": "Europe/Rome", "wikidata_id": "Q20991246", "wikipedia_id": "it:Città metropolitana di Catania"}}