{"type": "Feature", "geometry": {"type": "Polygon", "coordinates": [[[8.911, 38.915], [8.865, 39.278], [9.274, 39.409], [9.442, 39.127], [9.405, 39.145], [9.404, 39.145], [9.384, 39.163], [9.383, 39.164], [9.192, 39.221], [9.191, 39.221], [9.164, 39.184], [9.164, 39.182], [9.162, 39.182], [9.162, 39.183], [9.161, 39.182], [9.159, 39.181], [9.159, 39.182], [9.102, 39.212], [9.101, 39.212], [9.1, 39.213], [8.911, 38.915]]]}, "properties": {"name": "Cagliari", "iso2": "IT-CA", "admin_level": 6, "osm_id": 276369, "countrylevel_id": "iso2:IT-CA", "osm_data": {"localname": "Cagliari", "official_name": "Città Metropolitana di Cagliari", "alltags": {"name:ca": "Província de Càller", "name:el": "Κάλιαρι", "name:es": "Cagliari", "name:fr": "Cagliari", "name:it": "Cagliari", "name:ru": "Кальяри", "name:sc": "Casteddu", "ref:ISTAT": "092", "short_name": "CA", "official_name": "Città Metropolitana di Cagliari", "official_name:it": "Città Metropolitana di Cagliari", "official_name:sc": "Provìncia de Casteddu"}}, "center_lat": 39.21, "center_lon": 9.11, "area_m2": 1248777442, "timezone": "Europe/Rome", "wikidata_id": "Q3622022", "wikipedia_id": "it:Città metropolitana di Cagliari"}}