{"type": "Feature", "geometry": {"type": "MultiPolygon", "coordinates": [[[[15.258, 37.806], [14.764, 37.94], [14.742, 37.818], [14.279, 37.84], [14.183, 38.02], [14.442, 38.039], [14.443, 38.039], [14.743, 38.162], [15.22, 38.197], [15.221, 38.199], [15.249, 38.257], [15.25, 38.256], [15.249, 38.239], [15.249, 38.238], [15.249, 38.237], [15.249, 38.23], [15.244, 38.22], [15.249, 38.217], [15.25, 38.216], [15.249, 38.216], [15.247, 38.218], [15.242, 38.22], [15.241, 38.219], [15.241, 38.218], [15.248, 38.212], [15.249, 38.212], [15.464, 38.261], [15.465, 38.262], [15.558, 38.198], [15.569, 38.194], [15.572, 38.189], [15.55, 38.169], [15.527, 38.136], [15.525, 38.134], [15.523, 38.132], [15.525, 38.132], [15.281, 37.843], [15.258, 37.806]]], [[[14.938, 38.404], [14.939, 38.404], [14.958, 38.432], [14.959, 38.432], [14.972, 38.409], [14.938, 38.404]]], [[[14.98, 38.482], [14.98, 38.481], [14.899, 38.481], [14.98, 38.482]]]]}, "properties": {"name": "Messina", "iso2": "IT-ME", "admin_level": 6, "osm_id": 39374, "countrylevel_id": "iso2:IT-ME", "osm_data": {"localname": "Messina", "official_name": "Città Metropolitana di Messina", "alltags": {"name:an": "Mecina", "name:ar": "مسينة", "name:be": "Месіна", "name:ca": "Messina", "name:el": "Μεσσήνη", "name:es": "Mesina", "name:fr": "Messine", "name:he": "מסינה", "name:it": "Messina", "name:ja": "メッシーナ", "name:la": "Messana", "name:lt": "Mesina", "name:pl": "Mesyna", "name:ru": "Мессина", "name:uk": "Мессіна", "name:zh": "墨西拿", "name:scn": "Missina", "ref:ISTAT": "083", "population": "627393", "short_name": "ME", "old_name:el": "Ζάγκλη", "official_name": "Città Metropolitana di Messina"}}, "center_lat": 38.04, "center_lon": 14.94, "area_m2": 3251428158, "timezone": "Europe/Rome", "wikidata_id": "Q20991250", "wikipedia_id": "it:Città metropolitana di Messina"}}