{"type": "Feature", "geometry": {"type": "Polygon", "coordinates": [[[8.468, 40.061], [8.47, 40.062], [8.462, 40.21], [8.461, 40.211], [8.449, 40.32], [8.379, 40.361], [8.381, 40.361], [8.4, 40.408], [8.62, 40.319], [8.983, 40.218], [8.989, 39.926], [9.166, 39.833], [9.164, 39.833], [8.862, 39.668], [8.502, 39.713], [8.477, 39.905], [8.468, 39.904], [8.468, 40.061]]]}, "properties": {"name": "Aristanis/Oristano", "iso2": "IT-OR", "admin_level": 6, "osm_id": 40021, "countrylevel_id": "iso2:IT-OR", "osm_data": {"localname": "Aristanis/Oristano", "official_name": "", "alltags": {"name:ca": "Província d'Oristany", "name:el": "Οριστάνο", "name:fr": "Oristano", "name:it": "Oristano", "name:ru": "Ористано", "name:sc": "Aristanis", "ref:ISTAT": "095", "short_name": "OR", "official_name:it": "Provincia di Oristano", "official_name:sc": "Provìntzia de Aristanis"}}, "center_lat": 39.99, "center_lon": 8.72, "area_m2": 2995698230, "timezone": "Europe/Rome", "wikidata_id": "Q16225", "wikipedia_id": "it:Provincia di Oristano"}}