{"type": "Feature", "geometry": {"type": "Polygon", "coordinates": [[[14.337, 37.002], [14.444, 37.053], [14.795, 37.131], [15, 36.703], [14.911, 36.724], [14.9, 36.728], [14.806, 36.712], [14.805, 36.711], [14.783, 36.704], [14.782, 36.704], [14.781, 36.704], [14.781, 36.705], [14.782, 36.706], [14.783, 36.706], [14.776, 36.711], [14.756, 36.715], [14.755, 36.716], [14.742, 36.72], [14.739, 36.72], [14.738, 36.72], [14.737, 36.72], [14.543, 36.781], [14.543, 36.782], [14.45, 36.853], [14.45, 36.854], [14.337, 37.002]]]}, "properties": {"name": "Ragusa", "iso2": "IT-RG", "admin_level": 6, "osm_id": 39157, "countrylevel_id": "iso2:IT-RG", "osm_data": {"localname": "Ragusa", "official_name": "Libero Consorzio Comunale di Ragusa", "alltags": {"name:ar": "رغوس", "name:el": "Ραγκούζα", "name:fr": "Raguse", "name:it": "Ragusa", "name:lt": "Ragūza", "name:ru": "Рагуза", "name:uk": "Рагуза", "name:zh": "拉古萨", "name:scn": "Raùsa", "ref:ISTAT": "088", "population": "321119", "short_name": "RG", "alt_name:ar": "رغوص;راغوزا;راجوسا", "official_name": "Libero Consorzio Comunale di Ragusa"}}, "center_lat": 36.91, "center_lon": 14.68, "area_m2": 1617570012, "timezone": "Europe/Rome", "wikidata_id": "Q26160405", "wikipedia_id": "it:Libero consorzio comunale di Ragusa"}}