{"type": "Feature", "geometry": {"type": "Polygon", "coordinates": [[[15, 36.703], [14.795, 37.131], [14.921, 37.413], [15.092, 37.358], [15.148, 37.299], [15.149, 37.299], [15.199, 37.293], [15.249, 37.246], [15.249, 37.234], [15.234, 37.241], [15.235, 37.241], [15.227, 37.241], [15.224, 37.232], [15.224, 37.231], [15.225, 37.216], [15.227, 37.213], [15.2, 37.237], [15.198, 37.235], [15.183, 37.216], [15.182, 37.208], [15.183, 37.208], [15.202, 37.16], [15.202, 37.159], [15.212, 37.15], [15.25, 37.112], [15.253, 37.112], [15.253, 37.113], [15.253, 37.112], [15.3, 37.096], [15.3, 37.079], [15.299, 37.079], [15.296, 37.078], [15.295, 37.072], [15.289, 37.068], [15.291, 37.066], [15.291, 37.067], [15.296, 37.065], [15.299, 37.061], [15.298, 37.06], [15.294, 37.055], [15.293, 37.057], [15.292, 37.058], [15.291, 37.061], [15.29, 37.063], [15.291, 37.064], [15.277, 37.064], [15.276, 37.064], [15.275, 37.063], [15.274, 37.061], [15.273, 37.06], [15.272, 37.058], [15.271, 37.056], [15.271, 37.055], [15.29, 37.033], [15.292, 37.034], [15.292, 37.035], [15.307, 37.041], [15.336, 37.009], [15.25, 36.973], [15.248, 36.973], [15.095, 36.777], [15.138, 36.686], [15.136, 36.673], [15.13, 36.667], [15.123, 36.669], [15.126, 36.67], [15.126, 36.671], [15.128, 36.672], [15.127, 36.672], [15.126, 36.672], [15.082, 36.649], [15.048, 36.684], [15.047, 36.684], [15, 36.703]]]}, "properties": {"name": "Siracusa", "iso2": "IT-SR", "admin_level": 6, "osm_id": 39155, "countrylevel_id": "iso2:IT-SR", "osm_data": {"localname": "Siracusa", "official_name": "Libero Consorzio Comunale di Siracusa", "alltags": {"name:ar": "سرقوسة", "name:cs": "Syrakusy", "name:el": "Συρακούσες", "name:fi": "Syrakusa", "name:fr": "Syracuse", "name:it": "Siracusa", "name:la": "Syracusae", "name:lt": "Sirakūzai", "name:pl": "Syrakuzy", "name:ru": "Сиракуза", "name:sk": "Syrakúzy", "name:sv": "Syrakusa", "name:uk": "Сіракуза", "name:zh": "叙拉古", "name:scn": "Sarausa", "ref:ISTAT": "089", "population": "399489", "short_name": "SR", "alt_name:ar": "سيراقوسة;سيراكوز", "official_name": "Libero Consorzio Comunale di Siracusa"}}, "center_lat": 37.08, "center_lon": 15.03, "area_m2": 2112893036, "timezone": "Europe/Rome", "wikidata_id": "Q25510290", "wikipedia_id": "it:Libero consorzio comunale di Siracusa"}}