{"type": "Feature", "geometry": {"type": "Polygon", "coordinates": [[[-3.252, 31.714], [-2.821, 31.794], [-2.931, 32.035], [-2.015, 32.182], [-1.577, 32.092], [-1.221, 32.08], [-1.249, 32.32], [-1.124, 32.411], [-0.997, 32.146], [-0.732, 32.271], [-0.418, 32.202], [-0.152, 32.331], [-0.399, 32.001], [-0.416, 31.637], [-0.242, 31.149], [0.384, 30.702], [-0.298, 30.741], [-0.575, 30.88], [-1.316, 30.804], [-1.587, 30.819], [-1.963, 30.732], [-2.553, 30.709], [-2.793, 30.527], [-3.58, 30.356], [-3.669, 30.665], [-3.536, 31.014], [-3.759, 31.176], [-3.665, 31.634], [-3.252, 31.714]]]}, "properties": {"name": "Bashar", "iso2": "DZ-08", "admin_level": 4, "osm_id": 1258647, "countrylevel_id": "iso2:DZ-08", "osm_data": {"localname": "بشار", "official_name": "", "alltags": {"name:ar": "بشار", "name:el": "Μπέτσαρ", "name:en": "Bashar", "name:fa": "بشار", "name:fr": "Béchar", "name:ks": "بشار", "name:ru": "Бешар", "name:ur": "بشار", "name:azb": "بشار", "name:ber": "ⴱⵛⴰⵔ", "name:kab": "Beccar", "name:pnb": "بشار", "old_name": "كولومب بشار", "long_name": "ولاية بشار", "old_name:ar": "كولومب بشار", "old_name:fr": "Colomb-Béchar", "long_name:ar": "ولاية بشار", "long_name:en": "Bashar Province", "long_name:fr": "Wilaya de Béchar"}}, "center_lat": 31.37, "center_lon": -1.92, "area_m2": 49763948352, "timezone": "Africa/Algiers", "population": 270061, "wikidata_id": "Q215467", "wikipedia_id": "ar:ولاية بشار"}}