{"type": "Feature", "geometry": {"type": "Polygon", "coordinates": [[[5.338, 35.631], [5.81, 35.923], [5.969, 35.893], [6.161, 35.885], [6.478, 35.842], [6.773, 35.673], [6.573, 35.436], [6.583, 34.771], [6.424, 34.836], [6.406, 35.081], [6.145, 34.983], [5.585, 35.091], [5.287, 35.005], [4.987, 35.085], [4.888, 35.142], [4.913, 35.482], [5.338, 35.631]]]}, "properties": {"name": "Batna", "iso2": "DZ-05", "admin_level": 4, "osm_id": 1278748, "countrylevel_id": "iso2:DZ-05", "osm_data": {"localname": "Batna باتنة", "official_name": "", "alltags": {"name:ar": "باتنة", "name:el": "Μπάτνα", "name:en": "Batna", "name:fr": "Batna", "name:ber": "ⵜⴱⴰⵜⴻⵏⵜ", "name:kab": "Batna", "long_name:ar": "ولاية باتنة", "long_name:en": "Batna Province", "long_name:fr": "Wilaya de Batna", "is_in:country": "Algeria", "is_in:continent": "Africa", "is_in:country_code": "DZ"}}, "center_lat": 35.42, "center_lon": 5.87, "area_m2": 12150898165, "timezone": "Africa/Algiers", "population": 1119791, "wikidata_id": "Q215452", "wikipedia_id": "ar:ولاية باتنة"}}