{"type": "Feature", "geometry": {"type": "Polygon", "coordinates": [[[3.36, 36.782], [3.224, 36.669], [2.811, 36.643], [2.803, 36.699], [2.846, 36.748], [2.844, 36.748], [2.844, 36.749], [2.845, 36.748], [2.839, 36.763], [2.844, 36.765], [2.848, 36.765], [2.85, 36.764], [2.848, 36.765], [2.848, 36.764], [2.848, 36.765], [2.847, 36.765], [2.846, 36.764], [2.847, 36.764], [2.848, 36.764], [2.847, 36.763], [2.867, 36.762], [2.936, 36.807], [2.937, 36.807], [2.953, 36.812], [3.01, 36.819], [3.015, 36.819], [3.038, 36.81], [3.049, 36.801], [3.057, 36.793], [3.07, 36.786], [3.068, 36.783], [3.064, 36.782], [3.063, 36.78], [3.062, 36.776], [3.062, 36.774], [3.064, 36.773], [3.065, 36.77], [3.061, 36.77], [3.061, 36.769], [3.06, 36.767], [3.067, 36.765], [3.068, 36.765], [3.067, 36.764], [3.063, 36.765], [3.062, 36.763], [3.067, 36.762], [3.072, 36.758], [3.073, 36.762], [3.075, 36.757], [3.076, 36.756], [3.077, 36.754], [3.096, 36.749], [3.097, 36.75], [3.097, 36.752], [3.098, 36.748], [3.098, 36.747], [3.099, 36.747], [3.107, 36.746], [3.108, 36.746], [3.109, 36.745], [3.204, 36.756], [3.205, 36.756], [3.205, 36.757], [3.208, 36.758], [3.232, 36.783], [3.347, 36.784], [3.354, 36.783], [3.36, 36.782]]]}, "properties": {"name": "Algiers", "iso2": "DZ-16", "admin_level": 4, "osm_id": 157062, "countrylevel_id": "iso2:DZ-16", "osm_data": {"localname": "Alger", "official_name": "", "alltags": {"capital": "yes", "name:af": "Algiers", "name:am": "አልጀርስ", "name:an": "Alcher", "name:ar": "الجزائر", "name:az": "Əlcəzair", "name:be": "Алжыр", "name:bg": "Алжир", "name:bn": "আলজিয়ার্স", "name:bo": "ཨཱལ་ཇི་ཡར་སི།", "name:bs": "Alžir", "name:ca": "Alger", "name:cs": "Alžír", "name:cv": "Алжир", "name:cy": "Alger", "name:da": "Algier", "name:el": "Αλγέρι", "name:en": "Algiers", "name:eo": "Alĝero", "name:es": "Argel", "name:et": "Alžiir", "name:eu": "Aljer", "name:fa": "الجزیره", "name:fi": "Alger", "name:fo": "Alger", "name:fr": "Alger", "name:fy": "Algiers", "name:gd": "Algiers", "name:gl": "Alxer", "name:he": "אלג'יר", "name:hi": "आल्जेर", "name:hr": "Alžir", "name:ht": "Alje", "name:hu": "Algír", "name:hy": "Ալժիր", "name:id": "Aljir", "name:ie": "Alger", "name:io": "Aljer", "name:is": "Algeirsborg", "name:it": "Algeri", "name:ja": "アルジェ", "name:jv": "Aljir", "name:ka": "ალჟირი", "name:kk": "Алжир", "name:kn": "ಆಲ್ಜೇರ್", "name:ko": "알제", "name:ku": "Cezayir", "name:ky": "Алжир шаары", "name:la": "Algeria", "name:lb": "Alger", "name:ln": "Alje", "name:lt": "Alžyras", "name:lv": "Alžīra", "name:mk": "Алжир", "name:ml": "അൾജിയേഴ്സ്", "name:mr": "अल्जीयर्स", "name:ms": "Algiers", "name:nl": "Algiers", "name:nn": "Alger", "name:no": "Alger", "name:oc": "Argièr", "name:os": "Алжир", "name:pl": "Algier", "name:ps": "الجزيره", "name:pt": "Argel", "name:ro": "Alger", "name:ru": "Алжир", "name:se": "Algiers eanangoddi", "name:sh": "Alžir", "name:sk": "Alžír", "name:sl": "Alžir", "name:so": "Algiers", "name:sr": "Алжир", "name:su": "Aljir", "name:sv": "Alger", "name:sw": "Algiers", "name:ta": "அல்ஜியர்ஸ்", "name:tg": "Алҷазоир", "name:th": "แอลเจียร์", "name:tl": "Algiers", "name:tr": "Cezayir", "name:ug": "ئالجىر", "name:uk": "Алжир", "name:ur": "الجزائر شہر", "name:vi": "Algiers", "name:vo": "Cäsair", "name:wo": "Alse", "name:yo": "Algiers", "name:zh": "阿爾及爾", "name:zu": "Algiers", "alt_name": "Al Djazāir", "name:arc": "ܓܙܐܐܪ", "name:ast": "Arxel", "name:ber": "ⴷⵣⴰⵢⴻⵔ", "name:ckb": "ئەلجەزیرە", "name:diq": "Cezayir", "name:ext": "Argel", "name:frp": "Alg·èr", "name:hif": "Algiers", "name:hsb": "Alžěr", "name:kab": "Dzayer", "name:lad": "Arjel", "name:lij": "Algè", "name:lmo": "Algeri", "name:mdf": "Алжир", "name:mrj": "Алжир", "name:nah": "Argel", "name:nan": "Algiers", "name:nov": "Algiers", "name:pap": "Algiers", "name:pms": "Algeri", "name:pnb": "الجیرز", "name:scn": "Algeri", "name:sco": "Algiers", "name:udm": "Алжир", "name:vec": "Algeri", "name:vep": "Alžir", "name:war": "Algiers", "name:yue": "阿爾及爾", "long_name": "ولاية الجزائر", "name:simple": "Algiers", "old_name:ar": "إيكوسيم", "old_name:la": "Icosium", "long_name:ar": "ولاية الجزائر", "long_name:en": "Algiers Province", "long_name:fr": "Wilaya d'Alger", "name:bat-smg": "Alžīrs", "name:roa-rup": "Alger", "name:be-tarask": "Альжыр"}}, "center_lat": 36.7, "center_lon": 3.05, "area_m2": 773915126, "timezone": "Africa/Algiers", "population": 2988145, "wikidata_id": "Q141026", "wikipedia_id": "ar:ولاية الجزائر"}}