{"type": "Feature", "geometry": {"type": "Polygon", "coordinates": [[[7.297, 37.08], [7.297, 37.079], [7.296, 37.079], [7.331, 37.065], [7.342, 37.065], [7.347, 37.066], [7.348, 37.066], [7.35, 37.066], [7.351, 37.067], [7.352, 37.067], [7.364, 37.07], [7.372, 37.072], [7.373, 37.072], [7.374, 37.073], [7.373, 37.074], [7.374, 37.074], [7.372, 37.077], [7.372, 37.078], [7.371, 37.078], [7.376, 37.081], [7.377, 37.081], [7.378, 37.081], [7.379, 37.083], [7.381, 37.085], [7.381, 37.084], [7.381, 37.083], [7.382, 37.083], [7.385, 37.083], [7.386, 37.083], [7.388, 37.083], [7.386, 37.081], [7.386, 37.08], [7.393, 37.078], [7.393, 37.077], [7.391, 37.074], [7.381, 37.065], [7.51, 37.042], [7.517, 37.038], [7.526, 37.019], [7.528, 37.017], [7.529, 37.017], [7.536, 37.014], [7.537, 37.014], [7.539, 37.013], [7.541, 37.011], [7.556, 37.002], [7.558, 36.996], [7.65, 36.97], [7.785, 36.968], [7.774, 36.869], [7.775, 36.869], [7.776, 36.87], [7.773, 36.867], [7.777, 36.87], [7.777, 36.869], [7.795, 36.856], [7.8, 36.854], [7.811, 36.85], [7.815, 36.849], [7.666, 36.653], [7.347, 36.66], [7.288, 37.076], [7.297, 37.08]]]}, "properties": {"name": "Annaba", "iso2": "DZ-23", "admin_level": 4, "osm_id": 1455599, "countrylevel_id": "iso2:DZ-23", "osm_data": {"localname": "Annaba", "official_name": "", "alltags": {"name:ar": "عنابة‎", "name:az": "Annaba vilayəti", "name:be": "Анаба", "name:bg": "Анаба", "name:ca": "Província d'Annaba", "name:da": "Annaba", "name:el": "Αννάμπα", "name:en": "Annaba", "name:eo": "Provinco Annaba", "name:es": "Provincia de Annaba", "name:fa": "استان عنابه", "name:fi": "Annaban maakunta", "name:fr": "Annaba", "name:gl": "Vilaia de Annaba", "name:hi": "अन्नाबा प्रांत", "name:id": "Provinsi 'Annabah", "name:it": "Provincia di Annaba", "name:ja": "アンナバ県", "name:ka": "ანაბის პროვინცია", "name:ko": "안나바주", "name:lt": "Anabos vilaja", "name:ms": "Wilayah Annaba", "name:nl": "Annaba", "name:no": "Annaba", "name:pl": "Prowincja Annaba", "name:pt": "Annaba", "name:ro": "Provincia Annaba", "name:ru": "Аннаба", "name:se": "Annaba eanangoddi", "name:sr": "Анаба", "name:sv": "Annaba", "name:sw": "Wilaya ya Annaba", "name:tg": "Вилояти Анноба", "name:tl": "Lalawigan ng Annaba", "name:tr": "Annâbe Vilayeti", "name:uk": "Аннаба", "name:ur": "صوبہ عنابہ", "name:vi": "Annaba", "name:zh": "安纳巴省", "name:azb": "عنابه اوستانی", "name:ber": "ⵄⴻⵏⵏⴰⴱⴰ", "name:kab": "Ɛennaba", "name:pnb": "صوبہ عنابہ", "long_name": "ولاية عنابة", "long_name:ar": "ولاية عنابة", "long_name:en": "Annaba Province", "long_name:fr": "Wilaya d'Annaba"}}, "center_lat": 36.84, "center_lon": 7.54, "area_m2": 1406905019, "timezone": "Africa/Algiers", "population": 609499, "wikidata_id": "Q213944", "wikipedia_id": "ar:ولاية عنابة"}}