{"type": "Feature", "geometry": {"type": "Polygon", "coordinates": [[[-0.114, 35.789], [-0.116, 35.785], [-0.522, 35.44], [-0.619, 35.359], [-0.627, 35.52], [-1.021, 35.468], [-1.062, 35.639], [-1.055, 35.648], [-1.055, 35.651], [-1.055, 35.653], [-1.055, 35.655], [-1.055, 35.656], [-1.053, 35.657], [-0.922, 35.725], [-0.923, 35.724], [-0.923, 35.723], [-0.921, 35.722], [-0.908, 35.711], [-0.884, 35.707], [-0.834, 35.748], [-0.832, 35.749], [-0.83, 35.752], [-0.829, 35.753], [-0.742, 35.74], [-0.74, 35.739], [-0.734, 35.737], [-0.732, 35.737], [-0.731, 35.737], [-0.699, 35.738], [-0.699, 35.723], [-0.699, 35.722], [-0.564, 35.766], [-0.501, 35.796], [-0.501, 35.797], [-0.471, 35.886], [-0.295, 35.863], [-0.296, 35.853], [-0.291, 35.848], [-0.296, 35.853], [-0.295, 35.831], [-0.294, 35.83], [-0.163, 35.797], [-0.114, 35.789]]]}, "properties": {"name": "Oran", "iso2": "DZ-31", "admin_level": 4, "osm_id": 1259187, "countrylevel_id": "iso2:DZ-31", "osm_data": {"localname": "Oran وهران", "official_name": "", "alltags": {"name:ar": "وهران", "name:el": "Οράν", "name:en": "Oran", "name:es": "Orán", "name:fa": "وهران", "name:fr": "Oran", "name:he": "אוראן", "name:hu": "Orán", "name:it": "Orano", "name:ja": "オラン", "name:ko": "오랑", "name:lt": "Oranas", "name:pt": "Orã", "name:ru": "Оран", "name:ur": "وہران", "name:zh": "瓦赫蘭", "name:ber": "ⵡⴻⵀⵔⴰⵏ", "name:kab": "Wehran", "long_name": "ولاية وهران", "long_name:ar": "ولاية وهران", "long_name:en": "Oran Province", "long_name:fr": "Wilaya d'Oran"}}, "center_lat": 35.65, "center_lon": -0.6, "area_m2": 2133668899, "timezone": "Africa/Algiers", "population": 1454078, "wikidata_id": "Q231331", "wikipedia_id": "ar:ولاية وهران"}}