{"type": "Feature", "geometry": {"type": "Polygon", "coordinates": [[[-8.669, 28.311], [-8.669, 28.667], [-7.614, 29.365], [-7.345, 29.392], [-7.15, 29.523], [-6.777, 29.462], [-6.449, 29.566], [-5.814, 29.608], [-5.5, 29.563], [-5.266, 29.41], [-4.889, 29.415], [-4.622, 29.302], [-4.317, 28.485], [-3.991, 28.001], [-3.972, 27.702], [-3.565, 27.345], [-2.983, 27.301], [-3.109, 26.866], [-3.511, 26.834], [-3.785, 26.682], [-4.126, 26.206], [-4.195, 26.02], [-4.81, 26], [-5.105, 25.714], [-5.668, 25.513], [-6.833, 26.223], [-8.668, 27.315], [-8.668, 27.667], [-8.669, 28.311]]]}, "properties": {"name": "Tinduf", "iso2": "DZ-37", "admin_level": 4, "osm_id": 1258651, "countrylevel_id": "iso2:DZ-37", "osm_data": {"localname": "تندوف", "official_name": "", "alltags": {"name:ar": "تندوف", "name:cs": "Tindúf", "name:en": "Tinduf", "name:es": "Tinduf", "name:fa": "تندوف", "name:fr": "Tindouf", "name:ru": "Тиндуф", "name:ur": "تندوف", "name:ber": "ⵜⵉⵏⴷⵓⴼ", "name:kab": "Tinduf", "long_name": "ولاية تندوف", "long_name:ar": "ولاية تندوف", "long_name:en": "Tindouf Province", "long_name:fr": "Wilaya de Tindouf"}}, "center_lat": 27.69, "center_lon": -6.06, "area_m2": 162212611382, "timezone": "Africa/Algiers", "population": 49149, "wikidata_id": "Q231151", "wikipedia_id": "ar:ولاية تندوف"}}