{"type": "Feature", "geometry": {"type": "Polygon", "coordinates": [[[-1.651, 34.097], [-1.125, 34.28], [-0.78, 34.229], [-0.502, 34.275], [-0.369, 33.935], [-0.071, 34.087], [0.072, 33.994], [0.112, 33.647], [0.016, 33.335], [-0.018, 32.558], [-0.152, 32.331], [-0.418, 32.202], [-0.732, 32.271], [-0.997, 32.146], [-1.124, 32.411], [-1, 32.52], [-1.399, 32.763], [-1.462, 33.042], [-1.67, 33.284], [-1.588, 33.529], [-1.699, 33.87], [-1.651, 34.097]]]}, "properties": {"name": "Naâma", "iso2": "DZ-45", "admin_level": 4, "osm_id": 1258648, "countrylevel_id": "iso2:DZ-45", "osm_data": {"localname": "النعامة", "official_name": "", "alltags": {"name:ar": "النعامة", "name:el": "Ναάμα", "name:en": "Naâma", "name:fa": "نعامه", "name:fr": "Naâma", "name:ur": "النعامہ", "name:azb": "نعامه", "name:ber": "ⵏⵄⴰⵎⴰ", "name:kab": "Nɛama", "name:pnb": "نعامہ", "long_name": "ولاية النعامة", "long_name:ar": "ولاية النعامة", "long_name:en": "Naâma Province", "long_name:fr": "Wilaya de Naâma"}}, "center_lat": 33.3, "center_lon": -0.77, "area_m2": 29830578963, "timezone": "Africa/Algiers", "population": 192891, "wikidata_id": "Q233675", "wikipedia_id": "ar:ولاية النعامة"}}