{"type": "Feature", "geometry": {"type": "MultiPolygon", "coordinates": [[[[-64.639, -54.798], [-64.636, -54.799], [-64.568, -54.813], [-64.55, -54.795], [-64.518, -54.798], [-64.517, -54.798], [-64.518, -54.794], [-64.517, -54.793], [-64.543, -54.769], [-64.519, -54.743], [-64.517, -54.743], [-64.486, -54.764], [-64.444, -54.762], [-64.408, -54.775], [-64.362, -54.775], [-64.376, -54.752], [-64.324, -54.736], [-64.278, -54.731], [-64.276, -54.733], [-64.244, -54.745], [-64.155, -54.741], [-64.157, -54.741], [-64.138, -54.732], [-64.084, -54.752], [-64.07, -54.728], [-64.037, -54.742], [-64.036, -54.742], [-64.036, -54.746], [-64.037, -54.747], [-64.037, -54.749], [-64.036, -54.749], [-64.036, -54.76], [-64.037, -54.761], [-63.992, -54.737], [-63.917, -54.726], [-63.915, -54.725], [-63.877, -54.718], [-63.844, -54.728], [-63.809, -54.719], [-63.8, -54.748], [-63.847, -54.78], [-63.898, -54.79], [-63.92, -54.803], [-63.959, -54.784], [-64.023, -54.791], [-64.094, -54.815], [-64.095, -54.815], [-64.119, -54.815], [-64.121, -54.815], [-64.124, -54.815], [-64.124, -54.816], [-64.156, -54.827], [-64.156, -54.826], [-64.157, -54.826], [-64.156, -54.826], [-64.155, -54.825], [-64.157, -54.825], [-64.181, -54.839], [-64.229, -54.823], [-64.237, -54.791], [-64.306, -54.788], [-64.308, -54.811], [-64.357, -54.835], [-64.39, -54.828], [-64.4, -54.85], [-64.426, -54.865], [-64.515, -54.87], [-64.518, -54.87], [-64.587, -54.905], [-64.637, -54.908], [-64.638, -54.908], [-64.669, -54.876], [-64.686, -54.843], [-64.737, -54.859], [-64.756, -54.836], [-64.714, -54.798], [-64.684, -54.785], [-64.639, -54.798]]], [[[-67.529, -54.905], [-67.524, -54.884], [-67.475, -54.884], [-67.46, -54.902], [-67.483, -54.916], [-67.529, -54.905]]], [[[-68.609, -54.894], [-68.596, -54.873], [-68.596, -54.809], [-68.607, -54.556], [-68.608, -54.189], [-68.607, -53.8], [-68.607, -53.48], [-68.606, -53.198], [-68.607, -52.975], [-68.606, -52.658], [-68.569, -52.701], [-68.565, -52.705], [-68.412, -52.844], [-68.285, -52.953], [-68.264, -53], [-68.371, -53.023], [-68.391, -53.05], [-68.442, -53.076], [-68.458, -53.095], [-68.537, -53.145], [-68.561, -53.173], [-68.566, -53.212], [-68.566, -53.213], [-68.568, -53.213], [-68.566, -53.216], [-68.565, -53.217], [-68.558, -53.25], [-68.537, -53.252], [-68.479, -53.286], [-68.44, -53.301], [-68.324, -53.32], [-68.207, -53.307], [-68.136, -53.331], [-68.106, -53.358], [-68.082, -53.392], [-68.053, -53.492], [-68.025, -53.543], [-67.997, -53.579], [-67.918, -53.65], [-67.83, -53.703], [-67.725, -53.755], [-67.724, -53.758], [-67.705, -53.769], [-67.697, -53.78], [-67.584, -53.832], [-67.579, -53.875], [-67.567, -53.898], [-67.536, -53.927], [-67.488, -53.944], [-67.441, -53.982], [-67.377, -53.999], [-67.319, -54.048], [-67.288, -54.057], [-67.25, -54.082], [-67.169, -54.109], [-67.131, -54.128], [-67.051, -54.144], [-66.96, -54.179], [-66.905, -54.216], [-66.862, -54.224], [-66.764, -54.251], [-66.736, -54.276], [-66.704, -54.289], [-66.7, -54.306], [-66.664, -54.341], [-66.558, -54.405], [-66.558, -54.407], [-66.531, -54.434], [-66.491, -54.45], [-66.462, -54.48], [-66.41, -54.487], [-66.409, -54.487], [-66.359, -54.502], [-66.308, -54.508], [-66.263, -54.525], [-66.152, -54.557], [-66.052, -54.578], [-65.98, -54.598], [-65.978, -54.598], [-65.858, -54.639], [-65.801, -54.652], [-65.767, -54.649], [-65.69, -54.663], [-65.57, -54.651], [-65.526, -54.662], [-65.34, -54.638], [-65.339, -54.637], [-65.338, -54.637], [-65.337, -54.638], [-65.336, -54.637], [-65.333, -54.637], [-65.332, -54.636], [-65.331, -54.637], [-65.33, -54.637], [-65.327, -54.637], [-65.325, -54.637], [-65.324, -54.637], [-65.321, -54.636], [-65.32, -54.636], [-65.32, -54.635], [-65.319, -54.635], [-65.318, -54.635], [-65.317, -54.634], [-65.316, -54.635], [-65.313, -54.633], [-65.309, -54.633], [-65.308, -54.633], [-65.3, -54.63], [-65.298, -54.63], [-65.291, -54.628], [-65.285, -54.628], [-65.283, -54.628], [-65.283, -54.629], [-65.283, -54.63], [-65.282, -54.63], [-65.281, -54.631], [-65.28, -54.631], [-65.279, -54.631], [-65.278, -54.63], [-65.276, -54.63], [-65.276, -54.629], [-65.275, -54.629], [-65.273, -54.628], [-65.271, -54.626], [-65.27, -54.627], [-65.264, -54.626], [-65.262, -54.625], [-65.26, -54.624], [-65.258, -54.624], [-65.256, -54.624], [-65.256, -54.623], [-65.254, -54.623], [-65.25, -54.623], [-65.249, -54.623], [-65.244, -54.621], [-65.235, -54.619], [-65.236, -54.62], [-65.238, -54.621], [-65.24, -54.625], [-65.244, -54.627], [-65.245, -54.628], [-65.241, -54.635], [-65.239, -54.635], [-65.235, -54.636], [-65.235, -54.637], [-65.237, -54.638], [-65.238, -54.638], [-65.24, -54.639], [-65.241, -54.639], [-65.247, -54.639], [-65.25, -54.64], [-65.25, -54.645], [-65.245, -54.647], [-65.248, -54.648], [-65.25, -54.648], [-65.252, -54.649], [-65.253, -54.649], [-65.253, -54.65], [-65.261, -54.651], [-65.263, -54.65], [-65.265, -54.65], [-65.266, -54.651], [-65.265, -54.652], [-65.265, -54.653], [-65.266, -54.654], [-65.265, -54.654], [-65.262, -54.653], [-65.262, -54.654], [-65.262, -54.655], [-65.262, -54.656], [-65.261, -54.656], [-65.263, -54.656], [-65.264, -54.657], [-65.265, -54.657], [-65.265, -54.658], [-65.266, -54.658], [-65.266, -54.659], [-65.266, -54.66], [-65.265, -54.661], [-65.265, -54.662], [-65.267, -54.662], [-65.267, -54.663], [-65.268, -54.663], [-65.268, -54.664], [-65.269, -54.665], [-65.268, -54.665], [-65.269, -54.666], [-65.271, -54.666], [-65.273, -54.667], [-65.275, -54.668], [-65.275, -54.669], [-65.276, -54.669], [-65.277, -54.67], [-65.277, -54.671], [-65.276, -54.67], [-65.274, -54.67], [-65.274, -54.669], [-65.271, -54.667], [-65.239, -54.659], [-65.242, -54.651], [-65.244, -54.649], [-65.127, -54.652], [-65.13, -54.665], [-65.175, -54.681], [-65.198, -54.705], [-65.201, -54.732], [-65.2, -54.732], [-65.218, -54.748], [-65.205, -54.78], [-65.265, -54.805], [-65.226, -54.818], [-65.265, -54.841], [-65.281, -54.863], [-65.312, -54.872], [-65.316, -54.906], [-65.35, -54.928], [-65.394, -54.942], [-65.424, -54.923], [-65.427, -54.895], [-65.46, -54.889], [-65.499, -54.901], [-65.497, -54.928], [-65.525, -54.939], [-65.569, -54.937], [-65.616, -54.952], [-65.631, -54.969], [-65.719, -54.967], [-65.707, -54.95], [-65.737, -54.909], [-65.789, -54.904], [-65.831, -54.914], [-65.846, -54.902], [-65.89, -54.9], [-65.909, -54.912], [-65.984, -54.903], [-65.981, -54.924], [-65.978, -54.924], [-65.958, -54.942], [-65.979, -54.966], [-66.038, -54.983], [-66.105, -54.993], [-66.195, -54.997], [-66.308, -54.992], [-66.311, -54.993], [-66.316, -54.994], [-66.336, -54.998], [-66.337, -54.998], [-66.349, -55], [-66.37, -55.01], [-66.372, -55.039], [-66.409, -55.044], [-66.424, -55.049], [-66.523, -55.056], [-66.661, -55.018], [-66.719, -54.998], [-66.763, -54.962], [-66.874, -54.942], [-66.935, -54.941], [-67.007, -54.923], [-67.103, -54.909], [-67.156, -54.893], [-67.297, -54.887], [-67.341, -54.87], [-67.394, -54.89], [-67.44, -54.87], [-67.532, -54.867], [-67.624, -54.884], [-67.691, -54.887], [-67.76, -54.88], [-67.83, -54.86], [-67.899, -54.859], [-67.957, -54.851], [-67.99, -54.856], [-68.107, -54.827], [-68.192, -54.818], [-68.232, -54.798], [-68.282, -54.801], [-68.283, -54.802], [-68.288, -54.804], [-68.289, -54.805], [-68.303, -54.808], [-68.305, -54.809], [-68.307, -54.809], [-68.308, -54.809], [-68.309, -54.809], [-68.313, -54.81], [-68.314, -54.811], [-68.315, -54.811], [-68.315, -54.812], [-68.311, -54.814], [-68.309, -54.814], [-68.354, -54.839], [-68.357, -54.84], [-68.373, -54.842], [-68.373, -54.843], [-68.381, -54.85], [-68.458, -54.859], [-68.482, -54.847], [-68.523, -54.858], [-68.566, -54.852], [-68.566, -54.858], [-68.539, -54.866], [-68.527, -54.874], [-68.562, -54.891], [-68.609, -54.894]]]]}, "properties": {"name": "Tierra del Fuego Province", "iso2": "AR-V", "admin_level": 4, "osm_id": 153550, "countrylevel_id": "iso2:AR-V", "osm_data": {"localname": "Tierra del Fuego", "official_name": "", "alltags": {"name:ar": "محافظة تييرا ديل فويغو", "name:ay": "Ninasuyu jisk'a suyu", "name:be": "Вогненная Зямля", "name:bg": "Огнена земя", "name:br": "Proviñs Tierra del Fuego", "name:ca": "Terra del Foc", "name:cs": "Ohňová země", "name:cy": "Tierra del Fuego", "name:el": "Γη του Πυρός", "name:en": "Tierra del Fuego Province", "name:eo": "Provinco de Fajrolando", "name:et": "Tulemaa provints", "name:eu": "Suaren Lurraldea", "name:fa": "استان تیرا دل فوئگو", "name:fi": "Tulimaan", "name:fr": "Province de Terre de Feu", "name:gl": "Terra de Fogo", "name:he": "טיירה דל פואגו", "name:hi": "टिएरा देल फ्यूगो, अर्जेंटीना", "name:hy": "Հրո Երկիր", "name:id": "Provinsi Tierra del Fuego", "name:it": "Terra del Fuoco", "name:ja": "ティエラ・デル・フエゴ州", "name:ka": "ცეცხლოვანი მიწის პროვინცია", "name:ko": "티에라델푸에고주", "name:lt": "Ugnies Žemės", "name:lv": "Tjerra del Fuego province", "name:mk": "Огнена Земја", "name:mr": "तिएरा देल फ्वेगो", "name:ms": "Wilayah Tierra del Fuego", "name:nl": "Vuurland", "name:nn": "Tierra del Fuego", "name:no": "Tierra del Fuego", "name:oc": "Província de Tèrra deu Huec", "name:os": "Арты Зæхх", "name:pl": "Ziemia Ognista", "name:pt": "Terra do Fogo", "name:qu": "Ninasuyu wamani", "name:ro": "Provincia Tierra del Fuego", "name:ru": "Огненная Земля, Антарктида и острова Южной Атлантики", "name:sk": "Tierra del Fuego", "name:sl": "Ognjena zemlja", "name:sr": "Огњена Земља", "name:sv": "Eldslandet", "name:sw": "Tierra del Fuego", "name:tg": "Замини Оташӣ", "name:th": "รัฐติเอร์ราเดลฟูเอโก", "name:tl": "Lalawigan ng Tierra del Fuego", "name:tr": "Tierra del Fuego", "name:tt": "Тьерра-дел-Фвего", "name:uk": "Вогняна Земля, Антарктида та острови Південної Атлантики", "name:ur": "صوبہ تیئرا دل فوئگو، ارجنٹائن", "name:vi": "Tierra del Fuego", "name:vo": "Tierra del Fuego, Antártida e Islas del Atlántico Sur", "name:zh": "火地省", "short_name": "TDF", "alt_name:he": "ארץ האש", "is_in:country": "Argentina"}}, "center_lat": -54.34, "center_lon": -67.39, "area_m2": 20634489507, "timezone": "America/Argentina/Ushuaia", "population": 160720, "wikidata_id": "Q44832", "wikipedia_id": "es:Provincia de Tierra del Fuego, Antártida e Islas del Atlántico Sur"}}