{"type": "Feature", "geometry": {"type": "Polygon", "coordinates": [[[33.004, 47.989], [33.019, 47.985], [33.037, 48.034], [33.107, 48.042], [33.103, 48.057], [33.143, 48.064], [33.154, 48.084], [33.225, 48.092], [33.232, 48.127], [33.213, 48.17], [33.243, 48.173], [33.272, 48.154], [33.277, 48.103], [33.307, 48.128], [33.292, 48.15], [33.316, 48.158], [33.43, 48.17], [33.43, 48.189], [33.496, 48.202], [33.546, 48.235], [33.53, 48.276], [33.51, 48.292], [33.518, 48.329], [33.473, 48.33], [33.462, 48.349], [33.468, 48.388], [33.486, 48.405], [33.489, 48.44], [33.469, 48.534], [33.482, 48.558], [33.509, 48.568], [33.584, 48.576], [33.623, 48.567], [33.609, 48.599], [33.65, 48.6], [33.661, 48.586], [33.7, 48.606], [33.764, 48.626], [33.757, 48.657], [33.802, 48.663], [33.805, 48.688], [33.75, 48.682], [33.682, 48.723], [33.619, 48.728], [33.608, 48.751], [33.582, 48.766], [33.583, 48.797], [33.618, 48.788], [33.659, 48.793], [33.673, 48.814], [33.72, 48.81], [33.725, 48.789], [33.77, 48.799], [33.819, 48.776], [33.851, 48.771], [33.851, 48.803], [33.874, 48.84], [33.894, 48.902], [33.926, 48.88], [33.982, 48.866], [34.011, 48.867], [34.035, 48.844], [34.081, 48.823], [34.127, 48.812], [34.127, 48.784], [34.177, 48.777], [34.202, 48.76], [34.247, 48.746], [34.314, 48.74], [34.298, 48.785], [34.297, 48.821], [34.323, 48.829], [34.338, 48.871], [34.301, 48.895], [34.313, 48.941], [34.353, 48.984], [34.332, 49.009], [34.416, 49.055], [34.402, 49.094], [34.462, 49.066], [34.5, 49.061], [34.516, 49.072], [34.544, 49.054], [34.574, 49.063], [34.569, 49.088], [34.625, 49.125], [34.648, 49.132], [34.683, 49.122], [34.765, 49.151], [34.776, 49.175], [34.823, 49.179], [34.857, 49.191], [34.869, 49.161], [34.899, 49.149], [34.945, 49.191], [34.977, 49.179], [35.018, 49.151], [35.061, 49.174], [35.087, 49.15], [35.122, 49.162], [35.144, 49.15], [35.189, 49.145], [35.218, 49.107], [35.256, 49.113], [35.27, 49.095], [35.311, 49.088], [35.302, 49.07], [35.378, 49.033], [35.411, 49.012], [35.459, 48.998], [35.486, 48.973], [35.508, 48.982], [35.564, 48.974], [35.596, 48.987], [35.65, 48.974], [35.723, 48.966], [35.8, 48.944], [35.917, 48.969], [35.94, 48.999], [35.99, 48.969], [35.996, 48.939], [36.044, 48.915], [36.012, 48.888], [36.04, 48.874], [36.019, 48.855], [36.076, 48.833], [36.074, 48.808], [36.129, 48.806], [36.159, 48.784], [36.162, 48.749], [36.143, 48.724], [36.282, 48.656], [36.252, 48.621], [36.319, 48.587], [36.271, 48.544], [36.296, 48.531], [36.324, 48.556], [36.355, 48.54], [36.381, 48.57], [36.483, 48.664], [36.591, 48.603], [36.655, 48.61], [36.672, 48.625], [36.739, 48.626], [36.745, 48.597], [36.779, 48.601], [36.789, 48.567], [36.86, 48.569], [36.907, 48.521], [36.85, 48.518], [36.857, 48.487], [36.83, 48.485], [36.837, 48.443], [36.851, 48.424], [36.821, 48.405], [36.828, 48.369], [36.809, 48.348], [36.817, 48.313], [36.871, 48.317], [36.912, 48.309], [36.937, 48.194], [36.873, 48.184], [36.896, 48.078], [36.858, 48.052], [36.855, 48.035], [36.782, 48.047], [36.708, 48.08], [36.636, 48.095], [36.583, 48.076], [36.574, 48.04], [36.585, 47.957], [36.629, 47.962], [36.64, 47.92], [36.542, 47.906], [36.549, 47.877], [36.577, 47.88], [36.585, 47.847], [36.523, 47.829], [36.449, 47.824], [36.377, 47.83], [36.324, 47.839], [36.333, 47.821], [36.276, 47.815], [36.266, 47.833], [36.198, 47.833], [36.179, 47.851], [36.102, 47.843], [36.087, 47.861], [36.117, 47.871], [36.13, 47.89], [36.11, 47.925], [36.085, 47.93], [36.062, 48.001], [36.066, 48.025], [36.052, 48.059], [35.988, 48.059], [35.969, 48.073], [35.967, 48.095], [35.921, 48.082], [35.817, 48.066], [35.807, 48.098], [35.743, 48.096], [35.703, 48.14], [35.524, 48.074], [35.52, 48.095], [35.45, 48.103], [35.338, 48.124], [35.279, 48.145], [35.242, 48.135], [35.218, 48.143], [35.155, 48.129], [35.103, 48.132], [35.055, 48.118], [35.036, 48.098], [34.915, 48.091], [34.916, 48.131], [34.855, 48.133], [34.876, 48.054], [34.839, 48.051], [34.847, 48.014], [34.87, 47.982], [34.905, 47.986], [34.919, 47.933], [34.802, 47.916], [34.817, 47.864], [34.864, 47.879], [34.871, 47.851], [34.897, 47.853], [34.903, 47.83], [34.879, 47.818], [34.894, 47.76], [34.958, 47.77], [34.965, 47.74], [34.956, 47.712], [34.93, 47.712], [34.938, 47.677], [34.906, 47.674], [34.907, 47.647], [34.933, 47.636], [34.942, 47.603], [34.936, 47.582], [34.965, 47.548], [34.945, 47.53], [34.862, 47.515], [34.796, 47.537], [34.736, 47.539], [34.67, 47.556], [34.572, 47.562], [34.528, 47.554], [34.469, 47.532], [34.3, 47.519], [34.234, 47.494], [34.139, 47.477], [34.074, 47.471], [34.003, 47.457], [33.951, 47.462], [33.94, 47.516], [33.644, 47.485], [33.636, 47.514], [33.588, 47.502], [33.58, 47.532], [33.592, 47.574], [33.58, 47.6], [33.474, 47.587], [33.486, 47.544], [33.326, 47.523], [33.349, 47.494], [33.287, 47.51], [33.273, 47.546], [33.244, 47.531], [33.217, 47.532], [33.238, 47.569], [33.176, 47.568], [33.093, 47.579], [33.095, 47.597], [32.961, 47.59], [33.008, 47.616], [32.994, 47.63], [32.972, 47.723], [33.008, 47.732], [33.072, 47.739], [33.055, 47.832], [33.07, 47.883], [33.086, 47.885], [33.078, 47.92], [33.014, 47.91], [32.995, 47.984], [33.004, 47.989]]]}, "properties": {"name": "Dnipropetrovsk Oblast", "iso2": "UA-12", "admin_level": 4, "osm_id": 101746, "countrylevel_id": "iso2:UA-12", "osm_data": {"localname": "Дніпропетровська область", "official_name": "", "alltags": {"flag": "http://upload.wikimedia.org/wikipedia/commons/c/cf/Flag_of_Dnipropetrovsk_Oblast.svg", "koatuu": "1200000000", "ref:en": "DNP", "ref:ru": "ДНП", "name:ar": "دنيبروبتروفسك أوبلاست", "name:az": "Dnepropetrovsk vilayəti", "name:be": "Днепрапятроўская вобласць", "name:bg": "Днепропетровска област", "name:ca": "Província de Dnipropetrovsk", "name:cs": "Dněpropetrovská oblast", "name:cv": "Днепропетровск облаçĕ", "name:en": "Dnipropetrovsk Oblast", "name:eo": "Dnipropetrovska provinco", "name:es": "Óblast de Dnipropetrovsk", "name:et": "Dnipropetrovski oblast", "name:eu": "Dnipropetrovskeko oblasta", "name:fa": "استان دنیپروپتروفسک", "name:fi": "Dnepropetrovskin alue", "name:fr": "Oblast de Dnipropetrovsk", "name:hr": "Dnjipropetrovska oblast", "name:hu": "Dnyipropetrovszki terület", "name:hy": "Դնեպրոպետրովսկի մարզ", "name:id": "Oblast Dnipropetrovsk", "name:it": "Oblast' di Dnipropetrovs'k", "name:ja": "ドニプロペトロウシク州", "name:ka": "დნეპროპეტროვსკის ოლქი", "name:ko": "드니프로페트로우시크 주", "name:lt": "Dniepropetrovsko sritis", "name:lv": "Dņepropetrovskas apgabals", "name:mk": "Днепропетровска област", "name:mr": "द्नेप्रोपेत्रोव्स्क ओब्लास्त", "name:nl": "Oblast Dnjepropetrovsk", "name:nn": "Dnipropetrovsk oblast", "name:no": "Dnipropetrovsk oblast", "name:pl": "Obwód dniepropetrowski", "name:pt": "Oblast de Dnipropetrovsk", "name:ro": "Regiunea Dniepropetrovsk", "name:ru": "Днепропетровская область", "name:sh": "Dnjipropetrovska oblast", "name:sk": "Dnepropetrovská oblasť", "name:sr": "Дњепропетровска област", "name:sv": "Dnipropetrovsk oblast", "name:tr": "Dnipropetrovsk Oblastı", "name:uk": "Дніпропетровська область", "name:vi": "Dnipropetrovsk (tỉnh)", "name:zh": "第聂伯罗彼得罗夫斯克州", "name:crh": "Dnipropetrovsk vilâyeti", "name:nan": "Dnipropetrovsk séng", "name:pnb": "دنیپروپترووسک اوبلاست", "name:rue": "Днїпропетровска область", "name:sco": "Dnipropetrovsk Oblast", "name:szl": "Dńepropetrowski uobwůd", "name:war": "Dnipropetrovsk Oblast", "name:xmf": "დნეპროპეტროვსკიშ ოლქი", "population": "3261974", "name:be-tarask": "Днепрапятроўская вобласьць"}}, "center_lat": 48.3, "center_lon": 34.84, "area_m2": 31888536735, "timezone": "Europe/Kiev", "population": 3231140, "wikidata_id": "Q170672", "wikipedia_id": "uk:Дніпропетровська область"}}