{"type": "Feature", "geometry": {"type": "Polygon", "coordinates": [[[30.236, 50.431], [30.267, 50.518], [30.303, 50.533], [30.311, 50.555], [30.371, 50.586], [30.447, 50.586], [30.491, 50.567], [30.496, 50.552], [30.533, 50.535], [30.572, 50.538], [30.654, 50.534], [30.664, 50.552], [30.697, 50.562], [30.723, 50.591], [30.812, 50.566], [30.817, 50.535], [30.755, 50.519], [30.739, 50.498], [30.755, 50.462], [30.826, 50.405], [30.813, 50.392], [30.777, 50.395], [30.773, 50.374], [30.746, 50.371], [30.719, 50.383], [30.697, 50.347], [30.646, 50.363], [30.613, 50.358], [30.613, 50.337], [30.647, 50.296], [30.611, 50.281], [30.644, 50.226], [30.594, 50.213], [30.575, 50.26], [30.553, 50.259], [30.528, 50.291], [30.534, 50.317], [30.491, 50.335], [30.443, 50.381], [30.371, 50.42], [30.358, 50.445], [30.281, 50.447], [30.269, 50.426], [30.236, 50.431]]]}, "properties": {"name": "Kyiv", "iso2": "UA-30", "admin_level": 4, "osm_id": 421866, "countrylevel_id": "iso2:UA-30", "osm_data": {"localname": "Київ", "official_name": "", "alltags": {"flag": "http://upload.wikimedia.org/wikipedia/commons/3/35/Flag_of_Kyiv_Kurovskyi.svg", "koatuu": "8000000000", "name:ab": "Кыив", "name:af": "Kyiv", "name:an": "Kyiv", "name:be": "Кіеў", "name:ca": "Kíiv", "name:en": "Kyiv", "name:eo": "Kijivo", "name:es": "Kyiv", "name:et": "Kõjiv", "name:fi": "Kiova", "name:fr": "Kyïv", "name:fy": "Kiev", "name:ia": "Kiev", "name:io": "Kyiv", "name:it": "Kyiv", "name:la": "Kiovia", "name:nl": "Kiev", "name:pl": "Kijów", "name:pt": "Kiev", "name:ro": "Kiev", "name:ru": "Киев", "name:sk": "Kyjev", "name:tr": "Kıyiv", "name:uk": "Київ", "name:vi": "Kyiv", "name:vo": "Küyiv", "int_name": "Kyiv", "name:ast": "Kiev", "name:bar": "Kiew", "name:jbo": "kiev", "name:szl": "Kijůw", "name:tzl": "Kíiv", "population": "2908249", "addr:region": "Київ", "alt_name:af": "Kiëf", "alt_name:an": "Kiev", "alt_name:ca": "Kíev", "alt_name:de": "Kiew", "alt_name:en": "Kiev", "alt_name:eo": "Kievo", "alt_name:es": "Kiev", "alt_name:et": "Kõjiv", "alt_name:fr": "Kiev", "alt_name:it": "Kiev", "alt_name:tr": "Kiev", "alt_name:vi": "Kiev", "alt_name:vo": "Kiev", "name:be-tarask": "Кіеў"}}, "center_lat": 50.45, "center_lon": 30.55, "area_m2": 824314878, "timezone": "Europe/Kiev", "population": 2935239, "wikidata_id": "Q1899", "wikipedia_id": "uk:Київ"}}