{"type": "Feature", "geometry": {"type": "MultiPolygon", "coordinates": [[[[31.177, 46.627], [31.193, 46.657], [31.179, 46.68], [31.179, 46.709], [31.153, 46.744], [31.178, 46.769], [31.153, 46.792], [31.157, 46.833], [31.111, 46.845], [31.093, 46.881], [31.042, 46.898], [31.018, 46.964], [31.089, 46.974], [31.242, 46.991], [31.232, 47.019], [31.265, 47.029], [31.291, 47.025], [31.305, 47.048], [31.27, 47.172], [31.246, 47.178], [31.201, 47.172], [31.197, 47.155], [31.11, 47.156], [31.123, 47.177], [31.157, 47.182], [31.146, 47.218], [31.178, 47.223], [31.17, 47.266], [31.078, 47.253], [31.018, 47.239], [30.997, 47.29], [30.908, 47.277], [30.893, 47.321], [30.909, 47.346], [30.885, 47.359], [30.873, 47.401], [30.887, 47.426], [30.864, 47.444], [30.852, 47.503], [30.883, 47.507], [30.876, 47.545], [30.829, 47.55], [30.773, 47.546], [30.745, 47.58], [30.779, 47.584], [30.775, 47.624], [30.789, 47.649], [30.709, 47.639], [30.72, 47.609], [30.66, 47.601], [30.664, 47.635], [30.618, 47.624], [30.612, 47.636], [30.558, 47.631], [30.472, 47.618], [30.464, 47.641], [30.42, 47.635], [30.414, 47.672], [30.391, 47.744], [30.424, 47.761], [30.416, 47.787], [30.423, 47.821], [30.335, 47.81], [30.318, 47.844], [30.3, 47.921], [30.306, 47.931], [30.246, 47.967], [30.249, 47.983], [30.225, 48.012], [30.257, 48.022], [30.232, 48.07], [30.25, 48.09], [30.357, 48.101], [30.316, 48.116], [30.307, 48.142], [30.364, 48.174], [30.414, 48.163], [30.437, 48.173], [30.507, 48.16], [30.527, 48.18], [30.556, 48.156], [30.617, 48.156], [30.647, 48.185], [30.785, 48.191], [30.792, 48.168], [30.848, 48.184], [30.855, 48.161], [30.917, 48.165], [30.932, 48.184], [30.989, 48.184], [30.981, 48.222], [31.053, 48.232], [31.056, 48.22], [31.138, 48.229], [31.184, 48.204], [31.184, 48.177], [31.22, 48.171], [31.237, 48.117], [31.325, 48.138], [31.33, 48.114], [31.37, 48.121], [31.396, 48.108], [31.418, 48.121], [31.486, 48.13], [31.499, 48.087], [31.47, 48.063], [31.551, 48.07], [31.541, 48.108], [31.584, 48.106], [31.582, 48.129], [31.634, 48.135], [31.643, 48.115], [31.679, 48.12], [31.695, 48.093], [31.767, 48.102], [31.783, 48.042], [31.729, 48.036], [31.752, 47.947], [31.844, 47.964], [31.855, 47.916], [31.876, 47.912], [31.89, 47.866], [31.857, 47.865], [31.868, 47.822], [31.827, 47.817], [31.838, 47.783], [31.963, 47.799], [31.96, 47.81], [32.055, 47.817], [32.076, 47.807], [32.09, 47.782], [32.109, 47.784], [32.117, 47.756], [32.145, 47.75], [32.232, 47.76], [32.223, 47.792], [32.237, 47.815], [32.298, 47.823], [32.328, 47.812], [32.363, 47.789], [32.386, 47.798], [32.43, 47.79], [32.624, 47.813], [32.658, 47.82], [32.673, 47.842], [32.664, 47.871], [32.686, 47.873], [32.677, 47.907], [32.652, 47.921], [32.743, 47.932], [32.737, 47.952], [32.697, 47.947], [32.691, 47.982], [32.794, 47.992], [32.811, 47.979], [32.894, 47.986], [32.882, 48.028], [32.952, 48.035], [32.989, 48.048], [33.004, 47.989], [32.995, 47.984], [33.014, 47.91], [33.078, 47.92], [33.086, 47.885], [33.07, 47.883], [33.055, 47.832], [33.072, 47.739], [33.008, 47.732], [32.972, 47.723], [32.994, 47.63], [33.008, 47.616], [32.961, 47.59], [33.095, 47.597], [33.093, 47.579], [33.095, 47.528], [33.141, 47.545], [33.147, 47.515], [33.123, 47.508], [33.138, 47.42], [33.072, 47.412], [33.071, 47.475], [33.047, 47.468], [33.054, 47.444], [33.029, 47.421], [33.039, 47.38], [33.121, 47.39], [33.131, 47.329], [33.103, 47.322], [33.105, 47.28], [33.177, 47.242], [33.144, 47.23], [33.113, 47.206], [33.097, 47.224], [33.065, 47.215], [33.055, 47.192], [32.961, 47.19], [32.949, 47.164], [32.92, 47.146], [32.907, 47.121], [32.91, 47.094], [32.928, 47.082], [33.069, 47.022], [33.022, 46.973], [32.95, 47.003], [32.934, 46.986], [32.95, 46.946], [32.925, 46.91], [32.841, 46.9], [32.856, 46.877], [32.915, 46.883], [32.92, 46.866], [32.949, 46.858], [32.814, 46.84], [32.815, 46.835], [32.698, 46.823], [32.688, 46.862], [32.617, 46.854], [32.585, 46.856], [32.547, 46.869], [32.526, 46.848], [32.532, 46.824], [32.469, 46.817], [32.463, 46.84], [32.365, 46.829], [32.373, 46.799], [32.342, 46.795], [32.228, 46.845], [32.252, 46.82], [32.21, 46.806], [32.219, 46.771], [32.169, 46.764], [32.172, 46.752], [32.112, 46.745], [32.076, 46.73], [32.087, 46.684], [32.021, 46.678], [31.982, 46.658], [31.97, 46.681], [31.976, 46.709], [31.964, 46.729], [31.935, 46.747], [31.945, 46.775], [31.946, 46.83], [31.97, 46.84], [32.013, 46.875], [31.988, 46.892], [31.962, 46.864], [31.912, 46.835], [31.883, 46.811], [31.872, 46.769], [31.888, 46.745], [31.918, 46.726], [31.9, 46.677], [31.904, 46.658], [31.877, 46.633], [31.796, 46.61], [31.773, 46.624], [31.739, 46.627], [31.658, 46.649], [31.603, 46.645], [31.562, 46.618], [31.556, 46.603], [31.517, 46.619], [31.457, 46.632], [31.499, 46.659], [31.5, 46.692], [31.534, 46.706], [31.528, 46.721], [31.55, 46.745], [31.531, 46.78], [31.517, 46.733], [31.464, 46.757], [31.484, 46.717], [31.486, 46.691], [31.445, 46.657], [31.42, 46.65], [31.408, 46.619], [31.368, 46.623], [31.352, 46.601], [31.283, 46.612], [31.238, 46.61], [31.177, 46.627]]], [[[31.859, 46.516], [31.848, 46.5], [31.805, 46.479], [31.762, 46.488], [31.713, 46.48], [31.683, 46.462], [31.65, 46.477], [31.554, 46.536], [31.659, 46.537], [31.754, 46.546], [31.801, 46.527], [31.859, 46.516]]]]}, "properties": {"name": "Mykolaiv Oblast", "iso2": "UA-48", "admin_level": 4, "osm_id": 72635, "countrylevel_id": "iso2:UA-48", "osm_data": {"localname": "Миколаївська область", "official_name": "", "alltags": {"flag": "http://upload.wikimedia.org/wikipedia/commons/e/e1/Flag_of_Mykolaiv_Oblast.svg", "koatuu": "4800000000", "ref:en": "MYK", "ref:ru": "НИК", "name:ar": "ميكولايف أوبلاست", "name:be": "Мікалаеўская вобласць", "name:bg": "Николаевска област", "name:ca": "Província de Mykolàïv", "name:cs": "Mykolajivská oblast", "name:en": "Mykolaiv Oblast", "name:eo": "Mikolajeva provinco", "name:es": "Óblast de Mykolaiv", "name:et": "Mõkolajivi oblast", "name:eu": "Mykolaiveko oblasta", "name:fa": "استان میکولائیف", "name:fi": "Mykolajivin alue", "name:fr": "Oblast de Mykolaïv", "name:hr": "Mikolajivska oblast", "name:hu": "Mikolajivi terület", "name:hy": "Նիկոլաևի մարզ", "name:id": "Oblast Mykolaiv", "name:it": "Oblast' di Mykolaïv", "name:ja": "ムィコラーイウ州", "name:ka": "ნიკოლაევის ოლქი", "name:ko": "미콜라이우 주", "name:lt": "Mykolajivo sritis", "name:lv": "Nikolajevas apgabals", "name:mk": "Николаевска област", "name:mr": "मिकोलाइव्ह ओब्लास्त", "name:nl": "Oblast Mykolajiv", "name:nn": "Mykolajiv oblast", "name:no": "Mykolajiv oblast", "name:pl": "Obwód mikołajowski", "name:pt": "Oblast de Mikolaiv", "name:ro": "Regiunea Mîkolaiv", "name:ru": "Николаевская область", "name:sh": "Mikolajivska oblast", "name:sk": "Mykolajivská oblasť", "name:sr": "Миколајивска област", "name:sv": "Mykolajiv oblast", "name:tr": "Mıkolayiv Oblastı", "name:uk": "Миколаївська область", "name:vi": "Mykolaiv (tỉnh)", "name:zh": "尼古拉耶夫州", "name:crh": "Mıkolayiv vilâyeti", "name:nan": "Mykolayiv séng", "name:pnb": "میکولائیف اوبلاست", "name:rue": "Миколаївска область", "name:sco": "Mykolaiv Oblast", "name:war": "Mykolaiv Oblast", "name:be-tarask": "Мікалаеўская вобласьць"}}, "center_lat": 47.45, "center_lon": 31.78, "area_m2": 23768194742, "timezone": "Europe/Kiev", "population": 1141324, "wikidata_id": "Q181633", "wikipedia_id": "uk:Миколаївська область"}}