{"type": "Feature", "geometry": {"type": "Polygon", "coordinates": [[[25.347, 50.004], [25.364, 50.046], [25.432, 50.053], [25.454, 50.094], [25.484, 50.114], [25.448, 50.124], [25.449, 50.151], [25.476, 50.166], [25.499, 50.157], [25.554, 50.15], [25.576, 50.176], [25.625, 50.152], [25.685, 50.177], [25.722, 50.173], [25.796, 50.185], [25.822, 50.181], [25.858, 50.191], [25.899, 50.235], [25.935, 50.257], [25.963, 50.256], [26.02, 50.23], [26.065, 50.257], [26.158, 50.232], [26.191, 50.263], [26.216, 50.264], [26.212, 50.23], [26.193, 50.228], [26.179, 50.197], [26.22, 50.18], [26.21, 50.158], [26.274, 50.103], [26.201, 50.098], [26.201, 50.067], [26.226, 50.046], [26.176, 50.025], [26.211, 50.016], [26.202, 49.992], [26.173, 49.994], [26.145, 49.961], [26.166, 49.922], [26.133, 49.898], [26.201, 49.866], [26.178, 49.847], [26.217, 49.81], [26.244, 49.745], [26.214, 49.735], [26.194, 49.71], [26.244, 49.691], [26.269, 49.669], [26.265, 49.642], [26.231, 49.636], [26.202, 49.602], [26.219, 49.551], [26.176, 49.549], [26.144, 49.513], [26.188, 49.481], [26.19, 49.453], [26.229, 49.408], [26.245, 49.369], [26.228, 49.35], [26.226, 49.327], [26.252, 49.309], [26.258, 49.266], [26.237, 49.245], [26.207, 49.246], [26.184, 49.198], [26.203, 49.169], [26.19, 49.158], [26.205, 49.101], [26.183, 49.057], [26.208, 49.036], [26.181, 49], [26.207, 48.958], [26.194, 48.934], [26.214, 48.879], [26.203, 48.855], [26.236, 48.795], [26.239, 48.769], [26.223, 48.751], [26.244, 48.736], [26.23, 48.711], [26.247, 48.668], [26.27, 48.672], [26.294, 48.636], [26.348, 48.585], [26.336, 48.569], [26.386, 48.563], [26.405, 48.545], [26.443, 48.539], [26.384, 48.53], [26.355, 48.507], [26.294, 48.514], [26.268, 48.54], [26.2, 48.526], [26.169, 48.528], [26.147, 48.545], [26.145, 48.598], [26.124, 48.617], [26.096, 48.6], [26.127, 48.554], [26.105, 48.539], [26.044, 48.585], [26.065, 48.605], [26.056, 48.646], [26.034, 48.646], [26.022, 48.611], [25.969, 48.618], [25.934, 48.591], [25.899, 48.589], [25.874, 48.6], [25.802, 48.67], [25.761, 48.666], [25.741, 48.633], [25.703, 48.665], [25.628, 48.673], [25.653, 48.702], [25.618, 48.716], [25.636, 48.751], [25.596, 48.768], [25.561, 48.796], [25.51, 48.805], [25.45, 48.838], [25.469, 48.855], [25.438, 48.872], [25.427, 48.843], [25.367, 48.859], [25.318, 48.847], [25.283, 48.863], [25.236, 48.865], [25.224, 48.931], [25.171, 48.898], [25.172, 48.872], [25.137, 48.871], [25.121, 48.928], [25.146, 48.945], [25.107, 48.979], [25.119, 48.995], [25.054, 48.992], [25.017, 49.011], [24.97, 49.011], [24.903, 49.053], [24.916, 49.083], [24.966, 49.072], [24.985, 49.116], [24.953, 49.126], [24.9, 49.129], [24.857, 49.178], [24.899, 49.215], [24.934, 49.23], [24.87, 49.258], [24.843, 49.263], [24.828, 49.285], [24.836, 49.341], [24.829, 49.385], [24.778, 49.383], [24.771, 49.431], [24.721, 49.497], [24.729, 49.547], [24.721, 49.57], [24.792, 49.573], [24.834, 49.6], [24.886, 49.602], [24.909, 49.615], [24.95, 49.614], [24.983, 49.637], [24.997, 49.697], [25.022, 49.735], [25.072, 49.716], [25.115, 49.746], [25.072, 49.77], [25.087, 49.778], [25.084, 49.828], [25.138, 49.814], [25.145, 49.828], [25.183, 49.837], [25.212, 49.827], [25.246, 49.835], [25.288, 49.828], [25.317, 49.856], [25.375, 49.868], [25.389, 49.897], [25.376, 49.913], [25.401, 49.937], [25.412, 49.97], [25.403, 49.986], [25.347, 50.004]]]}, "properties": {"name": "Ternopil Oblast", "iso2": "UA-61", "admin_level": 4, "osm_id": 72525, "countrylevel_id": "iso2:UA-61", "osm_data": {"localname": "Тернопільська область", "official_name": "", "alltags": {"flag": "http://upload.wikimedia.org/wikipedia/commons/d/dc/Flag_of_Ternopil_Oblast.svg", "koatuu": "6100000000", "ref:en": "TER", "ref:ru": "ТЕР", "name:ar": "تيرنوبل أوبلاست", "name:be": "Цярнопальская вобласць", "name:bg": "Тернополска област", "name:ca": "Província de Ternópill", "name:cs": "Ternopilská oblast", "name:en": "Ternopil Oblast", "name:eo": "Ternopila provinco", "name:es": "Óblast de Ternópil", "name:et": "Ternopili oblast", "name:eu": "Ternopilgo oblasta", "name:fa": "استان ترنوپیل", "name:fi": "Ternopilin alue", "name:fr": "Oblast de Ternopil", "name:he": "מחוז טרנופול", "name:hr": "Ternopiljska oblast", "name:hu": "Ternopili terület", "name:hy": "Տերնոպոլի մարզ", "name:id": "Oblast Ternopil", "name:it": "Oblast' di Ternopil'", "name:ja": "テルノーピリ州", "name:ka": "ტერნოპოლის ოლქი", "name:ko": "테르노필 주", "name:lt": "Ternopilio sritis", "name:lv": "Ternopiļas apgabals", "name:mk": "Тернополска област", "name:mr": "तेर्नोपिल ओब्लास्त", "name:nl": "Oblast Ternopil", "name:nn": "Ternopil oblast", "name:no": "Ternopil oblast", "name:pl": "Obwód tarnopolski", "name:pt": "Oblast de Ternopil", "name:ro": "Regiunea Ternopil", "name:ru": "Тернопольская область", "name:sh": "Ternopiljska oblast", "name:sk": "Ternopiľská oblasť", "name:sr": "Тернопољска област", "name:sv": "Ternopil oblast", "name:tr": "Ternopil Oblastı", "name:uk": "Тернопільська область", "name:vi": "Ternopil (tỉnh)", "name:zh": "捷爾諾波爾州", "name:crh": "Ternopil vilâyeti", "name:nan": "Ternopil séng", "name:pnb": "ترنوپل اوبلاست", "name:rue": "Тернопільска область", "name:sco": "Ternopil Oblast", "name:szl": "Tarnopolski uobwůd", "name:war": "Ternopil Oblast", "name:be-tarask": "Тэрнопальская вобласьць"}}, "center_lat": 49.4, "center_lon": 25.65, "area_m2": 13818894370, "timezone": "Europe/Kiev", "population": 1052312, "wikidata_id": "Q173407", "wikipedia_id": "uk:Тернопільська область"}}