{"type": "Feature", "geometry": {"type": "Polygon", "coordinates": [[[19.142, 41.991], [19.143, 41.991], [19.143, 41.992], [19.145, 41.993], [19.148, 41.993], [19.379, 42.065], [19.373, 41.849], [19.37, 41.849], [19.369, 41.848], [19.338, 41.867], [19.235, 41.907], [19.23, 41.911], [19.228, 41.912], [19.227, 41.913], [19.223, 41.915], [19.22, 41.917], [19.219, 41.917], [19.204, 41.924], [19.203, 41.924], [19.203, 41.923], [19.202, 41.923], [19.202, 41.922], [19.201, 41.922], [19.201, 41.923], [19.2, 41.923], [19.201, 41.924], [19.2, 41.924], [19.197, 41.927], [19.196, 41.927], [19.191, 41.929], [19.19, 41.929], [19.188, 41.928], [19.185, 41.929], [19.185, 41.932], [19.184, 41.931], [19.182, 41.931], [19.182, 41.932], [19.181, 41.934], [19.18, 41.934], [19.178, 41.934], [19.177, 41.935], [19.174, 41.937], [19.171, 41.936], [19.17, 41.937], [19.168, 41.939], [19.165, 41.94], [19.163, 41.94], [19.162, 41.942], [19.142, 41.991]]]}, "properties": {"name": "Ulcinj Municipality", "iso2": "ME-20", "admin_level": 6, "osm_id": 2319538, "countrylevel_id": "iso2:ME-20", "osm_data": {"localname": "Opština Ulcinj", "official_name": "", "alltags": {"name:bg": "Община Ульцинь", "name:bs": "Općina Ulcinj", "name:cs": "Občina Ulcinj", "name:en": "Ulcinj Municipality", "name:es": "Municipio de Ulcinj", "name:fr": "Municipalité d'Ulcinj", "name:hr": "Općina Ulcinj", "name:it": "Dulcigno", "name:lt": "Ulcinio savivaldybė", "name:mk": "Општина Улцињ", "name:ro": "Comuna Ulcinj", "name:ru": "Община Ульцинь", "name:sh": "Opština Ulcinj", "name:sk": "Obec Ulcinj", "name:sl": "Občina Ulcinj", "name:sq": "Komuna e Ulqinit", "name:sr": "Општина Улцињ", "name:sr-Latn": "Opština Ulcinj"}}, "center_lat": 41.97, "center_lon": 19.29, "area_m2": 258834226, "timezone": "Europe/Podgorica", "population": 20106, "wikidata_id": "Q3305169"}}