{"type": "Feature", "geometry": {"type": "Polygon", "coordinates": [[[9.602, 47.584], [9.638, 47.604], [9.671, 47.611], [9.709, 47.602], [9.755, 47.614], [9.827, 47.657], [9.839, 47.674], [9.965, 47.653], [10.001, 47.683], [10.059, 47.681], [10.082, 47.654], [10.13, 47.676], [10.14, 47.704], [10.115, 47.72], [10.116, 47.761], [10.083, 47.771], [10.068, 47.788], [10.134, 47.815], [10.095, 47.851], [10.091, 47.867], [10.11, 47.911], [10.109, 47.939], [10.087, 47.967], [10.115, 47.976], [10.128, 48.033], [10.144, 48.059], [10.136, 48.112], [10.107, 48.132], [10.086, 48.182], [10.085, 48.205], [10.069, 48.223], [10.066, 48.281], [10.012, 48.331], [10.009, 48.344], [9.967, 48.374], [10.014, 48.403], [10.042, 48.43], [10.031, 48.457], [10.064, 48.457], [10.105, 48.478], [10.134, 48.455], [10.178, 48.463], [10.188, 48.477], [10.236, 48.489], [10.255, 48.516], [10.312, 48.523], [10.313, 48.556], [10.297, 48.604], [10.298, 48.624], [10.254, 48.666], [10.282, 48.701], [10.315, 48.684], [10.347, 48.679], [10.351, 48.655], [10.389, 48.667], [10.392, 48.687], [10.414, 48.699], [10.433, 48.661], [10.481, 48.682], [10.465, 48.728], [10.443, 48.731], [10.417, 48.751], [10.42, 48.796], [10.447, 48.812], [10.457, 48.917], [10.41, 48.979], [10.354, 49.005], [10.326, 49.025], [10.252, 49.05], [10.258, 49.07], [10.221, 49.097], [10.23, 49.119], [10.256, 49.138], [10.224, 49.162], [10.199, 49.161], [10.157, 49.193], [10.125, 49.199], [10.126, 49.236], [10.117, 49.264], [10.155, 49.283], [10.103, 49.344], [10.122, 49.388], [10.161, 49.39], [10.134, 49.437], [10.095, 49.448], [10.122, 49.464], [10.083, 49.512], [10.084, 49.544], [10.04, 49.529], [10.053, 49.51], [10.022, 49.488], [9.926, 49.485], [9.914, 49.494], [9.927, 49.536], [9.924, 49.561], [9.875, 49.578], [9.852, 49.545], [9.817, 49.56], [9.849, 49.578], [9.841, 49.595], [9.87, 49.609], [9.855, 49.641], [9.822, 49.666], [9.832, 49.703], [9.796, 49.721], [9.72, 49.703], [9.712, 49.726], [9.677, 49.716], [9.676, 49.693], [9.649, 49.689], [9.626, 49.705], [9.651, 49.766], [9.619, 49.783], [9.56, 49.78], [9.523, 49.761], [9.501, 49.789], [9.462, 49.77], [9.421, 49.789], [9.389, 49.77], [9.313, 49.765], [9.342, 49.734], [9.353, 49.707], [9.419, 49.712], [9.421, 49.691], [9.397, 49.672], [9.416, 49.654], [9.384, 49.643], [9.367, 49.657], [9.335, 49.645], [9.314, 49.654], [9.278, 49.638], [9.259, 49.593], [9.24, 49.581], [9.181, 49.574], [9.159, 49.58], [9.103, 49.578], [9.069, 49.623], [9.102, 49.643], [9.089, 49.669], [9.095, 49.696], [9.128, 49.7], [9.145, 49.747], [9.107, 49.759], [9.128, 49.796], [9.091, 49.791], [9.054, 49.843], [9.023, 49.91], [9.032, 49.925], [9.019, 49.987], [9.045, 49.988], [9.026, 50.043], [8.99, 50.042], [8.998, 50.093], [9.018, 50.112], [9.089, 50.117], [9.121, 50.126], [9.156, 50.111], [9.227, 50.147], [9.307, 50.133], [9.37, 50.132], [9.412, 50.084], [9.478, 50.095], [9.513, 50.094], [9.519, 50.113], [9.507, 50.145], [9.528, 50.168], [9.499, 50.175], [9.511, 50.202], [9.495, 50.227], [9.519, 50.234], [9.58, 50.224], [9.621, 50.224], [9.647, 50.265], [9.703, 50.281], [9.748, 50.314], [9.743, 50.362], [9.76, 50.402], [9.76, 50.425], [9.809, 50.421], [9.823, 50.406], [9.86, 50.397], [9.92, 50.411], [9.986, 50.444], [10.041, 50.495], [10.041, 50.516], [10.098, 50.552], [10.139, 50.543], [10.204, 50.553], [10.23, 50.529], [10.292, 50.496], [10.341, 50.483], [10.336, 50.466], [10.371, 50.432], [10.405, 50.423], [10.391, 50.399], [10.458, 50.383], [10.491, 50.358], [10.555, 50.355], [10.562, 50.337], [10.601, 50.334], [10.592, 50.311], [10.605, 50.293], [10.592, 50.273], [10.611, 50.249], [10.612, 50.224], [10.686, 50.222], [10.724, 50.205], [10.732, 50.252], [10.768, 50.241], [10.845, 50.243], [10.851, 50.265], [10.802, 50.292], [10.763, 50.298], [10.742, 50.316], [10.715, 50.364], [10.749, 50.358], [10.785, 50.385], [10.83, 50.393], [10.899, 50.385], [10.937, 50.392], [10.983, 50.351], [10.994, 50.365], [11.081, 50.352], [11.115, 50.367], [11.16, 50.33], [11.132, 50.312], [11.145, 50.285], [11.184, 50.281], [11.198, 50.292], [11.247, 50.269], [11.261, 50.277], [11.266, 50.352], [11.284, 50.36], [11.269, 50.395], [11.264, 50.443], [11.246, 50.469], [11.257, 50.482], [11.321, 50.489], [11.325, 50.51], [11.347, 50.521], [11.423, 50.516], [11.441, 50.501], [11.423, 50.483], [11.421, 50.443], [11.451, 50.431], [11.482, 50.432], [11.478, 50.401], [11.518, 50.396], [11.553, 50.383], [11.593, 50.403], [11.619, 50.388], [11.727, 50.4], [11.755, 50.416], [11.795, 50.418], [11.819, 50.401], [11.866, 50.401], [11.881, 50.414], [11.92, 50.424], [11.983, 50.386], [11.979, 50.349], [12.101, 50.318], [12.138, 50.275], [12.091, 50.252], [12.109, 50.238], [12.155, 50.229], [12.162, 50.212], [12.201, 50.189], [12.211, 50.159], [12.195, 50.138], [12.2, 50.111], [12.267, 50.078], [12.367, 50.019], [12.424, 50.001], [12.461, 49.995], [12.494, 49.97], [12.47, 49.949], [12.478, 49.936], [12.548, 49.92], [12.551, 49.905], [12.522, 49.882], [12.498, 49.838], [12.473, 49.834], [12.467, 49.786], [12.403, 49.762], [12.413, 49.733], [12.44, 49.706], [12.521, 49.687], [12.53, 49.666], [12.518, 49.643], [12.528, 49.618], [12.562, 49.609], [12.577, 49.586], [12.574, 49.559], [12.602, 49.532], [12.644, 49.521], [12.64, 49.499], [12.658, 49.45], [12.656, 49.435], [12.709, 49.425], [12.758, 49.395], [12.758, 49.375], [12.803, 49.342], [12.88, 49.35], [12.95, 49.343], [12.973, 49.334], [13.029, 49.285], [13.034, 49.264], [13.081, 49.247], [13.086, 49.229], [13.113, 49.219], [13.129, 49.197], [13.177, 49.164], [13.17, 49.144], [13.206, 49.122], [13.236, 49.114], [13.289, 49.119], [13.344, 49.089], [13.392, 49.054], [13.409, 49.003], [13.403, 48.987], [13.495, 48.942], [13.507, 48.969], [13.551, 48.968], [13.58, 48.971], [13.602, 48.943], [13.638, 48.926], [13.671, 48.88], [13.737, 48.88], [13.77, 48.831], [13.815, 48.797], [13.813, 48.774], [13.84, 48.772], [13.819, 48.732], [13.801, 48.717], [13.821, 48.699], [13.814, 48.65], [13.827, 48.628], [13.801, 48.595], [13.807, 48.584], [13.727, 48.513], [13.665, 48.534], [13.653, 48.549], [13.593, 48.57], [13.567, 48.562], [13.508, 48.59], [13.492, 48.569], [13.464, 48.554], [13.445, 48.529], [13.457, 48.51], [13.427, 48.457], [13.44, 48.437], [13.414, 48.377], [13.372, 48.356], [13.332, 48.325], [13.262, 48.295], [13.195, 48.295], [13.117, 48.277], [13.081, 48.277], [13.022, 48.258], [12.959, 48.211], [12.873, 48.202], [12.848, 48.168], [12.8, 48.147], [12.788, 48.125], [12.765, 48.129], [12.749, 48.108], [12.77, 48.066], [12.839, 48.025], [12.86, 47.997], [12.871, 47.966], [12.911, 47.957], [12.944, 47.926], [13.001, 47.854], [12.962, 47.798], [12.94, 47.778], [12.931, 47.745], [12.905, 47.727], [12.933, 47.71], [12.992, 47.711], [13.008, 47.722], [13.046, 47.713], [13.078, 47.688], [13.08, 47.662], [13.096, 47.628], [13.044, 47.583], [13.056, 47.557], [13.042, 47.526], [13.048, 47.492], [13.001, 47.464], [12.909, 47.497], [12.879, 47.522], [12.795, 47.557], [12.78, 47.579], [12.807, 47.61], [12.789, 47.633], [12.732, 47.68], [12.666, 47.681], [12.655, 47.672], [12.603, 47.672], [12.575, 47.632], [12.536, 47.636], [12.512, 47.625], [12.465, 47.65], [12.429, 47.696], [12.364, 47.684], [12.337, 47.697], [12.278, 47.688], [12.241, 47.694], [12.265, 47.733], [12.183, 47.701], [12.167, 47.682], [12.198, 47.643], [12.208, 47.614], [12.193, 47.605], [12.179, 47.614], [12.14, 47.605], [12.082, 47.61], [12.064, 47.619], [12.02, 47.612], [12.013, 47.623], [11.865, 47.602], [11.847, 47.582], [11.781, 47.591], [11.7, 47.589], [11.605, 47.58], [11.572, 47.515], [11.506, 47.505], [11.442, 47.516], [11.392, 47.482], [11.415, 47.447], [11.339, 47.45], [11.291, 47.427], [11.272, 47.398], [11.222, 47.397], [11.253, 47.428], [11.205, 47.434], [11.128, 47.412], [11.115, 47.396], [11.006, 47.394], [10.97, 47.4], [10.984, 47.43], [10.91, 47.486], [10.871, 47.482], [10.87, 47.498], [10.906, 47.517], [10.89, 47.537], [10.853, 47.533], [10.778, 47.514], [10.751, 47.537], [10.695, 47.545], [10.677, 47.559], [10.635, 47.559], [10.598, 47.57], [10.573, 47.534], [10.489, 47.54], [10.454, 47.556], [10.431, 47.504], [10.464, 47.481], [10.476, 47.433], [10.439, 47.414], [10.431, 47.384], [10.397, 47.377], [10.386, 47.356], [10.357, 47.337], [10.33, 47.305], [10.282, 47.288], [10.178, 47.27], [10.172, 47.279], [10.216, 47.311], [10.2, 47.326], [10.237, 47.374], [10.182, 47.392], [10.17, 47.371], [10.119, 47.376], [10.1, 47.355], [10.071, 47.408], [10.106, 47.429], [10.091, 47.459], [10.07, 47.456], [10.037, 47.489], [10.001, 47.482], [9.996, 47.503], [9.959, 47.535], [9.923, 47.53], [9.88, 47.548], [9.853, 47.54], [9.816, 47.548], [9.827, 47.58], [9.802, 47.596], [9.767, 47.589], [9.73, 47.534], [9.713, 47.55], [9.651, 47.558], [9.602, 47.584]], [[10.454, 47.556], [10.473, 47.571], [10.462, 47.586], [10.429, 47.578], [10.454, 47.556]]]}, "properties": {"name": "Bavaria", "iso2": "DE-BY", "admin_level": 4, "osm_id": 2145268, "countrylevel_id": "iso2:DE-BY", "osm_data": {"localname": "Bayern", "official_name": "Freistaat Bayern", "alltags": {"name:af": "Beiere", "name:am": "ባቫሪያ", "name:an": "Bavera", "name:ar": "بفاريا", "name:ay": "Bayern suyu", "name:az": "Bavariya", "name:ba": "Бавария", "name:be": "Баварыя", "name:bg": "Бавария", "name:bn": "বায়ার্ন", "name:br": "Bavaria", "name:bs": "Bavarska", "name:ca": "Baviera", "name:ce": "Бавари", "name:cs": "Bavorsko", "name:cv": "Бавари", "name:cy": "Bafaria", "name:el": "Βαυαρία", "name:en": "Bavaria", "name:eo": "Bavarujo", "name:es": "Baviera", "name:et": "Baieri", "name:eu": "Bavaria", "name:fa": "بایرن", "name:fi": "Baijeri", "name:fr": "Bavière", "name:fy": "Beieren", "name:ga": "An Bhaváir", "name:gd": "A' Bhaidhearn", "name:gl": "Baviera", "name:gn": "Baviera", "name:gv": "Yn Vaveyr", "name:he": "בוואריה", "name:hi": "बायर्न", "name:hr": "Bavarska", "name:hu": "Bajorország", "name:hy": "Բավարիա", "name:ia": "Bavaria", "name:ie": "Bavaria", "name:io": "Bavaria", "name:is": "Bæjaraland", "name:it": "Baviera", "name:ja": "バイエルン州", "name:ka": "ბავარია", "name:kg": "Bavaria", "name:kk": "Бавария", "name:ko": "바이에른 주", "name:ky": "Бавария", "name:la": "Bavaria", "name:li": "Beiere", "name:lt": "Bavarija", "name:lv": "Bavārija", "name:mk": "Баварија", "name:ml": "ബവേറിയ", "name:mn": "Бавар", "name:mr": "बायर्न", "name:ms": "Bavaria", "name:mt": "Bavarja", "name:nl": "Beieren", "name:oc": "Bavièra", "name:os": "Бавари", "name:pa": "ਬਾਈਆਨ", "name:pl": "Bawaria", "name:pt": "Baviera", "name:rm": "Baviera", "name:ro": "Bavaria", "name:ru": "Бавария", "name:sc": "Baviera", "name:sk": "Bavorsko", "name:sl": "Bavarska", "name:sq": "Bavaria", "name:sr": "Баварска", "name:sw": "Bavaria", "name:ta": "பவேரியா", "name:te": "బవేరియా", "name:th": "รัฐบาวาเรีย", "name:tk": "Bawariýa", "name:tl": "Baviera", "name:tr": "Bavyera", "name:tt": "Бавария", "name:uk": "Баварія", "name:ur": "بواریا", "name:uz": "Bavariya", "name:vo": "Bayän", "name:yi": "בייערן", "name:yo": "Bavaria", "name:zh": "巴伐利亚", "int_name": "Bavaria", "name:hsb": "Bayerska", "alt_name:eo": "Bavario", "border_type": "state", "name:prefix": "Freistaat", "old_name:cs": "Bavory", "official_name": "Freistaat Bayern", "official_name:ar": "ولاية بفاريا الحرة", "official_name:cs": "Svobodný stát Bavorsko", "official_name:en": "Free State of Bavaria", "official_name:sk": "Slobodný štát Bavorsko", "official_name:sr": "Слободна Држава Баварска", "TMC:cid_58:tabcd_1:Class": "Area", "TMC:cid_58:tabcd_1:LCLversion": "12.0", "TMC:cid_58:tabcd_1:LocationCode": "264"}}, "center_lat": 48.95, "center_lon": 11.42, "area_m2": 70477783362, "timezone": "Europe/Berlin", "population": 12930751, "wikidata_id": "Q980", "wikipedia_id": "de:Bayern"}}