{"type": "Feature", "geometry": {"type": "Polygon", "coordinates": [[[5.953, 51.748], [5.991, 51.766], [5.979, 51.798], [5.945, 51.824], [5.988, 51.831], [6.055, 51.852], [6.167, 51.841], [6.167, 51.862], [6.138, 51.885], [6.157, 51.905], [6.215, 51.868], [6.28, 51.874], [6.306, 51.849], [6.347, 51.851], [6.364, 51.835], [6.407, 51.829], [6.412, 51.871], [6.465, 51.855], [6.586, 51.894], [6.675, 51.916], [6.722, 51.896], [6.77, 51.916], [6.794, 51.935], [6.799, 51.959], [6.829, 51.964], [6.827, 51.994], [6.753, 52.028], [6.688, 52.04], [6.696, 52.07], [6.751, 52.085], [6.761, 52.119], [6.855, 52.12], [6.882, 52.156], [6.912, 52.177], [6.951, 52.181], [6.981, 52.221], [7.019, 52.225], [7.066, 52.241], [7.099, 52.243], [7.121, 52.261], [7.156, 52.266], [7.298, 52.264], [7.317, 52.28], [7.362, 52.288], [7.386, 52.309], [7.426, 52.314], [7.438, 52.333], [7.53, 52.37], [7.571, 52.38], [7.604, 52.421], [7.571, 52.432], [7.604, 52.475], [7.683, 52.458], [7.703, 52.433], [7.714, 52.401], [7.807, 52.371], [7.843, 52.369], [7.892, 52.381], [7.937, 52.365], [7.949, 52.335], [7.989, 52.303], [7.932, 52.302], [7.922, 52.253], [7.926, 52.225], [7.903, 52.199], [7.933, 52.177], [8.005, 52.176], [8.008, 52.115], [7.9, 52.092], [7.892, 52.081], [7.917, 52.052], [7.981, 52.036], [7.993, 52.049], [8.067, 52.068], [8.096, 52.057], [8.135, 52.073], [8.196, 52.074], [8.209, 52.096], [8.247, 52.122], [8.285, 52.134], [8.405, 52.111], [8.406, 52.131], [8.471, 52.156], [8.517, 52.185], [8.452, 52.203], [8.466, 52.268], [8.461, 52.317], [8.442, 52.361], [8.394, 52.384], [8.312, 52.407], [8.322, 52.426], [8.297, 52.455], [8.348, 52.452], [8.361, 52.443], [8.429, 52.448], [8.455, 52.461], [8.46, 52.491], [8.509, 52.515], [8.558, 52.5], [8.652, 52.531], [8.695, 52.51], [8.709, 52.477], [8.711, 52.407], [8.747, 52.388], [8.788, 52.399], [8.853, 52.389], [8.896, 52.406], [8.934, 52.401], [8.988, 52.445], [9.012, 52.457], [9.053, 52.5], [9.134, 52.484], [9.095, 52.443], [9.123, 52.423], [9.124, 52.406], [9.097, 52.386], [9.097, 52.371], [9.059, 52.339], [9.025, 52.337], [8.988, 52.312], [8.975, 52.263], [9.036, 52.249], [9.077, 52.234], [9.046, 52.211], [9.046, 52.183], [9.012, 52.161], [9.018, 52.132], [9.067, 52.15], [9.088, 52.136], [9.145, 52.135], [9.136, 52.106], [9.177, 52.086], [9.177, 52.034], [9.192, 52.01], [9.176, 51.981], [9.186, 51.966], [9.265, 51.977], [9.272, 51.934], [9.294, 51.919], [9.332, 51.917], [9.362, 51.865], [9.437, 51.856], [9.448, 51.793], [9.397, 51.758], [9.379, 51.738], [9.401, 51.706], [9.379, 51.664], [9.386, 51.646], [9.441, 51.65], [9.42, 51.629], [9.376, 51.626], [9.337, 51.615], [9.369, 51.591], [9.317, 51.553], [9.308, 51.512], [9.282, 51.514], [9.185, 51.466], [9.16, 51.443], [9.103, 51.443], [9.077, 51.465], [9.092, 51.487], [9.077, 51.503], [9.039, 51.502], [9.02, 51.519], [8.901, 51.489], [8.894, 51.472], [8.944, 51.43], [8.939, 51.389], [8.89, 51.393], [8.854, 51.377], [8.804, 51.391], [8.73, 51.372], [8.701, 51.377], [8.621, 51.336], [8.585, 51.298], [8.556, 51.277], [8.598, 51.247], [8.628, 51.261], [8.721, 51.275], [8.758, 51.177], [8.695, 51.137], [8.718, 51.109], [8.658, 51.095], [8.551, 51.104], [8.502, 51.079], [8.527, 51.063], [8.53, 51.013], [8.458, 50.966], [8.449, 50.94], [8.459, 50.92], [8.427, 50.913], [8.388, 50.892], [8.367, 50.863], [8.305, 50.861], [8.271, 50.882], [8.231, 50.851], [8.188, 50.829], [8.166, 50.804], [8.127, 50.788], [8.167, 50.736], [8.142, 50.695], [8.126, 50.686], [8.099, 50.704], [8.039, 50.697], [8.038, 50.728], [7.968, 50.775], [7.976, 50.821], [7.967, 50.844], [7.906, 50.848], [7.882, 50.874], [7.829, 50.882], [7.85, 50.925], [7.793, 50.942], [7.75, 50.919], [7.76, 50.9], [7.749, 50.867], [7.679, 50.81], [7.663, 50.773], [7.599, 50.767], [7.581, 50.738], [7.551, 50.747], [7.479, 50.718], [7.437, 50.71], [7.373, 50.715], [7.359, 50.697], [7.372, 50.682], [7.357, 50.648], [7.27, 50.626], [7.19, 50.624], [7.12, 50.612], [7.091, 50.586], [7.049, 50.603], [6.998, 50.565], [6.922, 50.554], [6.909, 50.526], [6.903, 50.475], [6.868, 50.456], [6.812, 50.472], [6.801, 50.492], [6.759, 50.475], [6.765, 50.451], [6.746, 50.436], [6.784, 50.421], [6.77, 50.397], [6.785, 50.374], [6.771, 50.361], [6.71, 50.344], [6.667, 50.372], [6.65, 50.348], [6.622, 50.353], [6.624, 50.375], [6.603, 50.388], [6.559, 50.369], [6.53, 50.369], [6.484, 50.338], [6.461, 50.359], [6.384, 50.384], [6.404, 50.345], [6.405, 50.323], [6.398, 50.346], [6.343, 50.381], [6.37, 50.41], [6.377, 50.441], [6.341, 50.462], [6.342, 50.484], [6.309, 50.501], [6.27, 50.505], [6.23, 50.497], [6.197, 50.53], [6.21, 50.554], [6.235, 50.565], [6.249, 50.605], [6.268, 50.618], [6.267, 50.642], [6.187, 50.641], [6.115, 50.722], [6.033, 50.727], [6.021, 50.754], [6.021, 50.755], [6.026, 50.776], [6.004, 50.801], [6.025, 50.814], [6.019, 50.846], [6.074, 50.847], [6.088, 50.872], [6.075, 50.893], [6.092, 50.918], [6.018, 50.935], [6.017, 50.983], [5.969, 50.979], [5.955, 50.988], [5.905, 50.975], [5.906, 51.002], [5.879, 51.018], [5.887, 51.052], [5.913, 51.067], [5.938, 51.035], [5.968, 51.045], [5.97, 51.061], [6.01, 51.091], [6.035, 51.096], [6.092, 51.135], [6.163, 51.153], [6.139, 51.173], [6.082, 51.172], [6.068, 51.221], [6.073, 51.243], [6.124, 51.275], [6.169, 51.329], [6.226, 51.36], [6.205, 51.4], [6.224, 51.475], [6.212, 51.513], [6.177, 51.539], [6.157, 51.567], [6.091, 51.606], [6.109, 51.647], [6.088, 51.66], [6.037, 51.673], [6.029, 51.726], [5.953, 51.748]]]}, "properties": {"name": "North Rhine-Westphalia", "iso2": "DE-NW", "admin_level": 4, "osm_id": 62761, "countrylevel_id": "iso2:DE-NW", "osm_data": {"localname": "Nordrhein-Westfalen", "official_name": "", "alltags": {"name:af": "Noordryn-Wesfale", "name:an": "Renania d'o Norte-Westfalia", "name:ar": "شمال الراين-وستفاليا", "name:az": "Şimali Reyn-Vestfaliya", "name:be": "Паўночны Рэйн-Вестфалія", "name:bg": "Северен Рейн-Вестфалия", "name:br": "Nordrhein-Westfalen", "name:bs": "Sjeverna Rajna-Vestfalija", "name:ca": "Rin del Nord - Westfàlia", "name:co": "Nordu Renu-Westfalia", "name:cs": "Severní Porýní-Vestfálsko", "name:cv": "Çурçĕр Рейн-Вестфали", "name:el": "Βόρεια Ρηνανία-Βεστφαλία", "name:en": "North Rhine-Westphalia", "name:eo": "Nordrejn-Vestfalio", "name:es": "Renania del Norte-Westfalia", "name:eu": "Ipar Renania-Westfalia", "name:fa": "نوردراین-وستفالن", "name:fr": "Rhénanie-du-Nord-Westphalie", "name:fy": "Noardryn-Westfalen", "name:ga": "Tuaisceart na Réine agus an Viostfáil", "name:gl": "Renania do Norte-Westfalia", "name:gv": "Yn Rhine Hwoaie-Westfalen", "name:he": "נורדריין-וסטפאליה", "name:hr": "Sjeverna Rajna - Vestfalija", "name:hu": "Észak-Rajna–Vesztfália", "name:ia": "Rhenania del Nord - Westfalia", "name:ie": "Nordrhein-Vestfalia", "name:io": "Nordrheno-Vestfalia", "name:is": "Norðurrín-Vestfalía", "name:it": "Renania Settentrionale-Vestfalia", "name:ja": "ノルトライン＝ヴェストファーレン州", "name:ka": "ჩრდილოეთი რაინ-ვესტფალია", "name:ko": "노르트라인베스트팔렌 주", "name:la": "Rhenania Septentrionalis-Vestfalia", "name:li": "Noordrien-Wesfale", "name:lt": "Šiaurės Reinas-Vestfalija", "name:lv": "Ziemeļreina-Vestfālene", "name:mk": "Северна Рајна-Вестфалија", "name:mr": "नोर्डर्हाइन-वेस्टफालन", "name:nl": "Noordrijn-Westfalen", "name:oc": "Ren del Nòrd-Vestfàlia", "name:os": "Цæгат Рейн-Вестфали", "name:pl": "Nadrenia Północna-Westfalia", "name:pt": "Renânia do Norte-Vestfália", "name:rm": "Nord Rain-Vestfalia", "name:ro": "Renania de Nord-Westfalia", "name:ru": "Северный Рейн-Вестфалия", "name:sh": "Sjeverna Rajna-Vestfalija", "name:sk": "Severné Porýnie - Westfálsko", "name:sl": "Severno Porenje-Vestfalija", "name:sr": "Северна Рајна-Вестфалија", "name:sw": "Rhine Kaskazini-Westfalia", "name:th": "รัฐนอร์ดไรน์-เวสท์ฟาเลิน", "name:tr": "Kuzey Ren-Vestfalya", "name:uk": "Північний Рейн — Вестфалія", "name:vo": "Nolüdarinän-Vesfalän", "name:zh": "北莱茵-威斯特法伦州", "name:dsb": "Pódpołnocna Poryńska-Westfalska", "name:frr": "Nordrhin-Weestfåålen", "name:hsb": "Sewjernorynsko-Westfalska", "name:ilo": "Amiananhayn Lumauwalen", "name:ksh": "Noordrhing-Wääßfaale", "name:lij": "Renania do Nòrd-Vestfall-ia", "name:lmo": "Nord Reno-Westfalia", "name:nah": "Rhein Mictlāmpa-Westfalen", "name:nap": "Nord Reno-Westfalia", "name:nds": "Noordrhien-Westfalen", "name:pdc": "Nordrhoi-Wessfoale", "name:pfl": "Nordrhoi-Weschdfaale", "name:pms": "Nòrd Ren-Westfalia", "name:pnb": "اتلا رائین لیندا فالی", "name:sco": "North Rhine-Westphalie", "name:stq": "Noudrhien-Wäästfoalen", "name:vec": "Nord Reno-Westfalia", "admin_title": "federal state", "name:nds-nl": "Noordrhain-Westfele", "name:prefix": "Bundesland", "admin_title:de": "Bundesland", "name:be-tarask": "Паўночны Райн-Вэстфалія", "TMC:cid_58:tabcd_1:Class": "Area", "TMC:cid_58:tabcd_1:LCLversion": "12.0", "TMC:cid_58:tabcd_1:LocationCode": "260"}}, "center_lat": 51.48, "center_lon": 7.56, "area_m2": 34060974626, "timezone": "Europe/Berlin", "population": 17932651, "wikidata_id": "Q1198", "wikipedia_id": "de:Nordrhein-Westfalen"}}