{"type": "Feature", "geometry": {"type": "Polygon", "coordinates": [[[47.52, 45.661], [46.814, 45.565], [46.478, 45.7], [46.449, 46.178], [46.663, 46.441], [46.865, 46.457], [46.962, 46.974], [46.739, 47.074], [46.536, 47.403], [46.008, 47.565], [45.55, 47.994], [44.961, 48.271], [45.015, 48.425], [45.806, 48.683], [46.038, 48.864], [46.622, 48.668], [46.493, 48.433], [47.111, 48.234], [47.05, 47.998], [47.194, 47.761], [48.112, 47.745], [48.452, 47.412], [48.996, 46.743], [48.549, 46.711], [48.545, 46.563], [49.163, 46.383], [49.314, 46.273], [49.216, 45.991], [48.75, 45.87], [48.73, 45.617], [48.396, 45.593], [48.287, 45.73], [47.721, 45.494], [47.52, 45.661]]]}, "properties": {"name": "Astrakhan Oblast", "iso2": "RU-AST", "admin_level": 4, "osm_id": 112819, "countrylevel_id": "iso2:RU-AST", "osm_data": {"localname": "Астраханская область", "official_name": "", "alltags": {"int_ref": "RU-AST", "name:az": "Həştərxan vilayəti", "name:ba": "Әстрәхан өлкәһе", "name:be": "Астраханская вобласць", "name:ca": "Província d'Àstrakhan", "name:ce": "Астраханан область", "name:cs": "Astrachaňská oblast", "name:cv": "Аçтăрхан облаçĕ", "name:da": "Astrakhan oblast", "name:el": "Περιφέρεια Άστραχαν", "name:en": "Astrakhan Oblast", "name:es": "Óblast de Astracán", "name:et": "Astrahani oblast", "name:fi": "Astrahanin alue", "name:fr": "Oblast d'Astrakhan", "name:he": "מחוז אסטרחן", "name:hi": "आस्त्राख़ान ओब्लास्त", "name:hu": "Asztraháni terület", "name:hy": "Աստրախանի մարզ", "name:id": "Oblast Astrakhan", "name:is": "Astrakanfylki", "name:it": "Oblast' di Astrachan'", "name:ja": "アストラハン州", "name:ka": "ასტრახანის ოლქი", "name:kk": "Астрахан облысы", "name:kv": "Астрахань обласьт", "name:lt": "Astrachanės sritis", "name:lv": "Astrahaņas apgabals", "name:nl": "Oblast Astrachan", "name:pl": "Obwód astrachański", "name:pt": "Oblast de Astracã", "name:ro": "Regiunea Astrahan", "name:ru": "Астраханская область", "name:sh": "Astrahanska oblast", "name:sk": "Astrachánska oblasť", "name:sl": "Astrahanska oblast", "name:sr": "Астраханска област", "name:sv": "Astrachan oblast", "name:sw": "Astrakhan Oblast", "name:tg": "Вилояти Астрахан", "name:tr": "Astrahan Oblastı", "name:tt": "Әстерхан өлкәсе", "name:uk": "Астраханська область", "name:uz": "Astraxan viloyati", "name:zh": "阿斯特拉罕州", "name:mhr": "Астрахань вел", "name:myv": "Астраханонь ёнкс", "name:sah": "Астрахан уобалаhа", "name:xal": "Әәдрхнә төгәлң", "border_type": "region", "addr:country": "RU", "gost_7.67-2003": "РОФ-АСТ", "name:be-tarask": "Астраханская вобласьць"}}, "center_lat": 47.02, "center_lon": 47.31, "area_m2": 52841464777, "timezone": "Europe/Volgograd", "population": 1014065, "wikidata_id": "Q3941", "wikipedia_id": "ru:Астраханская область"}}