{"type": "Feature", "geometry": {"type": "Polygon", "coordinates": [[[85.116, 54.438], [85.418, 54.186], [85.749, 54.163], [86.124, 53.981], [86.184, 53.812], [86.539, 53.528], [86.887, 53.396], [86.644, 53.181], [87.053, 53.042], [86.912, 52.847], [87.127, 52.615], [86.782, 52.604], [86.642, 52.403], [86.726, 52.139], [86.403, 52.036], [85.919, 52.106], [85.854, 51.891], [85.444, 51.563], [84.996, 51.514], [84.199, 51.238], [84.121, 51.071], [84.491, 50.948], [84.394, 50.706], [84.08, 50.64], [83.649, 50.955], [83.202, 50.993], [82.567, 50.747], [81.885, 50.804], [81.449, 50.756], [81.413, 50.976], [81.177, 51.162], [80.678, 51.317], [80.447, 51.208], [80.482, 50.969], [80.076, 50.738], [79.347, 51.709], [79.187, 51.923], [77.907, 53.291], [77.91, 53.572], [78.645, 53.513], [78.792, 53.658], [79.422, 53.678], [79.624, 53.795], [80.797, 54.258], [81.127, 54.117], [81.833, 53.964], [81.715, 53.777], [82.337, 53.528], [83.198, 54.066], [84.46, 54.146], [85.116, 54.438]]]}, "properties": {"name": "Altai Krai", "iso2": "RU-ALT", "admin_level": 4, "osm_id": 144764, "countrylevel_id": "iso2:RU-ALT", "osm_data": {"localname": "Алтайский край", "official_name": "", "alltags": {"int_ref": "RU-ALT", "name:ar": "كراي ألطاي", "name:ca": "Territori de l'Altai", "name:cs": "Altajský kraj", "name:en": "Altai Krai", "name:es": "Krai de Altái", "name:fr": "Kraï de l'Altaï", "name:hu": "Altaji határterület", "name:it": "Territorio dell'Altaj", "name:ja": "アルタイ地方", "name:pl": "Kraj Ałtajski", "name:ru": "Алтайский край", "name:sk": "Altajský kraj", "population": "2376774", "alt_name:ar": "كراي ألتاي", "addr:country": "RU", "is_in:country": "Russia", "gost_7.67-2003": "РОФ-АЛТ", "is_in:continent": "Asia", "population:date": "2016", "is_in:country_code": "RU"}}, "center_lat": 52.61, "center_lon": 82.61, "area_m2": 167708612897, "timezone": "Asia/Barnaul", "population": 2317052, "wikidata_id": "Q5942", "wikipedia_id": "ru:Алтайский край"}}