{"type": "Feature", "geometry": {"type": "Polygon", "coordinates": [[[31.361, 53.093], [31.645, 53.22], [32.095, 53.076], [32.414, 53.186], [32.763, 53.424], [33.507, 54.016], [33.806, 53.896], [34.201, 53.912], [34.497, 53.672], [34.644, 53.381], [35.141, 53.279], [35.24, 52.995], [34.83, 52.864], [35.071, 52.669], [34.924, 52.37], [34.743, 52.088], [34.386, 51.843], [33.785, 52.367], [33.429, 52.346], [32.996, 52.272], [32.55, 52.327], [32.066, 52.035], [31.782, 52.112], [31.623, 52.309], [31.59, 52.791], [31.361, 53.093]]]}, "properties": {"name": "Bryansk Oblast", "iso2": "RU-BRY", "admin_level": 4, "osm_id": 81997, "countrylevel_id": "iso2:RU-BRY", "osm_data": {"localname": "Брянская область", "official_name": "", "alltags": {"int_ref": "RU-BRY", "name:ar": "أوبلاست بريانسك", "name:az": "Bryansk vilayəti", "name:ba": "Брянск өлкәһе", "name:be": "Бранская вобласць", "name:ca": "Província de Briansk", "name:cs": "Brjanská oblast", "name:el": "Περιφέρεια Μπριάνσκ", "name:en": "Bryansk Oblast", "name:es": "Óblast de Briansk", "name:et": "Brjanski oblast", "name:eu": "Briansk oblasta", "name:fr": "Oblast de Briansk", "name:hu": "Brjanszki terület", "name:hy": "Բրյանսկի մարզ", "name:ja": "ブリャンスク州", "name:ka": "ბრიანსკის ოლქი", "name:kv": "Брянск обласьт", "name:lt": "Briansko sritis", "name:lv": "Brjanskas apgabals", "name:nl": "Oblast Brjansk", "name:os": "Брянсчы облæст", "name:pl": "Obwód briański", "name:ro": "Regiunea Briansk", "name:ru": "Брянская область", "name:sh": "Brjanska oblast", "name:sk": "Brianska oblasť", "name:sr": "Брјанска област", "name:tr": "Bryansk Oblastı", "name:tt": "Брянск өлкәсе", "name:uk": "Брянська область", "name:zh": "布良斯克州", "name:sah": "Брянскай уобалас", "name:xal": "Бряна төгәлң", "border_type": "region", "addr:country": "RU", "is_in:country": "Russia", "gost_7.67-2003": "РОФ-БРЯ", "name:be-tarask": "Бранская вобласьць", "is_in:continent": "Europe", "is_in:country_code": "RU"}}, "center_lat": 52.91, "center_lon": 33.42, "area_m2": 34854718656, "timezone": "Europe/Moscow", "population": 1210982, "wikidata_id": "Q2810", "wikipedia_id": "ru:Брянская область"}}