{"type": "Feature", "geometry": {"type": "Polygon", "coordinates": [[[33.762, 44.389], [33.827, 44.571], [33.567, 44.838], [33.602, 45.004], [32.97, 45.352], [32.652, 45.315], [32.5, 45.423], [32.9, 45.634], [33.678, 45.905], [33.615, 46.135], [33.759, 46.192], [34.036, 46.114], [34.037, 46.114], [34.474, 45.945], [34.775, 45.732], [34.967, 45.759], [34.975, 45.762], [35.39, 45.345], [35.825, 45.438], [36.53, 45.427], [36.444, 45.087], [35.841, 44.999], [35.618, 45.127], [35.158, 44.894], [34.457, 44.71], [34.128, 44.429], [33.762, 44.389]]]}, "properties": {"name": "Republic of Crimea", "iso2": "RU-CR", "admin_level": 4, "osm_id": 3795586, "countrylevel_id": "iso2:RU-CR", "osm_data": {"localname": "Республика Крым", "official_name": "", "alltags": {"note_2": "временно оккупированная територия", "name:ar": "جمهورية القرم", "name:be": "Рэспубліка Крым", "name:ca": "República de Crimea", "name:cs": "Republika Krym", "name:el": "Δημοκρατία της Κριμαίας", "name:en": "Republic of Crimea", "name:eo": "Respubliko Krimeo", "name:es": "República de Crimea", "name:eu": "Krimeako Errepublika", "name:fr": "République de Crimée", "name:hu": "Krími Köztársaság", "name:ja": "クリミア共和国", "name:nl": "Republiek de Krim", "name:pl": "Republika Krymu", "name:pt": "República da Crimeia", "name:ru": "Республика Крым", "name:sk": "Republika Krym", "name:sr": "Република Крим", "name:tr": "Kırım Cumhuriyeti", "name:tt": "Кырым Җөмһүрияте", "name:uk": "Республіка Крим", "name:vi": "Cộng hòa Krym", "name:zh": "克里米亚共和国", "note:de": "Von Russland 2014 besetztes Gebiet", "name:crh": "Qırım Cumhuriyeti", "name:hsb": "Republika Krim", "addr:country": "RU", "name:crh-cyr": "Къырым Джумхуриети", "wikipedia:ru": "Республика Крым", "wikipedia:uk": "Республіка Крим", "description:de": "Teilweise massiver Grenzzaun seit Dez. 2018", "name:be-tarask": "Рэспубліка Крым"}}, "center_lat": 45.32, "center_lon": 34.35, "area_m2": 24963474093, "timezone": "Europe/Simferopol", "population": 1913731, "wikidata_id": "Q15966495", "wikipedia_id": "ru:Республика Крым"}}