{"type": "Feature", "geometry": {"type": "Polygon", "coordinates": [[[34.386, 51.843], [34.743, 52.088], [34.924, 52.37], [35.431, 52.427], [35.712, 52.255], [36.299, 52.381], [36.496, 52.232], [37.425, 51.935], [37.738, 52.019], [38.05, 51.888], [38.293, 51.966], [38.429, 51.945], [38.289, 51.296], [37.986, 51.42], [37.384, 51.385], [36.666, 51.086], [36.063, 51.16], [35.865, 50.959], [35.352, 50.973], [34.951, 51.227], [34.238, 51.292], [34.308, 51.515], [34.13, 51.689], [34.386, 51.843]]]}, "properties": {"name": "Kursk Oblast", "iso2": "RU-KRS", "admin_level": 4, "osm_id": 72223, "countrylevel_id": "iso2:RU-KRS", "osm_data": {"localname": "Курская область", "official_name": "", "alltags": {"int_ref": "RU-KRS", "name:az": "Kursk vilayəti", "name:ba": "Курск өлкәһе", "name:be": "Курская вобласць", "name:ca": "Província de Kursk", "name:ce": "Курскан область", "name:cs": "Kurská oblast", "name:cv": "Курск облаçĕ", "name:en": "Kursk Oblast", "name:fr": "Oblast de Koursk", "name:he": "מחוז קורסק", "name:hu": "Kurszki terület", "name:hy": "Կուրսկի մարզ", "name:ka": "კურსკის ოლქი", "name:kv": "Курск обласьт", "name:nl": "Oblast Koersk", "name:os": "Курсчы облæст", "name:pl": "Obwód kurski", "name:pt": "Oblast de Kursk", "name:ro": "Regiunea Kursk", "name:ru": "Курская область", "name:sk": "Kurská oblasť", "name:tr": "Kursk Oblastı", "name:tt": "Курск өлкәсе", "name:uk": "Курська область", "name:kbd": "Курск област", "name:mhr": "Курск вел", "name:myv": "Курскоень ёнкс", "name:sah": "Курскай уобалас", "name:xal": "Курска төгәлң", "border_type": "region", "addr:country": "RU", "gost_7.67-2003": "РОФ-КУС", "name:be-tarask": "Курская вобласьць"}}, "center_lat": 51.68, "center_lon": 36.1, "area_m2": 29955822388, "timezone": "Europe/Moscow", "population": 1115237, "wikidata_id": "Q3178", "wikipedia_id": "ru:Курская область"}}