{"type": "Feature", "geometry": {"type": "Polygon", "coordinates": [[[84.448, 56.042], [85.802, 56.34], [86.339, 56.636], [87.118, 56.536], [87.702, 56.552], [88.424, 56.834], [88.597, 56.802], [88.593, 56.431], [89.04, 56.3], [89.401, 55.856], [88.903, 55.645], [88.601, 55.427], [88.441, 55.305], [88.754, 54.791], [88.504, 54.416], [88.906, 54.403], [89.217, 54.25], [89.007, 54.001], [89.038, 53.786], [88.911, 53.392], [89.076, 53.155], [88.936, 53.046], [89.219, 52.858], [89.11, 52.588], [88.377, 52.178], [88.442, 52.336], [87.931, 52.536], [87.653, 52.422], [87.127, 52.615], [86.912, 52.847], [87.053, 53.042], [86.644, 53.181], [86.887, 53.396], [86.539, 53.528], [86.184, 53.812], [86.124, 53.981], [85.749, 54.163], [85.418, 54.186], [85.116, 54.438], [84.902, 54.727], [84.927, 55.164], [84.742, 55.643], [84.54, 55.718], [84.448, 56.042]]]}, "properties": {"name": "Kemerovo Oblast", "iso2": "RU-KEM", "admin_level": 4, "osm_id": 144763, "countrylevel_id": "iso2:RU-KEM", "osm_data": {"localname": "Кемеровская область", "official_name": "Кемеровская область — Кузбасс", "alltags": {"int_ref": "RU-KEM", "name:ar": "أوبلاست كيمروفسكايا", "name:ca": "Província de Kémerovo", "name:cs": "Kemerovská oblast", "name:en": "Kemerovo Oblast", "name:es": "Kémerovo", "name:fr": "Oblast de Kemerovo", "name:hu": "Kemerovói terület", "name:ja": "ケメロヴォ州", "name:pl": "Obwód kemerowski", "name:ru": "Кемеровская область", "name:sk": "Kemerovská oblasť", "alt_name": "Кузбасс", "addr:country": "RU", "is_in:country": "Russia", "official_name": "Кемеровская область — Кузбасс", "gost_7.67-2003": "РОФ-КЕМ", "is_in:continent": "Asia", "official_status": "ru:область", "official_name:ru": "Кемеровская область — Кузбасс", "is_in:country_code": "RU"}}, "center_lat": 54.78, "center_lon": 87.21, "area_m2": 95590439638, "timezone": "Asia/Novokuznetsk", "population": 2657758, "wikidata_id": "Q6076", "wikipedia_id": "ru:Кемеровская область"}}