{"type": "Feature", "geometry": {"type": "Polygon", "coordinates": [[[36.553, 63.951], [36.455, 63.626], [36.192, 63.426], [36.258, 63.012], [36.528, 62.793], [37.071, 62.649], [37.369, 62.678], [37.635, 62.477], [37.944, 61.973], [37.817, 61.53], [37.305, 61.51], [37.03, 61.614], [36.459, 61.407], [35.701, 61.214], [35.397, 61.14], [34.794, 61.289], [34.245, 61.237], [33.251, 60.874], [32.915, 60.68], [30.943, 61.026], [29.583, 61.178], [29.306, 61.329], [30.144, 61.852], [31.222, 62.498], [31.587, 62.909], [31.24, 63.218], [30.484, 63.467], [29.972, 63.757], [30.528, 64.049], [30.482, 64.262], [30.045, 64.402], [30.043, 64.793], [29.599, 64.995], [29.894, 65.193], [29.755, 65.497], [30.068, 65.895], [29.574, 66.433], [29.323, 66.663], [31.576, 66.654], [31.83, 66.371], [32.343, 66.345], [32.852, 66.583], [32.854, 66.583], [32.855, 66.583], [33.685, 66.411], [34.826, 65.886], [34.684, 65.436], [34.473, 65.256], [34.944, 64.823], [34.982, 64.422], [35.402, 64.288], [35.704, 64.359], [36.553, 63.951]]]}, "properties": {"name": "Republic of Karelia", "iso2": "RU-KR", "admin_level": 4, "osm_id": 393980, "countrylevel_id": "iso2:RU-KR", "osm_data": {"localname": "Республика Карелия", "official_name": "", "alltags": {"int_ref": "RU-KR", "name:ar": "جمهورية كاريليا", "name:az": "Kareliya Respublikası", "name:ba": "Карелия", "name:be": "Рэспубліка Карэлія", "name:br": "Karelia", "name:ca": "República de Carèlia", "name:cs": "Republika Karélie", "name:cv": "Карел Республики", "name:da": "Karelske Republik", "name:en": "Republic of Karelia", "name:es": "República de Carelia", "name:et": "Karjala vabariik", "name:fi": "Karjalan tasavalta", "name:fr": "République de Carélie", "name:hu": "Karélia", "name:hy": "Կարելիայի Հանրապետություն", "name:ka": "კარელიის რესპუბლიკა", "name:kv": "Карелия", "name:lt": "Karelijos Respublika", "name:nl": "Republiek Karelië", "name:pl": "Republika Karelii", "name:ru": "Республика Карелия", "name:sk": "Karelská republika", "name:sv": "Karelska republiken", "name:tr": "Karelya Cumhuriyeti", "name:uk": "Республіка Карелія", "alt_name": "Карелия", "name:krl": "Karjalan tazavaldu", "name:vep": "Karjalan Tazovaldkund", "population": "634402", "alt_name:cs": "Karelská republika", "alt_name:sk": "Karelsko", "addr:country": "RU", "is_in:country": "Russia", "short_name:cs": "Karélie", "gost_7.67-2003": "РОФ-КАР", "name:be-tarask": "Рэспубліка Карэлія", "is_in:continent": "Europe", "population:date": "2014-01-01", "is_in:country_code": "RU"}}, "center_lat": 63.55, "center_lon": 33.13, "area_m2": 171983461665, "timezone": "Europe/Moscow", "population": 618056, "wikidata_id": "Q1914", "wikipedia_id": "ru:Республика Карелия"}}