{"type": "Feature", "geometry": {"type": "Polygon", "coordinates": [[[40.93, 58.576], [41.525, 59.041], [42.001, 59.105], [42.035, 59.43], [42.792, 59.174], [43.421, 59.291], [44.19, 59.17], [45.04, 59.122], [45.34, 59.216], [45.979, 59.172], [46.369, 59.342], [46.409, 59.619], [47.118, 59.599], [47.049, 59.369], [47.519, 59.061], [47.018, 58.619], [46.661, 58.57], [46.397, 58.372], [46.345, 58.062], [45.509, 58.029], [44.869, 58.077], [44.881, 57.882], [44.365, 57.528], [43.853, 57.417], [43.496, 57.604], [43.303, 57.429], [42.896, 57.371], [42.877, 57.662], [42.138, 57.563], [41.604, 57.739], [41.567, 57.453], [40.43, 57.286], [40.406, 57.493], [40.718, 57.662], [40.598, 57.897], [41.193, 58.341], [40.93, 58.576]]]}, "properties": {"name": "Kostroma Oblast", "iso2": "RU-KOS", "admin_level": 4, "osm_id": 85963, "countrylevel_id": "iso2:RU-KOS", "osm_data": {"localname": "Костромская область", "official_name": "", "alltags": {"int_ref": "RU-KOS", "name:az": "Kostroma vilayəti", "name:be": "Кастрамская вобласць", "name:ca": "Província de Kostromà", "name:cs": "Kostromská oblast", "name:el": "Περιφέρεια Κοστρομά", "name:en": "Kostroma Oblast", "name:eo": "Kostroma provinco", "name:et": "Kostroma oblast", "name:fi": "Kostroman alue", "name:fr": "Oblast de Kostroma", "name:hu": "Kosztromai terület", "name:hy": "Կոստրոմայի մարզ", "name:it": "Oblast' di Kostroma", "name:ka": "კოსტრომის ოლქი", "name:kv": "Кострома обласьт", "name:lt": "Kostromos sritis", "name:lv": "Kostromas apgabals", "name:nl": "Oblast Kostroma", "name:os": "Костромайы облæст", "name:pl": "Obwód kostromski", "name:pt": "Oblast de Kostroma", "name:ru": "Костромская область", "name:sh": "Kostromska oblast", "name:sk": "Kostromská oblasť", "name:sr": "Костромска област", "name:sv": "Kostroma oblast", "name:sw": "Kostroma Oblast", "name:tr": "Kostroma Oblastı", "name:tt": "Кострома өлкәсе", "name:uk": "Костромська область", "name:zh": "科斯特罗马州", "name:sah": "Кострома уобалаһа", "name:xal": "Косторма төгәлң", "border_type": "region", "addr:country": "RU", "gost_7.67-2003": "РОФ-КОС", "name:be-tarask": "Кастрамская вобласьць"}}, "center_lat": 58.46, "center_lon": 43.79, "area_m2": 60069958508, "timezone": "Europe/Moscow", "population": 643324, "wikidata_id": "Q2596", "wikipedia_id": "ru:Костромская область"}}