{"type": "Feature", "geometry": {"type": "Polygon", "coordinates": [[[27.795, 60.545], [27.991, 60.669], [29.306, 61.329], [29.583, 61.178], [30.943, 61.026], [32.915, 60.68], [33.251, 60.874], [34.245, 61.237], [34.794, 61.289], [35.397, 61.14], [35.701, 61.214], [35.697, 61.003], [35.176, 60.77], [35.299, 60.601], [35.156, 60.152], [35.495, 59.652], [35.432, 59.427], [34.722, 59.085], [33.8, 59.201], [33.63, 59.382], [32.971, 59.392], [32.452, 59.108], [31.949, 59.43], [31.371, 59.026], [31.081, 59.091], [30.664, 58.737], [30.103, 58.724], [29.896, 58.45], [29.747, 58.424], [28.973, 58.805], [27.738, 58.978], [28.043, 59.472], [28.441, 59.794], [28.967, 59.812], [29.132, 59.982], [29.648, 59.93], [30.648, 59.722], [30.49, 60.019], [29.76, 60.237], [29.457, 60.171], [29.018, 60.182], [28.625, 60.354], [28.745, 60.665], [27.795, 60.545]]]}, "properties": {"name": "Leningrad oblast", "iso2": "RU-LEN", "admin_level": 4, "osm_id": 176095, "countrylevel_id": "iso2:RU-LEN", "osm_data": {"localname": "Ленинградская область", "official_name": "", "alltags": {"int_ref": "RU-LEN", "name:af": "Leningrad-oblast", "name:az": "Leninqrad vilayəti", "name:ba": "Ленинград өлкәһе", "name:be": "Ленінградская вобласць", "name:ca": "Província de Leningrad", "name:ce": "Ленинградан область", "name:cs": "Leningradská oblast", "name:cu": "Лєниноградьска область", "name:ee": "Leningradi oblast", "name:el": "Περιφέρεια Λένινγκραντ", "name:en": "Leningrad oblast", "name:es": "Óblast de Leningrado", "name:et": "Leningradi oblast", "name:fi": "Leningradin alue", "name:fr": "Oblast de Léningrad", "name:hu": "Leningrádi terület", "name:hy": "Լենինգրադի մարզ", "name:it": "Oblast' di Leningrado", "name:ja": "レニングラード州", "name:ka": "ლენინგრადის ოლქი", "name:kv": "Ленинград обласьт", "name:lt": "Leningrado sritis", "name:lv": "Ļeņingradas apgabals", "name:nl": "Oblast Leningrad", "name:pl": "Obwód leningradzki", "name:ru": "Ленинградская область", "name:sk": "Leningradská oblasť", "name:sr": "Лењинградска област", "name:sv": "Leningrad oblast", "name:tt": "Ленинград өлкәсе", "name:uk": "Ленінградська область", "name:vi": "Leningrad (tỉnh)", "name:zh": "列宁格勒州", "website": "http://www.lenobl.ru/", "name:kbd": "Ленинград област", "name:mhr": "Ленинград вел", "population": "1763924", "addr:country": "RU", "is_in:country": "Russia", "gost_7.67-2003": "РОФ-ЛЕН", "name:be-tarask": "Ленінградзкая вобласьць", "is_in:continent": "Europe", "official_status": "ru:область", "population:date": "2014-01-01", "is_in:country_code": "RU"}}, "center_lat": 60.02, "center_lon": 31.71, "area_m2": 84200947554, "timezone": "Europe/Moscow", "population": 1813816, "wikidata_id": "Q2191", "wikipedia_id": "ru:Ленинградская область"}}