{"type": "Feature", "geometry": {"type": "Polygon", "coordinates": [[[158.543, 66.335], [159.26, 66.164], [158.952, 65.727], [160.093, 65.502], [160.675, 65.149], [161.318, 65.148], [161.848, 64.825], [162.752, 64.662], [163.265, 64.693], [163.414, 64.446], [162.954, 63.923], [162.996, 63.624], [162.749, 63.385], [162.756, 63.166], [162.304, 63.065], [162.781, 62.451], [162.524, 62.083], [162.466, 61.665], [161.309, 61.058], [160.79, 60.729], [160.404, 60.704], [160.373, 60.966], [160.003, 61.102], [159.934, 61.294], [160.41, 61.761], [160.031, 61.846], [159.532, 61.679], [159.366, 61.888], [158.271, 61.826], [158.042, 61.729], [157.444, 61.777], [156.688, 61.528], [156.623, 61.208], [155.959, 60.923], [155.919, 60.752], [154.958, 60.365], [154.246, 59.89], [154.433, 59.523], [155.013, 59.478], [155.061, 59.193], [154.503, 59.221], [154.041, 59.047], [153.374, 59.233], [152.734, 58.907], [152.295, 59.012], [152.072, 58.889], [151.363, 58.856], [151.182, 59.085], [151.433, 59.164], [152.113, 59.15], [151.409, 59.605], [150.602, 59.54], [150.329, 59.644], [149.497, 59.752], [148.712, 59.454], [147.878, 59.385], [147.48, 59.246], [146.942, 59.368], [147.111, 59.409], [147.039, 59.948], [146.372, 60.251], [145.857, 60.17], [145.529, 60.495], [146.064, 60.709], [146.444, 60.671], [146.705, 60.949], [146.74, 61.469], [146.348, 61.841], [145.965, 62.004], [145.539, 61.95], [144.736, 62.045], [145.202, 62.299], [145.437, 62.531], [145.25, 63.161], [145.586, 63.828], [146.166, 63.927], [146.369, 64.186], [147.402, 64.13], [148.018, 63.936], [148.313, 64.223], [148.072, 64.349], [148.328, 64.528], [148.709, 64.402], [149.339, 64.377], [149.871, 64.562], [150.234, 64.213], [150.64, 64.338], [152.359, 64.508], [152.847, 64.701], [152.519, 64.977], [152.661, 65.168], [153.501, 65.346], [153.532, 65.81], [154.416, 65.95], [154.394, 66.183], [154.946, 66.111], [155.813, 66.147], [156.427, 66.038], [156.644, 66.148], [157.335, 65.892], [157.745, 66.099], [158.432, 66.203], [158.543, 66.335]]]}, "properties": {"name": "Magadan Oblast", "iso2": "RU-MAG", "admin_level": 4, "osm_id": 151228, "countrylevel_id": "iso2:RU-MAG", "osm_data": {"localname": "Магаданская область", "official_name": "", "alltags": {"int_ref": "RU-MAG", "name:ca": "Província de Magadan", "name:cs": "Magadanská oblast", "name:en": "Magadan Oblast", "name:fr": "Oblast de Magadan", "name:hu": "Magadani terület", "name:it": "Oblast' di Magadan", "name:ja": "マガダン州", "name:lt": "Magadano sritis", "name:nl": "Oblast Magadan", "name:pl": "Obwód magadański", "name:pt": "Oblast de Magadan", "name:ru": "Магаданская область", "name:sk": "Magadanská oblasť", "name:sv": "Magadan oblast", "name:uk": "Магаданська область", "name:vi": "Magadan (tỉnh)", "name:zh": "马加丹州", "int_name": "Magadan Oblast", "population": "150312", "addr:country": "RU", "is_in:country": "Russia", "gost_7.67-2003": "РОФ-МАГ", "is_in:continent": "Asia", "official_status": "ru:область", "population:date": "2014-01-01", "is_in:country_code": "RU"}}, "center_lat": 62.7, "center_lon": 154.0, "area_m2": 460542245250, "timezone": "Asia/Magadan", "population": 144091, "wikidata_id": "Q7971", "wikipedia_id": "ru:Магаданская область"}}