{"type": "Feature", "geometry": {"type": "Polygon", "coordinates": [[[35.148, 55.958], [35.443, 56.239], [35.769, 56.39], [36.127, 56.4], [36.741, 56.546], [37.758, 56.95], [38.244, 56.793], [38.318, 56.659], [38.298, 56.495], [38.611, 55.977], [39.47, 55.774], [39.886, 55.761], [40.191, 55.365], [39.838, 55.205], [39.804, 55.005], [39.475, 54.946], [39.234, 54.642], [38.827, 54.606], [38.666, 54.257], [37.938, 54.85], [37.678, 54.719], [37.269, 54.842], [37.046, 55.142], [37.405, 55.251], [37.6, 55.575], [37.931, 55.73], [37.703, 55.893], [37.417, 55.681], [36.816, 55.508], [36.937, 55.241], [36.535, 55.307], [36.139, 55.174], [35.741, 55.296], [35.334, 55.272], [35.387, 55.595], [35.148, 55.958]]]}, "properties": {"name": "Moscow Oblast", "iso2": "RU-MOS", "admin_level": 4, "osm_id": 51490, "countrylevel_id": "iso2:RU-MOS", "osm_data": {"localname": "Московская область", "official_name": "", "alltags": {"int_ref": "RU-MOS", "name:af": "Moskou-oblast", "name:ar": "محافظة موسكو", "name:az": "Moskva vilayəti", "name:ba": "Мәскәү өлкәһе", "name:be": "Маскоўская вобласць", "name:bg": "Московска област", "name:bs": "Moskovska oblast", "name:ca": "Província de Moscou", "name:ce": "Москван область", "name:cs": "Moskevská oblast", "name:cu": "Москъвьска область", "name:cv": "Мускав облаçĕ", "name:cy": "Oblast Moscfa", "name:da": "Moskva oblast", "name:en": "Moscow Oblast", "name:eo": "Moskva provinco", "name:es": "Óblast de Moscú", "name:et": "Moskva oblast", "name:eu": "Moskuko oblasta", "name:fa": "استان مسکو", "name:fi": "Moskovan alue", "name:fr": "Oblast de Moscou", "name:ga": "Cúige Mhoscó", "name:he": "מחוז מוסקבה", "name:hr": "Moskovska oblast", "name:hu": "Moszkvai terület", "name:hy": "Մոսկվայի մարզ", "name:id": "Oblast Moskwa", "name:it": "Oblast' di Mosca", "name:ja": "モスクワ州", "name:ka": "მოსკოვის ოლქი", "name:kv": "Мӧскуа обласьт", "name:ky": "Москва областы", "name:lt": "Maskvos sritis", "name:lv": "Maskavas apgabals", "name:mk": "Московска област", "name:mn": "Москва муж", "name:mr": "मॉस्को ओब्लास्त", "name:nl": "Oblast Moskou", "name:no": "Moskva oblast", "name:os": "Мæскуыйы облæст", "name:pl": "Obwód moskiewski", "name:pt": "Oblast de Moscou", "name:ro": "Regiunea Moscova", "name:ru": "Московская область", "name:se": "Moskva oblast", "name:sh": "Moskovska oblast", "name:sk": "Moskovská oblasť", "name:sl": "Moskovska oblast", "name:sr": "Московска област", "name:sv": "Moskva oblast", "name:tg": "Вилояти Москва", "name:tt": "Мәскәү өлкәсе", "name:uk": "Московська область", "name:uz": "Moskva viloyati", "name:zh": "莫斯科州", "name:bxr": "Москвагай можо", "name:crh": "Moskva vilâyeti", "name:kaa": "Moskvа wa'layatı", "name:kbd": "Мэзкуу област", "name:lez": "Москва вилаят", "name:mhr": "Моско вел", "name:myv": "Московонь ёнкс", "name:sah": "Москва уобалаһа", "name:xal": "Москова төгәлң", "ssrf:code": "50", "population": "7133620", "border_type": "region", "addr:country": "RU", "cadaster:code": "50", "gost_7.67-2003": "РОФ-МОЯ", "name:be-tarask": "Маскоўская вобласьць", "official_status": "ru:область", "population:date": "2014-01-01"}}, "center_lat": 55.67, "center_lon": 37.66, "area_m2": 44329456992, "timezone": "Europe/Moscow", "population": 7503385, "wikidata_id": "Q1697", "wikipedia_id": "ru:Московская область"}}