{"type": "Feature", "geometry": {"type": "Polygon", "coordinates": [[[42.442, 54.825], [42.434, 54.794], [42.444, 54.798], [42.83, 54.764], [43.861, 54.805], [44.068, 54.649], [44.908, 54.463], [45.231, 54.877], [45.728, 55.185], [46.062, 55.048], [46.443, 54.762], [46.536, 54.399], [45.814, 53.976], [45.343, 53.869], [45.183, 53.968], [44.603, 53.872], [44.587, 53.666], [43.927, 53.771], [43.746, 53.959], [43.312, 54.024], [42.932, 53.796], [42.351, 53.854], [42.477, 54.299], [42.651, 54.588], [42.427, 54.719], [42.388, 54.781], [42.442, 54.825]]]}, "properties": {"name": "Republic of Mordovia", "iso2": "RU-MO", "admin_level": 4, "osm_id": 72196, "countrylevel_id": "iso2:RU-MO", "osm_data": {"localname": "Мордовия", "official_name": "", "alltags": {"int_ref": "RU-MO", "name:br": "Mordovia", "name:ca": "Mordòvia", "name:cs": "Mordvinsko", "name:en": "Republic of Mordovia", "name:es": "Mordovia", "name:fi": "Mordvan Tasavalta", "name:fr": "République de Mordovie", "name:ja": "モルドヴィア共和国", "name:lt": "Mordvijos Respublika", "name:nl": "Mordovië", "name:pl": "Republika Mordowii", "name:ru": "Мордовия", "name:sk": "Mordviansko", "name:tt": "Мордовия", "int_name": "Republic of Mordovia", "name:mhr": "Мордовий", "name:mrj": "Мордови Республика", "name:myv": "Мордовия республикась", "alt_name:tt": "Мордовия Республикасы", "border_type": "region", "addr:country": "RU", "gost_7.67-2003": "РОФ-МОР", "official_status": "ru:республика", "official_name:sk": "Mordvianska republika"}}, "center_lat": 54.36, "center_lon": 44.46, "area_m2": 25886768927, "timezone": "Europe/Moscow", "population": 805056, "wikidata_id": "Q5340", "wikipedia_id": "ru:Мордовия"}}