{"type": "Feature", "geometry": {"type": "Polygon", "coordinates": [[[32.852, 66.583], [32.343, 66.345], [31.83, 66.371], [31.576, 66.654], [29.323, 66.663], [29.073, 66.996], [29.931, 67.523], [29.327, 68.075], [28.646, 68.196], [28.434, 68.54], [28.929, 69.052], [29.286, 69.294], [29.97, 69.408], [30.131, 69.666], [30.135, 69.667], [30.822, 69.788], [31.687, 69.706], [32.054, 69.943], [33.097, 69.654], [32.435, 69.556], [33.56, 69.295], [35.391, 69.23], [36.283, 69.098], [37.558, 68.726], [38.422, 68.365], [38.684, 68.354], [39.59, 68.03], [39.867, 68.031], [41.037, 67.634], [41.081, 67.25], [41.353, 67.193], [41.221, 66.83], [40.554, 66.45], [40.005, 66.256], [39.113, 66.102], [38.282, 66.057], [37.148, 66.242], [35.554, 66.384], [34.751, 66.601], [33.504, 66.717], [32.976, 66.898], [32.536, 66.874], [32.852, 66.583]]]}, "properties": {"name": "Murmansk Oblast", "iso2": "RU-MUR", "admin_level": 4, "osm_id": 2099216, "countrylevel_id": "iso2:RU-MUR", "osm_data": {"localname": "Мурманская область", "official_name": "", "alltags": {"ref:en": "MUR", "int_ref": "RU-MUR", "name:ca": "Província de Múrmansk", "name:cs": "Murmanská oblast", "name:en": "Murmansk Oblast", "name:es": "Óblast de Múrmansk", "name:fi": "Murmanskin alue", "name:fr": "Oblast de Mourmansk", "name:hr": "Murmanska oblast", "name:hu": "Murmanszki terület", "name:lt": "Murmansko sritis", "name:no": "Murmansk oblast", "name:pl": "Obwód murmański", "name:ru": "Мурманская область", "name:sk": "Murmanská oblasť", "name:sr": "Мурманска област", "name:sv": "Murmansk oblast", "int_name": "Murmansk Oblast", "population": "780401", "addr:country": "RU", "gost_7.67-2003": "РОФ-МУР", "population:date": "2013-01-01"}}, "center_lat": 67.81, "center_lon": 34.58, "area_m2": 142706517213, "timezone": "Europe/Moscow", "population": 753557, "wikidata_id": "Q1759", "wikipedia_id": "ru:Мурманская область"}}