{"type": "Feature", "geometry": {"type": "Polygon", "coordinates": [[[35.141, 53.279], [35.63, 53.542], [35.991, 53.626], [36.784, 53.296], [37.576, 53.249], [37.866, 53.012], [37.803, 52.514], [38.058, 52.297], [37.738, 52.019], [37.425, 51.935], [36.496, 52.232], [36.299, 52.381], [35.712, 52.255], [35.431, 52.427], [34.924, 52.37], [35.071, 52.669], [34.83, 52.864], [35.24, 52.995], [35.141, 53.279]]]}, "properties": {"name": "Oryol Oblast", "iso2": "RU-ORL", "admin_level": 4, "osm_id": 72224, "countrylevel_id": "iso2:RU-ORL", "osm_data": {"localname": "Орловская область", "official_name": "", "alltags": {"int_ref": "RU-ORL", "name:be": "Арлоўская вобласць", "name:ca": "Província d'Oriol", "name:cs": "Orelská oblast", "name:en": "Oryol Oblast", "name:eo": "Orjola provinco", "name:es": "Óblast de Oriol", "name:fr": "Oblast d'Orel", "name:hu": "Orjoli terület", "name:hy": "Օրյոլի մարզ", "name:it": "Oblast' di Orël", "name:ka": "ორიოლის ოლქი", "name:lt": "Oriolo sritis", "name:nl": "Oblast Orjol", "name:os": "Орёлы облæст", "name:pl": "Obwód orłowski", "name:pt": "Oblast de Oriol", "name:ro": "Regiunea Oriol", "name:ru": "Орловская область", "name:sh": "Orelska oblast", "name:sk": "Oriolska oblasť", "name:sr": "Орловска област", "name:tt": "Орел өлкәсе", "name:uk": "Орловська область", "name:sah": "Орёл уобалаһа", "name:xal": "Орлова төгәлң", "border_type": "region", "addr:country": "RU", "gost_7.67-2003": "РОФ-ОРЛ", "name:be-tarask": "Арлоўская вобласьць"}}, "center_lat": 52.78, "center_lon": 36.48, "area_m2": 24603818527, "timezone": "Europe/Moscow", "population": 747247, "wikidata_id": "Q3129", "wikipedia_id": "ru:Орловская область"}}