{"type": "Feature", "geometry": {"type": "Polygon", "coordinates": [[[50.768, 51.773], [51.391, 52.069], [51.452, 52.569], [51.724, 52.653], [52.212, 53.381], [52.095, 53.464], [52.479, 54.071], [52.568, 54.34], [52.934, 54.308], [53.133, 54.077], [53.501, 54.056], [53.645, 53.753], [54.075, 53.442], [54.815, 53.266], [55.125, 52.865], [55.464, 52.625], [55.496, 52.417], [55.77, 52.347], [56.074, 52.621], [56.351, 52.497], [56.471, 52.169], [56.705, 52.06], [56.611, 51.827], [56.771, 51.669], [57.161, 51.576], [57.611, 51.785], [57.912, 51.836], [58.575, 51.772], [58.617, 52.137], [58.855, 52.426], [59.166, 52.277], [59.296, 52.48], [60.163, 52.4], [59.965, 52.152], [60.002, 51.993], [60.428, 51.798], [60.426, 51.647], [60.936, 51.615], [60.999, 51.468], [61.505, 51.407], [61.69, 51.256], [61.568, 51.238], [61.449, 50.806], [60.809, 50.657], [59.998, 50.675], [59.813, 50.536], [58.874, 50.7], [58.642, 50.988], [58.34, 51.146], [57.952, 51.086], [57.736, 50.928], [57.324, 50.943], [57.146, 51.088], [56.7, 51.075], [56.298, 50.902], [56.054, 50.695], [55.661, 50.56], [55.384, 50.654], [54.719, 51.028], [54.545, 50.528], [54.518, 50.855], [54.137, 51.108], [53.661, 51.231], [53.575, 51.425], [53.255, 51.512], [52.565, 51.464], [52.335, 51.743], [51.432, 51.475], [51.272, 51.685], [50.768, 51.773]]]}, "properties": {"name": "Orenburg Oblast", "iso2": "RU-ORE", "admin_level": 4, "osm_id": 77669, "countrylevel_id": "iso2:RU-ORE", "osm_data": {"localname": "Оренбургская область", "official_name": "", "alltags": {"int_ref": "RU-ORE", "name:ar": "أورينبورغ أوبلاست", "name:ba": "Ырымбур өлкәһе", "name:ca": "Província d'Orenburg", "name:cs": "Orenburská oblast", "name:en": "Orenburg Oblast", "name:es": "Óblast de Oremburgo", "name:fr": "Oblast d'Orenbourg", "name:hu": "Orenburgi terület", "name:hy": "Օրենբուրգի մարզ", "name:it": "Oblast' di Orenburg", "name:ja": "オレンブルク州", "name:kk": "Орынбор облысы", "name:lt": "Orenburgo sritis", "name:pl": "Obwód orenburski", "name:ru": "Оренбургская область", "name:sk": "Orenburská oblasť", "name:tt": "Ырынбур өлкәсе", "name:sah": "Оренбург уобалаһа", "name:xal": "Оренбурһа төгәлң", "alt_name:ar": "أورنبرغ أوبلاست", "border_type": "region", "gost_7.67-2003": "РОФ-ОРЕ"}}, "center_lat": 51.99, "center_lon": 55.63, "area_m2": 124106790483, "timezone": "Asia/Yekaterinburg", "population": 1977720, "wikidata_id": "Q5338", "wikipedia_id": "ru:Оренбургская область"}}