{"type": "Feature", "geometry": {"type": "Polygon", "coordinates": [[[130.697, 42.293], [130.637, 42.418], [130.553, 42.518], [130.659, 42.845], [131.14, 42.943], [131.306, 43.473], [131.21, 43.833], [131.303, 44.044], [131.104, 44.708], [130.977, 44.863], [131.427, 44.965], [131.828, 45.31], [132.004, 45.252], [132.129, 44.94], [132.038, 44.797], [132.32, 44.539], [132.605, 44.677], [132.853, 45.059], [133.13, 45.128], [133.141, 45.434], [133.44, 45.649], [133.505, 45.889], [133.911, 46.263], [133.846, 46.481], [134.006, 46.655], [134.388, 46.675], [134.407, 46.861], [134.662, 47.124], [135.085, 47.213], [135.683, 46.965], [135.837, 46.829], [136.36, 46.763], [136.895, 46.957], [137.081, 47.304], [137.465, 47.209], [138.078, 47.512], [137.336, 48.056], [137.451, 48.203], [137.835, 48.209], [138.236, 48.443], [138.7, 48.117], [138.773, 47.883], [138.537, 47.482], [139.033, 47.396], [138.604, 47.075], [138.189, 46.459], [138.105, 46.241], [137.688, 45.81], [137.359, 45.613], [137.139, 45.375], [136.802, 45.199], [136.147, 44.496], [135.884, 44.413], [135.53, 44.009], [135.503, 43.85], [135.036, 43.481], [133.901, 42.87], [133.202, 42.73], [132.804, 42.767], [132.438, 42.934], [132.341, 43.145], [131.818, 43.301], [131.435, 42.863], [131.08, 42.638], [130.779, 42.574], [130.697, 42.293]]]}, "properties": {"name": "Primorsky Krai", "iso2": "RU-PRI", "admin_level": 4, "osm_id": 151225, "countrylevel_id": "iso2:RU-PRI", "osm_data": {"localname": "Приморский край", "official_name": "", "alltags": {"int_ref": "RU-PRI", "name:ar": "بريمورسكي كراي", "name:ca": "Territori de Primórie", "name:cs": "Přímořský kraj", "name:en": "Primorsky Krai", "name:es": "Krai de Primorie", "name:fr": "Kraï du Primorie", "name:hr": "Primorski kraj", "name:hu": "Tengermelléki határterület", "name:it": "Territorio del Litorale", "name:ja": "沿海地方", "name:ko": "프리모르스키 지방", "name:nl": "Kraj Primorski", "name:pl": "Kraj Nadmorski", "name:pt": "Krai do Litoral", "name:ru": "Приморский край", "name:sk": "Prímorský kraj", "name:sv": "Primorje kraj", "name:uk": "Приморський край", "name:vi": "Primorsky (vùng)", "name:zh": "滨海边疆区", "int_name": "Primorsky Krai", "population": "1938516", "addr:country": "RU", "is_in:country": "Russia", "gost_7.67-2003": "РОФ-ПРИ", "is_in:continent": "Asia", "official_status": "ru:край", "population:date": "2014-01-01", "population:source": "http://www.gks.ru/bgd/regl/b10_109/Main.htm", "is_in:country_code": "RU"}}, "center_lat": 45.18, "center_lon": 134.76, "area_m2": 161586379447, "timezone": "Asia/Vladivostok", "population": 1913037, "wikidata_id": "Q4341", "wikipedia_id": "ru:Приморский край"}}