{"type": "Feature", "geometry": {"type": "Polygon", "coordinates": [[[42.144, 53.803], [42.351, 53.854], [42.932, 53.796], [43.312, 54.024], [43.746, 53.959], [43.927, 53.771], [44.587, 53.666], [44.603, 53.872], [45.183, 53.968], [45.343, 53.869], [45.814, 53.976], [46.061, 53.979], [46.445, 53.65], [46.504, 53.481], [46.908, 53.363], [46.94, 52.722], [46.801, 52.621], [46.326, 52.681], [46.004, 52.508], [45.353, 52.396], [44.613, 52.481], [44.317, 52.316], [43.78, 52.427], [43.04, 52.371], [43.22, 52.637], [42.11, 53.515], [42.144, 53.803]]]}, "properties": {"name": "Penza Oblast", "iso2": "RU-PNZ", "admin_level": 4, "osm_id": 72182, "countrylevel_id": "iso2:RU-PNZ", "osm_data": {"localname": "Пензенская область", "official_name": "", "alltags": {"int_ref": "RU-PNZ", "name:ar": "بينزا أوبلاست", "name:be": "Пензенская вобласць", "name:ca": "Província de Penza", "name:en": "Penza Oblast", "name:es": "Óblast de Penza", "name:fr": "Oblast de Penza", "name:hu": "Penzai terület", "name:hy": "Պենզայի մարզ", "name:ja": "ペンザ州", "name:ka": "პენზის ოლქი", "name:lt": "Penzos sritis", "name:nl": "Oblast Penza", "name:no": "Penza oblast", "name:pl": "Obwód penzeński", "name:pt": "Oblast de Penza", "name:ru": "Пензенская область", "name:sk": "Penzianska oblasť", "name:sv": "Penza oblast", "name:tr": "Penza Oblastı", "name:tt": "Пенза өлкәсе", "name:uk": "Пензенська область", "name:sah": "Пенза уобалаһа", "name:xal": "Пенса төгәлң", "alt_name:ar": "بانزا أوبلاست", "border_type": "region", "addr:country": "RU", "gost_7.67-2003": "РОФ-ПЕН", "name:be-tarask": "Пензенская вобласьць"}}, "center_lat": 53.18, "center_lon": 44.63, "area_m2": 43312562960, "timezone": "Europe/Moscow", "population": 1331655, "wikidata_id": "Q5545", "wikipedia_id": "ru:Пензенская область"}}