{"type": "Feature", "geometry": {"type": "Polygon", "coordinates": [[[43.04, 52.371], [43.78, 52.427], [44.317, 52.316], [44.613, 52.481], [45.353, 52.396], [46.004, 52.508], [46.326, 52.681], [46.801, 52.621], [47.207, 52.548], [47.723, 52.568], [48.429, 52.814], [48.912, 52.468], [49.171, 52.5], [49.638, 52.34], [50.352, 51.982], [50.702, 51.933], [50.768, 51.773], [50.547, 51.465], [49.776, 51.107], [49.393, 51.09], [49.42, 50.849], [48.815, 50.596], [48.732, 50.257], [48.903, 50.018], [48.45, 49.835], [47.613, 50.464], [47.432, 50.378], [47.206, 50.509], [46.912, 50.49], [46.626, 50.681], [46.465, 50.546], [46.061, 50.526], [45.193, 50.585], [45.326, 50.862], [45.192, 51.043], [44.477, 51.211], [44.185, 51.093], [43.694, 51.108], [43.359, 50.999], [42.881, 51.233], [42.75, 51.492], [42.521, 51.596], [42.767, 52.155], [43.04, 52.371]]]}, "properties": {"name": "Saratov Oblast", "iso2": "RU-SAR", "admin_level": 4, "osm_id": 72193, "countrylevel_id": "iso2:RU-SAR", "osm_data": {"localname": "Саратовская область", "official_name": "", "alltags": {"int_ref": "RU-SAR", "name:ar": "ساراتوف أوبلاست", "name:az": "Saratov vilayəti", "name:ba": "Һарытау өлкәһе", "name:be": "Саратаўская вобласць", "name:bg": "Саратовска област", "name:bs": "Saratovska oblast", "name:ca": "Província de Saràtov", "name:ce": "Саратован область", "name:cs": "Saratovská oblast", "name:cv": "Сарăту облаçĕ", "name:el": "Περιφέρεια Σαράτοφ", "name:en": "Saratov Oblast", "name:eo": "Saratova provinco", "name:es": "Óblast de Sarátov", "name:et": "Saratovi oblast", "name:eu": "Saratov oblasta", "name:fa": "استان ساراتوف", "name:fi": "Saratovin alue", "name:fr": "Oblast de Saratov", "name:ga": "Cúige Sharatov", "name:he": "מחוז סראטוב", "name:hr": "Saratovska oblast", "name:hu": "Szaratovi terület", "name:hy": "Սարատովի մարզ", "name:id": "Oblast Saratov", "name:it": "Oblast' di Saratov", "name:ja": "サラトフ州", "name:ka": "სარატოვის ოლქი", "name:kv": "Саратов обласьт", "name:la": "Regio Saratoviensis", "name:lt": "Saratovo sritis", "name:lv": "Saratovas apgabals", "name:mk": "Саратовска област", "name:nl": "Oblast Saratov", "name:no": "Saratov oblast", "name:pl": "Obwód saratowski", "name:pt": "Oblast de Saratov", "name:ro": "Regiunea Saratov", "name:ru": "Саратовская область", "name:sh": "Saratovska oblast", "name:sk": "Saratovská oblasť", "name:sl": "Saratovska oblast", "name:sr": "Саратовска област", "name:sv": "Saratov oblast", "name:tg": "Вилояти Саратов", "name:tr": "Saratov Oblastı", "name:tt": "Сарытау өлкәсе", "name:uk": "Саратовська область", "name:uz": "Saratov viloyati", "name:zh": "萨拉托夫州", "name:mhr": "Саратов вел", "name:sah": "Саратов уобалаһа", "name:xal": "Саратова төгәлң", "border_type": "region", "name:uz-cyr": "Саратов вилояти", "addr:country": "RU", "gost_7.67-2003": "РОФ-САР", "name:be-tarask": "Саратаўская вобласьць"}}, "center_lat": 51.58, "center_lon": 46.8, "area_m2": 101027892163, "timezone": "Europe/Volgograd", "population": 2462950, "wikidata_id": "Q5334", "wikipedia_id": "ru:Саратовская область"}}