{"type": "Feature", "geometry": {"type": "Polygon", "coordinates": [[[59.349, 61.663], [59.489, 61.947], [59.973, 61.883], [59.998, 61.718], [60.515, 61.736], [61.229, 61.654], [62.484, 61.261], [62.826, 61.001], [62.867, 60.654], [63.226, 60.294], [63.606, 60.102], [64.02, 59.382], [65.074, 59.31], [65.373, 58.899], [65.655, 58.658], [65.95, 58.615], [66, 58.249], [66.185, 58.011], [64.966, 57.605], [64.827, 57.293], [65.056, 56.904], [64.927, 56.772], [64.546, 56.789], [64.179, 56.461], [63.474, 56.612], [62.986, 56.598], [62.254, 56.399], [62.061, 56.131], [61.735, 56.287], [61.092, 56.319], [60.699, 56.24], [60.005, 56.221], [59.714, 56.324], [59.139, 56.322], [59.042, 56.172], [57.914, 56.107], [57.506, 56.2], [57.408, 56.34], [57.401, 56.641], [57.227, 56.852], [57.677, 56.92], [58.086, 57.099], [57.939, 57.316], [58.153, 57.682], [58.801, 57.725], [58.585, 58.042], [58.927, 58.284], [59.452, 58.478], [59.076, 58.907], [59.198, 59.146], [58.625, 59.298], [58.368, 59.473], [58.48, 59.712], [59.028, 60.015], [59.482, 60.827], [59.261, 61.299], [59.349, 61.663]]]}, "properties": {"name": "Sverdlovsk Oblast", "iso2": "RU-SVE", "admin_level": 4, "osm_id": 79379, "countrylevel_id": "iso2:RU-SVE", "osm_data": {"localname": "Свердловская область", "official_name": "", "alltags": {"int_ref": "RU-SVE", "name:ar": "أوبلاست سفردلوفسك", "name:ca": "Província de Sverdlovsk", "name:cs": "Sverdlovská oblast", "name:en": "Sverdlovsk Oblast", "name:fr": "Oblast de Sverdlovsk", "name:hu": "Szverdlovszki terület", "name:ja": "スヴェルドロフスク州", "name:lt": "Sverdlovsko sritis", "name:pl": "Obwód swierdłowski", "name:ru": "Свердловская область", "name:sk": "Sverdlovská oblasť", "population": "4330006", "border_type": "region", "population:date": "2016-01-01"}}, "center_lat": 58.59, "center_lon": 61.53, "area_m2": 193608148728, "timezone": "Asia/Yekaterinburg", "population": 4325256, "wikidata_id": "Q5462", "wikipedia_id": "ru:Свердловская область"}}