{"type": "Feature", "geometry": {"type": "Polygon", "coordinates": [[[29.457, 60.171], [29.76, 60.237], [30.49, 60.019], [30.648, 59.722], [29.648, 59.93], [29.457, 60.171]]]}, "properties": {"name": "Saint Petersburg", "iso2": "RU-SPE", "admin_level": 4, "osm_id": 337422, "countrylevel_id": "iso2:RU-SPE", "osm_data": {"localname": "Санкт-Петербург", "official_name": "", "alltags": {"int_ref": "RU-SPE", "name:ab": "Санқт-Петербург", "name:ar": "سانت بطرسبرغ", "name:be": "Санкт-Пецярбург", "name:bg": "Санкт Петербург", "name:ca": "Sant Petersburg", "name:cs": "Petrohrad", "name:da": "Sankt Petersborg", "name:el": "Αγία Πετρούπολη", "name:en": "Saint Petersburg", "name:eo": "Sankt-Peterburgo", "name:es": "San Petersburgo", "name:et": "Peterburi", "name:fi": "Pietari", "name:fr": "Saint-Pétersbourg", "name:fy": "Sint-Petersburch", "name:hr": "Sankt Petersburg", "name:hu": "Szentpétervár", "name:it": "San Pietroburgo", "name:ja": "サンクト ペテルブルク", "name:ku": "Sankt Petersburg", "name:lb": "Sankt Péitersbuerg", "name:lt": "Sankt Peterburgas", "name:lv": "Sanktpēterburga", "name:mk": "Санкт Петербург", "name:nb": "Sankt Petersburg", "name:nl": "Sint-Petersburg", "name:os": "Бетъырбух", "name:pl": "Sankt Petersburg", "name:pt": "São Petersburgo", "name:ru": "Санкт-Петербург", "name:sk": "Petrohrad", "name:sl": "Sankt Peterburg", "name:sr": "Санкт Петербург", "name:sv": "Sankt Petersburg", "name:vi": "Xanh Pê-téc-bua", "int_name": "Sankt-Peterburg", "name:ast": "San Petersburgu", "name:tzl": "Sant Pairbuerg", "population": "5131942", "alt_name:mk": "Петроград", "alt_name:vi": "Sankt-Peterburg", "old_name:ar": "لينينغراد;بيتروغراد", "old_name:en": "Petrograd;Leningrad", "old_name:eo": "Petrogrado;Leningrado", "old_name:fr": "Pétrograd;Léningrad", "old_name:ku": "Leningrad", "old_name:mk": "Ленинград", "old_name:os": "Петроград;Ленинград", "old_name:vi": "Petrograd;Leningrad", "addr:country": "RU", "is_in:country": "Russia", "gost_7.67-2003": "РОФ-СПБ", "name:be-tarask": "Санкт-Пецярбург", "is_in:continent": "Europe", "official_status": "ru:город федерального значения", "old_alt_name:vi": "Bỉ Đắc", "population:date": "2014-01-01", "is_in:country_code": "RU", "old_name:1914-08-31--1924-01-26": "Петроград", "old_name:1924-01-26--1991-09-06": "Ленинград"}}, "center_lat": 59.92, "center_lon": 30.21, "area_m2": 1439961852, "timezone": "Europe/Moscow", "population": 5351935, "wikidata_id": "Q656", "wikipedia_id": "ru:Санкт-Петербург"}}