{"type": "Feature", "geometry": {"type": "Polygon", "coordinates": [[[30.925, 55.623], [31.121, 55.758], [31.484, 55.718], [32.988, 55.667], [33.487, 55.761], [33.916, 56.067], [35.148, 55.958], [35.387, 55.595], [35.334, 55.272], [34.907, 54.768], [34.416, 54.514], [33.985, 54.58], [33.634, 54.477], [33.689, 54.322], [33.507, 54.016], [32.763, 53.424], [32.499, 53.681], [31.769, 53.836], [31.898, 54.083], [31.314, 54.249], [31.205, 54.47], [31.21, 54.632], [30.752, 54.81], [31.028, 55.062], [30.83, 55.334], [30.925, 55.623]]]}, "properties": {"name": "Smolensk Oblast", "iso2": "RU-SMO", "admin_level": 4, "osm_id": 81996, "countrylevel_id": "iso2:RU-SMO", "osm_data": {"localname": "Смоленская область", "official_name": "", "alltags": {"int_ref": "RU-SMO", "name:be": "Смаленская вобласць", "name:bg": "Смоленска област", "name:ca": "Província de Smolensk", "name:ce": "Смоленскан область", "name:cs": "Smolenská oblast", "name:cv": "Смулен облаçĕ", "name:el": "Περιφέρεια Σμολένσκ", "name:en": "Smolensk Oblast", "name:eo": "Smolenska provinco", "name:es": "Óblast de Smolensk", "name:et": "Smolenski oblast", "name:fr": "Oblast de Smolensk", "name:hu": "Szmolenszki terület", "name:hy": "Սմոլենսկի մարզ", "name:id": "Oblast Smolensk", "name:ka": "სმოლენსკის ოლქი", "name:kv": "Смоленск обласьт", "name:lt": "Smolensko sritis", "name:nl": "Oblast Smolensk", "name:pl": "Obwód smoleński", "name:ro": "Regiunea Smolensk", "name:ru": "Смоленская область", "name:sh": "Smolenska oblast", "name:sk": "Smolenská oblasť", "name:sr": "Смоленска област", "name:tr": "Smolensk Oblastı", "name:tt": "Смоленск өлкәсе", "name:uk": "Смоленська область", "name:uz": "Smolensk viloyati", "name:bxr": "Смоленск можо", "name:kbd": "Смоленск област", "name:myv": "Смоленэнь ёнкс", "name:sah": "Смоленскай уобалас", "border_type": "region", "addr:country": "RU", "is_in:country": "Russia", "gost_7.67-2003": "РОФ-СМО", "name:be-tarask": "Смаленская вобласьць", "is_in:continent": "Europe", "is_in:country_code": "RU"}}, "center_lat": 54.96, "center_lon": 33.0, "area_m2": 49712660230, "timezone": "Europe/Moscow", "population": 949348, "wikidata_id": "Q2347", "wikipedia_id": "ru:Смоленская область"}}