{"type": "Feature", "geometry": {"type": "Polygon", "coordinates": [[[65.95, 58.615], [66.785, 58.657], [66.772, 58.923], [67.054, 58.927], [67.784, 59.201], [68.395, 59.298], [68.733, 59.57], [69.651, 59.91], [70.134, 59.95], [70.396, 59.84], [71.258, 59.788], [72.025, 59.552], [72.549, 59.139], [72.911, 59.154], [73.1, 58.952], [74.175, 58.726], [75.131, 58.664], [75.109, 58.576], [74.629, 58.288], [74.22, 58.136], [73.128, 58.155], [72.868, 58.001], [72.167, 58.015], [71.983, 58.116], [71.262, 58.053], [71.303, 58.391], [70.853, 58.529], [70.43, 57.952], [70.392, 57.782], [70.686, 57.516], [70.459, 57.282], [71.116, 57.202], [71.605, 56.933], [71.677, 56.765], [71.121, 56.653], [70.809, 55.903], [70.532, 55.694], [70.757, 55.585], [70.46, 55.286], [70.228, 55.148], [69.707, 55.351], [68.709, 55.348], [67.794, 55.729], [67.404, 55.728], [67.278, 55.939], [66.452, 55.96], [65.842, 56.069], [65.683, 56.27], [65.122, 56.308], [64.927, 56.772], [65.056, 56.904], [64.827, 57.293], [64.966, 57.605], [66.185, 58.011], [66, 58.249], [65.95, 58.615]]]}, "properties": {"name": "Tyumen Oblast", "iso2": "RU-TYU", "admin_level": 4, "osm_id": 140291, "countrylevel_id": "iso2:RU-TYU", "osm_data": {"localname": "Тюменская область", "official_name": "", "alltags": {"int_ref": "RU-TYU", "name:ar": "تيومين أوبلاست", "name:az": "Tümen vilayəti", "name:ba": "Төмән өлкәһе", "name:be": "Цюменская вобласць", "name:ca": "Província de Tiumén", "name:ce": "Тюменан область", "name:cs": "Ťumeňská oblast", "name:cv": "Тĕмен облаçĕ", "name:da": "Tjumen oblast", "name:el": "Περιφέρεια Τιουμέν", "name:en": "Tyumen Oblast", "name:es": "Óblast de Tiumén", "name:et": "Tjumeni oblast", "name:eu": "Tiumen oblasta", "name:fr": "Oblast de Tioumen", "name:hu": "Tyumenyi terület", "name:it": "Oblast' di Tjumen'", "name:ja": "チュメニ州", "name:kk": "Түмен облысы", "name:kv": "Тюмень обласьт", "name:lt": "Tiumenės sritis", "name:lv": "Tjumeņas apgabals", "name:nl": "Oblast Tjoemen", "name:no": "Tjumen oblast", "name:os": "Тюмены облæст", "name:pl": "Obwód tiumeński", "name:pt": "Oblast de Tiumen", "name:ro": "Regiunea Tiumen", "name:ru": "Тюменская область", "name:sk": "Ťumenská oblasť", "name:sr": "Тјуменска област", "name:sv": "Tiumen oblast", "name:sw": "Tyumen Oblast", "name:tg": "Вилояти Тюмен", "name:tr": "Tümen Oblastı", "name:tt": "Төмән өлкәсе", "name:uk": "Тюменська область", "name:uz": "Tyumen viloyati", "name:mhr": "Тюмень вел", "name:myv": "Тюменень ёнкс", "name:sah": "Тюмень уобалаһа", "name:xal": "Түмнә төгәлң", "population": "1477903", "addr:country": "RU", "gost_7.67-2003": "РОФ-ТЮМ", "name:be-tarask": "Цюменская вобласьць", "population:date": "2017-01-01"}}, "center_lat": 57.68, "center_lon": 69.14, "area_m2": 159359993410, "timezone": "Asia/Yekaterinburg", "population": 3692400, "wikidata_id": "Q5824", "wikipedia_id": "ru:Тюменская область"}}