{"type": "Feature", "geometry": {"type": "Polygon", "coordinates": [[[46.443, 54.762], [46.892, 54.645], [47.268, 54.673], [47.291, 54.674], [47.356, 54.627], [47.718, 54.735], [48.882, 54.625], [48.882, 54.796], [49.284, 54.889], [49.559, 54.565], [50.092, 54.507], [50.242, 54.284], [50.183, 54.023], [49.703, 53.83], [48.996, 53.875], [48.995, 53.707], [48.517, 53.735], [48.369, 53.474], [47.935, 53.367], [48.429, 52.814], [47.723, 52.568], [47.207, 52.548], [46.801, 52.621], [46.94, 52.722], [46.908, 53.363], [46.504, 53.481], [46.445, 53.65], [46.061, 53.979], [45.814, 53.976], [46.536, 54.399], [46.443, 54.762]]]}, "properties": {"name": "Ulyanovsk Oblast", "iso2": "RU-ULY", "admin_level": 4, "osm_id": 72192, "countrylevel_id": "iso2:RU-ULY", "osm_data": {"localname": "Ульяновская область", "official_name": "", "alltags": {"int_ref": "RU-ULY", "name:ar": "أوليانوفسك أوبلاست", "name:ca": "Província d'Uliànovsk", "name:cs": "Uljanovská oblast", "name:en": "Ulyanovsk Oblast", "name:es": "Uliánovsk", "name:fr": "Oblast d'Oulianovsk", "name:hu": "Uljanovszki terület", "name:ja": "ウリヤノフスク州", "name:lt": "Uljanovsko sritis", "name:pl": "Obwód uljanowski", "name:ru": "Ульяновская область", "name:sk": "Ulianovská oblasť", "name:tt": "Сембер өлкәсе", "population": "1262549", "border_type": "region", "addr:country": "RU", "gost_7.67-2003": "РОФ-УЛЬ", "population:date": "2015"}}, "center_lat": 53.89, "center_lon": 47.95, "area_m2": 37149787857, "timezone": "Europe/Ulyanovsk", "population": 1246618, "wikidata_id": "Q5634", "wikipedia_id": "ru:Ульяновская область"}}