{"type": "Feature", "geometry": {"type": "Polygon", "coordinates": [[[34.722, 59.085], [35.432, 59.427], [35.495, 59.652], [35.156, 60.152], [35.299, 60.601], [35.176, 60.77], [35.697, 61.003], [35.701, 61.214], [36.459, 61.407], [37.03, 61.614], [37.305, 61.51], [37.817, 61.53], [37.873, 61.29], [38.218, 60.931], [39.143, 60.68], [39.759, 60.741], [39.886, 60.654], [40.575, 60.72], [41.141, 60.636], [41.509, 60.895], [42.376, 60.768], [42.661, 60.889], [43.524, 60.766], [43.784, 61.039], [44.16, 60.963], [45.247, 60.892], [45.338, 61.195], [45.761, 61.011], [46.806, 60.965], [47.074, 60.85], [46.761, 60.062], [47.118, 59.599], [46.409, 59.619], [46.369, 59.342], [45.979, 59.172], [45.34, 59.216], [45.04, 59.122], [44.19, 59.17], [43.421, 59.291], [42.792, 59.174], [42.035, 59.43], [42.001, 59.105], [41.525, 59.041], [40.93, 58.576], [40.442, 58.537], [40.014, 58.736], [39.124, 58.951], [38.923, 58.733], [38.065, 58.73], [37.628, 58.483], [37.071, 58.863], [36.782, 58.8], [36.503, 58.515], [36.182, 58.512], [36.107, 58.716], [35.409, 58.849], [35.279, 58.786], [34.722, 59.085]]]}, "properties": {"name": "Vologda Oblast", "iso2": "RU-VLG", "admin_level": 4, "osm_id": 115106, "countrylevel_id": "iso2:RU-VLG", "osm_data": {"localname": "Вологодская область", "official_name": "", "alltags": {"int_ref": "RU-VLG", "name:af": "Wologda-oblast", "name:az": "Voloqda vilayəti", "name:be": "Валагодская вобласць", "name:ca": "Província de Vólogda", "name:cs": "Vologdská oblast", "name:cy": "Oblast Vologda", "name:el": "Περιφέρεια Βόλογκντα", "name:en": "Vologda Oblast", "name:eo": "Vologda provinco", "name:es": "Óblast de Vólogda", "name:fi": "Vologdan alue", "name:fr": "Oblast de Vologda", "name:hu": "Vologdai terület", "name:hy": "Վոլոգդայի մարզ", "name:ja": "ヴォログダ州", "name:ka": "ვოლოგდის ოლქი", "name:kv": "Вӧлӧгда обласьт", "name:lt": "Vologdos sritis", "name:nl": "Oblast Vologda", "name:oc": "Oblast de Vologda", "name:os": "Вологдæйы облæст", "name:pl": "Obwód wołogodzki", "name:pt": "Oblast de Vologda", "name:ru": "Вологодская область", "name:sh": "Vologodska oblast", "name:sk": "Vologdská oblasť", "name:sv": "Vologda oblast", "name:sw": "Vologda Oblast", "name:tr": "Vologda Oblastı", "name:tt": "Вологда өлкәсе", "name:uk": "Вологодська область", "name:vi": "Vologda (tỉnh)", "website": "https://vologda-oblast.ru/", "name:bxr": "Вологдын можо", "name:kbd": "Вологда област", "name:mhr": "Вологдо вел", "name:myv": "Вологдань ёнкс", "name:sah": "Вологда уобалаһа", "population": "1196196", "addr:country": "RU", "is_in:country": "Russia", "gost_7.67-2003": "РОФ-ВОЛ", "name:be-tarask": "Валагодзкая вобласьць", "is_in:continent": "Europe", "official_status": "ru:область", "population:date": "2013-01-01", "is_in:country_code": "RU"}}, "center_lat": 59.97, "center_lon": 40.5, "area_m2": 145158259654, "timezone": "Europe/Moscow", "population": 1176689, "wikidata_id": "Q2015", "wikipedia_id": "ru:Вологодская область"}}