{"type": "Feature", "geometry": {"type": "Polygon", "coordinates": [[[115.73, 56.962], [116.743, 56.739], [117.577, 56.916], [117.576, 57.165], [117.14, 57.665], [117.346, 57.864], [117.472, 58.326], [117.672, 58.406], [118.254, 58.398], [118.475, 58.23], [119.117, 58.238], [119.046, 57.765], [119.691, 57.175], [119.856, 56.896], [119.797, 56.597], [120.539, 56.266], [120.033, 56.109], [120.34, 55.883], [120.856, 56.022], [121.213, 56.028], [121.336, 55.53], [121.899, 55.62], [122, 55.434], [121.88, 54.803], [121.93, 54.569], [121.656, 54.358], [121.626, 54.097], [121.946, 53.827], [122.112, 53.431], [121.488, 53.333], [120.941, 53.296], [120.281, 52.861], [120.027, 52.776], [120.185, 52.577], [120.686, 52.518], [120.78, 52.164], [120.648, 51.923], [120.05, 51.63], [119.754, 51.089], [119.274, 50.603], [119.274, 50.105], [119.084, 49.984], [118.555, 49.922], [118.074, 49.614], [117.793, 49.52], [117.061, 49.686], [116.714, 49.846], [116.233, 50.036], [115.745, 49.888], [115.224, 49.988], [114.831, 50.224], [114.178, 50.243], [113.218, 49.837], [113.044, 49.608], [111.996, 49.392], [111.668, 49.38], [110.684, 49.171], [110.226, 49.158], [109.559, 49.221], [109.171, 49.353], [108.571, 49.331], [107.968, 49.655], [107.754, 49.971], [107.734, 50.111], [108.679, 50.537], [108.182, 50.65], [108.501, 51.405], [109.62, 51.449], [110.059, 51.621], [110.71, 51.517], [111.016, 51.792], [111.712, 51.976], [112.074, 52.285], [112.41, 52.215], [113.152, 52.454], [113.487, 52.471], [114.082, 52.68], [114.33, 53.06], [113.924, 53.284], [113.825, 53.632], [114.867, 53.954], [115.606, 54.415], [116.176, 54.511], [116.637, 54.507], [116.781, 54.607], [116.841, 55.034], [116.451, 55.326], [115.975, 55.356], [115.693, 56.272], [115.687, 56.566], [115.412, 56.606], [115.73, 56.962]]]}, "properties": {"name": "Zabaykalsky Krai", "iso2": "RU-ZAB", "admin_level": 4, "osm_id": 145730, "countrylevel_id": "iso2:RU-ZAB", "osm_data": {"localname": "Забайкальский край", "official_name": "", "alltags": {"int_ref": "RU-ZAB", "name:ar": "كراي عبر البايكال", "name:ca": "Territori de Zabaikal", "name:cs": "Zabajkalský kraj", "name:en": "Zabaykalsky Krai", "name:es": "Krai de Zabaikalie", "name:fr": "Kraï de Transbaïkalie", "name:hu": "Bajkálontúli határterület", "name:it": "Territorio della Transbajkalia", "name:ja": "ザバイカリエ地方", "name:lt": "Užbaikalės kraštas", "name:nl": "Kraj Transbaikal", "name:pl": "Kraj Zabajkalski", "name:pt": "Krai de Zabaykalsky", "name:ru": "Забайкальский край", "name:sk": "Zabajkalský kraj", "name:sv": "Zabajkalskij kraj", "name:uk": "Забайкальський край", "name:vi": "Zabaykalsky (vùng)", "name:zh": "外貝加爾邊疆區", "int_name": "Zabaykalsky Krai", "old_name": "Читинская область", "oktmo:user": "76000000", "population": "1090419", "alt_name:ca": "Territori de Transbaikal", "addr:country": "RU", "is_in:country": "Russia", "gost_7.67-2003": "РОФ-ЗАБ", "is_in:continent": "Asia", "official_status": "ru:край", "is_in:country_code": "RU"}}, "center_lat": 52.85, "center_lon": 116.2, "area_m2": 431294069370, "timezone": "Asia/Chita", "population": 1072806, "wikidata_id": "Q6838", "wikipedia_id": "ru:Забайкальский край"}}