{"type": "Feature", "geometry": {"type": "MultiPolygon", "coordinates": [[[[18.197, 45.079], [18.221, 45.097], [18.209, 45.121], [18.253, 45.139], [18.279, 45.118], [18.306, 45.116], [18.326, 45.101], [18.406, 45.11], [18.425, 45.108], [18.469, 45.067], [18.447, 45.065], [18.386, 45.023], [18.345, 45.02], [18.332, 44.993], [18.246, 45.065], [18.197, 45.079]]], [[[18.479, 45.062], [18.536, 45.061], [18.549, 45.079], [18.532, 45.091], [18.574, 45.095], [18.613, 45.08], [18.609, 45.063], [18.658, 45.057], [18.713, 45.038], [18.738, 45.016], [18.728, 44.999], [18.794, 44.995], [18.786, 44.966], [18.726, 44.956], [18.635, 44.991], [18.59, 45.004], [18.479, 45.062]]]]}, "properties": {"name": "Posavina Canton", "iso2": "BA-02", "admin_level": 5, "osm_id": 2528150, "countrylevel_id": "iso2:BA-02", "osm_data": {"localname": "Županija posavska", "official_name": "", "alltags": {"name:bs": "Posavski kanton", "name:ca": "Cantó de Posavina", "name:en": "Posavina Canton", "name:fr": "Canton de la Posavina", "name:hr": "Županija posavska", "name:ru": "Посавский кантон", "name:sr": "Посавски кантон"}}, "center_lat": 45.05, "center_lon": 18.48, "area_m2": 323085044, "timezone": "Europe/Sarajevo", "wikidata_id": "Q18249", "wikipedia_id": "en:Posavina Canton"}}