{"type": "Feature", "geometry": {"type": "MultiPolygon", "coordinates": [[[[14.707, 55.143], [14.706, 55.144], [14.711, 55.221], [14.711, 55.222], [14.752, 55.27], [14.752, 55.271], [14.753, 55.272], [14.753, 55.271], [14.754, 55.271], [14.753, 55.272], [14.753, 55.274], [14.754, 55.274], [14.756, 55.276], [14.755, 55.277], [14.778, 55.291], [14.778, 55.29], [14.782, 55.29], [14.8, 55.281], [14.836, 55.25], [14.835, 55.249], [14.837, 55.249], [14.835, 55.249], [14.834, 55.249], [14.836, 55.248], [14.837, 55.248], [14.839, 55.248], [14.838, 55.248], [14.837, 55.248], [14.839, 55.248], [14.838, 55.249], [14.838, 55.248], [14.838, 55.249], [14.84, 55.248], [14.841, 55.248], [14.842, 55.247], [14.86, 55.241], [14.861, 55.241], [14.862, 55.241], [14.864, 55.241], [14.919, 55.22], [14.92, 55.22], [15.037, 55.173], [15.038, 55.173], [15.084, 55.153], [15.085, 55.153], [15.139, 55.143], [15.146, 55.136], [15.137, 55.066], [15.137, 55.065], [15.138, 55.064], [15.138, 55.063], [15.039, 54.995], [15.038, 54.995], [14.734, 55.071], [14.732, 55.073], [14.707, 55.143]]], [[[14.728, 55.246], [14.728, 55.245], [14.729, 55.245], [14.73, 55.246], [14.73, 55.245], [14.729, 55.245], [14.729, 55.244], [14.728, 55.245], [14.728, 55.246]]], [[[11.864, 55.796], [11.865, 55.797], [12.036, 55.837], [12.05, 55.812], [12.051, 55.812], [12.052, 55.812], [11.981, 55.73], [11.876, 55.738], [11.864, 55.796]]], [[[12.55, 55.642], [12.551, 55.641], [12.55, 55.641], [12.55, 55.642]]], [[[12.585, 55.671], [12.586, 55.671], [12.591, 55.673], [12.594, 55.674], [12.596, 55.675], [12.596, 55.676], [12.598, 55.676], [12.599, 55.678], [12.601, 55.677], [12.599, 55.678], [12.597, 55.679], [12.598, 55.68], [12.6, 55.679], [12.599, 55.678], [12.6, 55.679], [12.602, 55.679], [12.607, 55.678], [12.608, 55.677], [12.609, 55.678], [12.61, 55.683], [12.61, 55.684], [12.609, 55.684], [12.608, 55.697], [12.629, 55.697], [12.63, 55.694], [12.629, 55.695], [12.628, 55.694], [12.629, 55.694], [12.637, 55.677], [12.639, 55.677], [12.641, 55.671], [12.636, 55.67], [12.639, 55.657], [12.639, 55.656], [12.648, 55.648], [12.681, 55.627], [12.681, 55.616], [12.676, 55.595], [12.676, 55.594], [12.676, 55.589], [12.676, 55.588], [12.585, 55.671]]], [[[12.603, 55.679], [12.601, 55.68], [12.604, 55.683], [12.604, 55.684], [12.606, 55.678], [12.604, 55.679], [12.603, 55.679]]], [[[11.846, 55.965], [11.907, 55.994], [12.276, 56.128], [12.527, 56.084], [12.529, 56.083], [12.568, 56.064], [12.569, 56.063], [12.574, 56.06], [12.585, 56.055], [12.587, 56.054], [12.596, 56.05], [12.598, 56.049], [12.599, 56.048], [12.6, 56.048], [12.601, 56.047], [12.602, 56.047], [12.603, 56.046], [12.604, 56.046], [12.605, 56.045], [12.553, 55.983], [12.544, 55.887], [12.574, 55.838], [12.574, 55.837], [12.59, 55.797], [12.59, 55.796], [12.592, 55.793], [12.592, 55.792], [12.593, 55.792], [12.595, 55.786], [12.595, 55.785], [12.593, 55.78], [12.593, 55.779], [12.602, 55.763], [12.603, 55.763], [12.605, 55.708], [12.596, 55.71], [12.599, 55.708], [12.599, 55.707], [12.583, 55.676], [12.583, 55.677], [12.58, 55.678], [12.578, 55.677], [12.556, 55.654], [12.553, 55.654], [12.556, 55.653], [12.546, 55.639], [12.545, 55.639], [12.544, 55.638], [12.543, 55.638], [12.542, 55.637], [12.541, 55.637], [12.531, 55.636], [12.532, 55.637], [12.529, 55.638], [12.527, 55.639], [12.527, 55.638], [12.527, 55.637], [12.528, 55.637], [12.529, 55.637], [12.53, 55.637], [12.531, 55.637], [12.532, 55.637], [12.529, 55.637], [12.528, 55.637], [12.507, 55.636], [12.505, 55.638], [12.503, 55.639], [12.406, 55.612], [12.404, 55.612], [12.364, 55.594], [12.246, 55.705], [12.209, 55.731], [12.206, 55.751], [12.158, 55.748], [12.113, 55.768], [12.109, 55.774], [12.092, 55.779], [12.091, 55.78], [12.09, 55.78], [12.09, 55.781], [12.089, 55.781], [12.086, 55.782], [12.054, 55.837], [12.054, 55.838], [12.048, 55.915], [12.045, 55.92], [12.045, 55.921], [12.044, 55.923], [12.043, 55.923], [12.042, 55.925], [12.042, 55.927], [12.04, 55.929], [12.037, 55.933], [12.036, 55.933], [12.032, 55.937], [12.031, 55.937], [12.029, 55.941], [12.028, 55.942], [11.846, 55.965]]]]}, "properties": {"name": "Capital Region of Denmark", "iso2": "DK-84", "admin_level": 4, "osm_id": 1320608, "countrylevel_id": "iso2:DK-84", "osm_data": {"localname": "Region Hovedstaden", "official_name": "", "alltags": {"name:bg": "Столична област", "name:ce": "Коьрта гӀалин регион", "name:cs": "Hovedstaden", "name:da": "Region Hovedstaden", "name:en": "Capital Region of Denmark", "name:eo": "Regiono Hovedstaden", "name:es": "Región Capital", "name:et": "Pealinna piirkond", "name:fi": "Pääkaupunkialue", "name:gv": "Ard Preeu-valjagh ny Danvarg", "name:hu": "Hovedstaden régió", "name:hy": "Մայրաքաղաքային տարածաշրջան", "name:ka": "დედაქალაქის რეგიონი", "name:kk": "Астаналық облыс", "name:ko": "덴마크 수도 지역", "name:la": "Regio Capitis", "name:lt": "Sostinės regionas", "name:mk": "Престолнински регион", "name:ms": "Wilayah Hovedstaden", "name:nl": "Hoofdstad", "name:os": "Сæйраг сахары облæст", "name:pl": "Region Stołeczny", "name:pt": "Região da Capital", "name:ro": "Regiunea Hovedstaden", "name:ru": "Столичная область", "name:se": "Oaivegávpoga regiuvdna", "name:uk": "Столичний регіон", "name:vi": "Vùng thủ đô Đan Mạch", "name:frr": "Regiuun Hovedstaden", "name:nds": "Hööftstadt-Region"}}, "center_lat": 55.69, "center_lon": 12.89, "area_m2": 2559474125, "timezone": "Europe/Stockholm", "population": 1848989, "wikidata_id": "Q26073", "wikipedia_id": "da:Region Hovedstaden"}}