{"type": "Feature", "geometry": {"type": "MultiPolygon", "coordinates": [[[[8.254, 56.723], [8.254, 56.725], [8.255, 56.724], [8.255, 56.723], [8.254, 56.723]]], [[[9.099, 56.886], [9.098, 56.887], [9.099, 56.886], [9.098, 56.886], [9.127, 56.863], [9.11, 56.871], [9.107, 56.873], [9.103, 56.876], [9.093, 56.882], [9.07, 56.896], [9.083, 56.905], [9.099, 56.886]]], [[[8.947, 56.934], [8.947, 56.935], [8.949, 56.934], [8.948, 56.934], [8.948, 56.933], [8.948, 56.934], [8.947, 56.934]]], [[[8.611, 56.827], [8.612, 56.827], [8.832, 56.873], [8.831, 56.872], [8.847, 56.827], [8.848, 56.826], [8.731, 56.68], [8.731, 56.682], [8.73, 56.682], [8.73, 56.681], [8.729, 56.681], [8.73, 56.68], [8.723, 56.681], [8.722, 56.681], [8.613, 56.706], [8.612, 56.706], [8.612, 56.707], [8.613, 56.708], [8.613, 56.713], [8.612, 56.713], [8.613, 56.719], [8.612, 56.719], [8.603, 56.716], [8.588, 56.732], [8.585, 56.722], [8.585, 56.72], [8.585, 56.715], [8.589, 56.708], [8.561, 56.708], [8.56, 56.708], [8.611, 56.827]]], [[[9.207, 56.71], [9.212, 56.71], [9.213, 56.71], [9.214, 56.711], [9.222, 56.716], [9.182, 56.817], [9.185, 56.819], [9.375, 57.01], [9.377, 57.01], [9.561, 56.959], [9.56, 56.96], [9.56, 56.933], [9.561, 56.933], [9.56, 56.932], [9.56, 56.931], [9.865, 57.052], [9.867, 57.053], [9.881, 57.059], [9.882, 57.059], [9.883, 57.059], [9.884, 57.058], [9.885, 57.059], [9.886, 57.059], [9.887, 57.059], [9.909, 57.057], [9.915, 57.054], [9.917, 57.053], [9.934, 57.049], [10.112, 57.026], [10.113, 57.026], [10.115, 57.025], [10.116, 57.024], [10.301, 56.975], [10.293, 56.966], [10.292, 56.966], [10.271, 56.83], [10.271, 56.829], [10.274, 56.817], [10.274, 56.816], [10.279, 56.804], [10.117, 56.715], [10.115, 56.714], [9.931, 56.655], [9.805, 56.639], [9.806, 56.638], [9.931, 56.647], [10.194, 56.684], [9.752, 56.556], [9.32, 56.672], [9.207, 56.71]], [[9.322, 56.666], [9.323, 56.665], [9.323, 56.666], [9.322, 56.666]]], [[[9.26, 56.987], [9.248, 56.985], [9.253, 56.989], [9.265, 56.989], [9.26, 56.987]]], [[[8.395, 56.972], [8.398, 56.974], [8.402, 56.977], [8.406, 56.981], [8.42, 56.993], [8.59, 57.122], [8.589, 57.124], [8.59, 57.125], [8.592, 57.123], [8.593, 57.124], [8.592, 57.12], [8.592, 57.121], [8.594, 57.12], [8.593, 57.119], [8.594, 57.118], [8.595, 57.118], [8.596, 57.119], [8.595, 57.12], [8.596, 57.12], [8.594, 57.122], [8.599, 57.125], [8.596, 57.126], [8.609, 57.124], [8.613, 57.124], [8.616, 57.125], [8.821, 57.108], [8.826, 57.109], [9.003, 57.155], [9.009, 57.155], [9.02, 57.157], [9.023, 57.158], [9.026, 57.159], [9.065, 57.151], [9.093, 57.145], [9.1, 57.144], [9.123, 57.141], [9.127, 57.141], [9.13, 57.14], [9.147, 57.139], [9.699, 57.366], [9.711, 57.375], [10.039, 57.591], [10.045, 57.591], [10.345, 57.646], [10.357, 57.651], [10.557, 57.743], [10.558, 57.743], [10.568, 57.745], [10.576, 57.748], [10.597, 57.751], [10.615, 57.752], [10.649, 57.747], [10.64, 57.74], [10.639, 57.739], [10.607, 57.721], [10.605, 57.72], [10.5, 57.67], [10.498, 57.669], [10.426, 57.578], [10.426, 57.577], [10.427, 57.571], [10.427, 57.57], [10.489, 57.505], [10.542, 57.466], [10.539, 57.465], [10.538, 57.465], [10.537, 57.466], [10.535, 57.465], [10.537, 57.465], [10.538, 57.465], [10.536, 57.464], [10.537, 57.463], [10.539, 57.464], [10.538, 57.465], [10.542, 57.466], [10.539, 57.465], [10.566, 57.444], [10.562, 57.441], [10.563, 57.439], [10.56, 57.437], [10.559, 57.438], [10.554, 57.441], [10.552, 57.436], [10.551, 57.436], [10.515, 57.383], [10.515, 57.382], [10.531, 57.313], [10.532, 57.31], [10.5, 57.207], [10.499, 57.207], [10.424, 57.15], [10.423, 57.149], [10.423, 57.146], [10.423, 57.141], [10.423, 57.14], [10.357, 57.018], [10.356, 57.018], [10.347, 57.005], [10.347, 57.004], [9.9, 57.064], [9.9, 57.063], [9.898, 57.063], [9.897, 57.063], [9.738, 57.065], [9.734, 57.065], [9.651, 57.071], [9.432, 57.038], [9.43, 57.037], [9.128, 57.039], [9.124, 57.038], [8.975, 57.011], [8.973, 57.009], [8.695, 56.952], [8.697, 56.952], [8.695, 56.95], [8.695, 56.951], [8.692, 56.951], [8.405, 56.676], [8.404, 56.67], [8.404, 56.671], [8.367, 56.677], [8.364, 56.677], [8.253, 56.775], [8.251, 56.725], [8.252, 56.725], [8.251, 56.724], [8.252, 56.722], [8.247, 56.702], [8.248, 56.702], [8.249, 56.701], [8.247, 56.702], [8.246, 56.702], [8.248, 56.701], [8.247, 56.701], [8.223, 56.727], [8.228, 56.781], [8.395, 56.972]]], [[[10.924, 57.296], [10.925, 57.296], [11.117, 57.32], [11.119, 57.32], [10.954, 57.235], [10.952, 57.235], [10.907, 57.246], [10.906, 57.246], [10.924, 57.296]]]]}, "properties": {"name": "North Denmark Region", "iso2": "DK-81", "admin_level": 4, "osm_id": 1319936, "countrylevel_id": "iso2:DK-81", "osm_data": {"localname": "Region Nordjylland", "official_name": "", "alltags": {"name:ar": "مقاطعة نوردلاند", "name:bg": "Северна Ютландия", "name:ca": "Jutlàndia Septentrional", "name:ce": "Къилбаседера Ютланди", "name:da": "Region Nordjylland", "name:en": "North Denmark Region", "name:eo": "Regiono Norda Jutlando", "name:es": "Jutlandia Septentrional", "name:et": "Põhja-Jüütimaa piirkond", "name:eu": "Ipar Jutlandia", "name:fa": "استان نوردیولند", "name:fi": "Pohjois-Jyllannin alue", "name:fr": "Jutland du Nord", "name:hr": "Sjeverni Jutland", "name:hu": "Nordjylland régió", "name:hy": "Հյուսիսային Դանիա տարածաշրջան", "name:it": "Jutland settentrionale", "name:ja": "北ユラン地域", "name:ka": "ჩრდილოეთ იუტლანდიის რეგიონი", "name:kk": "Солтүстік Ютландия", "name:ko": "북윌란 지역", "name:la": "Iutia Septentrionalis", "name:lt": "Šiaurės Jutlandijos regionas", "name:lv": "Ziemeļjitlandes reģions", "name:mk": "Северна Данска", "name:ms": "Wilayah Nordjylland", "name:nl": "Noord-Jutland", "name:oc": "Jutlàndia Septentrionala", "name:os": "Цæгат Ютланди", "name:pl": "Jutlandia Północna", "name:pt": "Jutlândia do Norte", "name:ro": "Regiunea Nordjylland", "name:ru": "Северная Ютландия", "name:se": "Davvi-Jyllándda regiuvdna", "name:sk": "Severné Jutsko", "name:sr": "Северна Данска", "name:uk": "Північна Ютландія", "name:vi": "Bắc Jutland", "name:zh": "北日德兰大区", "name:frr": "Regiuun Nordjylland", "name:nds": "Region Noordjüütland", "name:sco": "North Denmark Region"}}, "center_lat": 57.05, "center_lon": 9.68, "area_m2": 7884621299, "timezone": "Europe/Copenhagen", "population": 590580, "wikidata_id": "Q26067", "wikipedia_id": "da:Region Nordjylland"}}