{"type": "Feature", "geometry": {"type": "Polygon", "coordinates": [[[125.182, 38.637], [125.183, 38.636], [125.186, 38.63], [125.192, 38.625], [125.253, 38.64], [125.258, 38.684], [125.438, 38.727], [125.614, 38.65], [125.751, 38.305], [126.007, 38.173], [126.37, 38.108], [126.399, 37.892], [126.395, 37.893], [125.906, 37.844], [125.803, 37.991], [125.468, 37.727], [124.981, 37.94], [124.897, 38.378], [125.181, 38.636], [125.182, 38.637]]]}, "properties": {"name": "Hwanghaenam-do", "iso2": "KP-05", "admin_level": 4, "osm_id": 356533, "countrylevel_id": "iso2:KP-05", "osm_data": {"localname": "황해남도", "official_name": "", "alltags": {"name:bg": "Южен Хванхе", "name:cs": "Jižní Hwanghä", "name:da": "Sydhwanghae", "name:en": "Hwanghaenam-do", "name:eo": "Sud-Hŭanghae", "name:es": "Hwanghae del Sur", "name:fi": "Etelä-Hwanghae", "name:fr": "Hwanghae du Sud", "name:id": "Hwanghae Selatan", "name:it": "Sud Hwanghae", "name:ja": "黄海南道", "name:ko": "황해남도", "name:lt": "Pietų Hvanghės provincija", "name:nl": "Hwanghae-namdo", "name:no": "Sør-Hwanghae", "name:pl": "Hwanghae Południowe", "name:pt": "Hwanghae Sul", "name:ru": "Хванхэ-Намдо", "name:sv": "Södra Hwanghae", "name:uk": "Південна провінція Хванхе", "name:vi": "Hoàng Hải Nam", "name:zh": "黄海南道", "name:zh-Hans": "黄海南道", "name:zh-Hant": "黃海南道", "is_in:country": "North Korea", "name:ko_hanja": "黃海南道", "is_in:continent": "Asia", "is_in:country_code": "KP"}}, "center_lat": 38.19, "center_lon": 125.54, "area_m2": 8438546065, "timezone": "Asia/Pyongyang", "population": 2310485, "wikidata_id": "Q626052", "wikipedia_id": "en:South Hwanghae Province"}}