{"type": "Feature", "geometry": {"type": "Polygon", "coordinates": [[[53.192, 46.012], [53.684, 46.016], [53.972, 46.246], [54.833, 46.364], [55.27, 46.367], [55.488, 46.52], [55.804, 46.408], [56.122, 46.155], [56.467, 46.132], [56.606, 45.926], [56.744, 45.177], [55.999, 45], [55.999, 43.753], [55.999, 41.32], [55.5, 41.252], [55.315, 41.391], [54.779, 42.053], [54.218, 42.379], [53.571, 42.289], [52.985, 42.121], [52.45, 41.762], [52.424, 42.08], [52.737, 42.733], [52.14, 42.88], [51.905, 42.833], [51.661, 43.18], [51.284, 43.146], [51.315, 43.45], [51.024, 43.81], [50.748, 44.254], [50.249, 44.386], [50.312, 44.646], [51.284, 44.543], [50.981, 44.868], [51.388, 45.306], [51.873, 45.417], [52.141, 45.385], [52.615, 45.506], [52.709, 45.655], [53.185, 46.001], [53.192, 46.012]]]}, "properties": {"name": "Mangystau Region", "iso2": "KZ-MAN", "admin_level": 4, "osm_id": 215686, "countrylevel_id": "iso2:KZ-MAN", "osm_data": {"localname": "Мангистауская область", "official_name": "", "alltags": {"name:cs": "Mangystauská oblast", "name:en": "Mangystau Region", "name:es": "Provincia de Mangystau", "name:fr": "Oblys de Manguistaou", "name:ja": "マンギスタウ州", "name:kk": "Маңғыстау облысы", "name:ru": "Мангистауская область", "addr:country": "KZ", "is_in:country": "Kazakhstan", "is_in:continent": "Asia", "is_in:country_code": "KZ"}}, "center_lat": 44.13, "center_lon": 53.96, "area_m2": 167797845641, "timezone": "Asia/Aqtau", "population": 596706, "wikidata_id": "Q238931", "wikipedia_id": "ru:Мангистауская область"}}