{"type": "Feature", "geometry": {"type": "Polygon", "coordinates": [[[73.438, 53.435], [73.901, 53.651], [74.487, 53.572], [74.788, 53.828], [75.046, 53.793], [75.689, 54.123], [76.257, 54.359], [76.879, 54.302], [76.538, 54], [77.907, 53.291], [79.187, 51.923], [79.347, 51.709], [78.698, 51.312], [78.064, 51.127], [78.278, 50.883], [78.696, 50.66], [78.82, 50.321], [78.414, 50.038], [77.697, 50.222], [77.646, 50.465], [77.077, 50.668], [76.781, 50.591], [76.526, 50.331], [75.848, 50.204], [75.329, 50.173], [74.628, 50.607], [73.994, 50.611], [73.921, 50.78], [74.031, 51.202], [73.671, 51.279], [73.816, 51.44], [73.817, 51.79], [74, 51.932], [74, 52.544], [73.922, 52.593], [73.406, 53.167], [73.438, 53.435]]]}, "properties": {"name": "Pavlodar Region", "iso2": "KZ-PAV", "admin_level": 4, "osm_id": 215772, "countrylevel_id": "iso2:KZ-PAV", "osm_data": {"localname": "Павлодарская область", "official_name": "", "alltags": {"name:ca": "Província de Pavlodar", "name:cs": "Pavlodarská oblast", "name:en": "Pavlodar Region", "name:es": "Provincia de Pavlodar", "name:fr": "Oblys de Pavlodar", "name:ja": "パブロダール州", "name:kk": "Павлодар облысы", "name:ru": "Павлодарская область", "is_in:country": "Kazakhstan", "is_in:continent": "Asia", "is_in:country_code": "KZ"}}, "center_lat": 52.07, "center_lon": 76.24, "area_m2": 124402179525, "timezone": "Asia/Almaty", "wikidata_id": "Q486144", "wikipedia_id": "ru:Павлодарская область"}}