{"type": "Feature", "geometry": {"type": "Polygon", "coordinates": [[[69.067, 46], [71.326, 46.007], [72.807, 46.002], [74.061, 46.001], [73.902, 45.747], [74.133, 44.913], [74.523, 44.699], [74.52, 44.486], [75.307, 44.148], [75.285, 43.861], [74.997, 43.651], [75.389, 43.535], [75.344, 43.15], [75.824, 42.94], [75.717, 42.797], [75.231, 42.854], [74.294, 43.242], [73.559, 43.029], [73.433, 42.549], [73.515, 42.435], [73.12, 42.552], [71.864, 42.833], [71.268, 42.778], [71.002, 42.585], [70.866, 42.32], [70.62, 42.532], [70.207, 42.747], [70.225, 42.943], [69.917, 43.211], [69.529, 43.309], [69.825, 44.161], [69.653, 44.888], [69.267, 45.769], [69.067, 46]]]}, "properties": {"name": "Jambyl Region", "iso2": "KZ-ZHA", "admin_level": 4, "osm_id": 215722, "countrylevel_id": "iso2:KZ-ZHA", "osm_data": {"localname": "Жамбылская область", "official_name": "", "alltags": {"name:cs": "Žambylská oblast", "name:en": "Jambyl Region", "name:es": "Provincia de Zhambyl", "name:fr": "Oblys de Djamboul", "name:ja": "ジャンブール州", "name:kk": "Жамбыл облысы", "name:ru": "Жамбылская область", "addr:country": "KZ", "is_in:country": "Kazakhstan", "is_in:continent": "Asia", "is_in:country_code": "KZ"}}, "center_lat": 44.32, "center_lon": 72.14, "area_m2": 144276152696, "timezone": "Asia/Almaty", "population": 1071645, "wikidata_id": "Q486657", "wikipedia_id": "ru:Жамбылская область"}}