{"type": "Feature", "geometry": {"type": "Polygon", "coordinates": [[[105.206, 14.343], [105.524, 14.55], [105.573, 15.001], [105.481, 15.098], [105.591, 15.425], [106.074, 15.467], [106.317, 15.39], [106.568, 15.309], [106.669, 15.13], [106.824, 14.956], [106.615, 14.762], [106.333, 15.011], [106.18, 14.821], [106.337, 14.443], [106.023, 14.312], [106.188, 14.063], [106.105, 13.91], [105.899, 13.937], [105.557, 14.161], [105.362, 14.106], [105.206, 14.343]]]}, "properties": {"name": "Champasak Province", "iso2": "LA-CH", "admin_level": 4, "osm_id": 5831656, "countrylevel_id": "iso2:LA-CH", "osm_data": {"localname": "ຈຳປາສັກ", "official_name": "", "alltags": {"name:cs": "Čampasak", "name:en": "Champasak Province", "name:ja": "チャンパーサック", "name:lo": "ຈໍາປາສັກ", "name:ru": "Тямпасак", "name:vi": "Chăm-pa-sắc", "alt_name": "Champassak;Champasack;Champasak", "name:lo_rm": "Champasak"}}, "center_lat": 14.77, "center_lon": 105.96, "area_m2": 14897861266, "timezone": "Asia/Vientiane", "population": 694023, "wikidata_id": "Q334888", "wikipedia_id": "en:Champasak Province"}}