{"type": "Feature", "geometry": {"type": "Polygon", "coordinates": [[[103.4, 20.783], [103.735, 20.667], [103.902, 20.903], [104.122, 20.97], [104.64, 20.653], [104.63, 20.23], [104.914, 20.156], [104.907, 19.998], [104.835, 19.802], [104.567, 19.615], [104.161, 19.695], [103.876, 19.957], [103.468, 19.866], [103.136, 19.921], [103.11, 20.164], [103.243, 20.325], [103.218, 20.699], [103.4, 20.783]]]}, "properties": {"name": "Houaphanh", "iso2": "LA-HO", "admin_level": 4, "osm_id": 5831657, "countrylevel_id": "iso2:LA-HO", "osm_data": {"localname": "ຫົວພັນ", "official_name": "", "alltags": {"name:ar": "محافظة هوا فان", "name:en": "Houaphanh", "name:eo": "Provinco Huaphanh", "name:es": "Provincia de Houaphan", "name:fa": "استان هوافان", "name:fi": "Houaphan", "name:fr": "Province de Houaphan", "name:hi": "हुआफान्ह प्रान्त", "name:hr": "Houaphan", "name:hu": "Huaphan tartomány", "name:id": "Provinsi Houaphanh", "name:it": "Provincia di Houaphan", "name:ja": "フアパン", "name:km": "ខេត្ត ហួ ផាន់", "name:ko": "후아판 주", "name:lo": "ຫົວພັນ", "name:ms": "Wilayah Houaphanh", "name:nl": "Hua Phan", "name:no": "Hua Phan", "name:pl": "Prowincja Houaphan", "name:pt": "Houaphanh", "name:ru": "Хуапхан", "name:sv": "Hua Phan", "name:tg": "Вилояти Ҳоуапан", "name:th": "แขวงหัวพัน", "name:uk": "Хуапхан", "name:ur": "ہوافان صوبہ", "name:vi": "Hủa Phăn", "name:zh": "华潘省", "alt_name": "Houaphan", "old_name": "Hua Phan", "name:lo_rm": "Houaphan", "alt_name:vi": "Huaphanh", "old_name:vi": "Sầm Châu; Châu Sầm"}}, "center_lat": 20.28, "center_lon": 104.01, "area_m2": 17432074676, "timezone": "Asia/Vientiane", "wikidata_id": "Q502997", "wikipedia_id": "en:Houaphanh Province"}}