{"type": "Feature", "geometry": {"type": "Polygon", "coordinates": [[[101.216, 20.309], [101.455, 20.362], [101.558, 20.498], [101.511, 20.867], [101.76, 21.145], [101.841, 21.215], [102.286, 20.976], [102.358, 20.858], [102.137, 20.372], [102.143, 20.09], [101.722, 19.936], [101.621, 19.837], [101.245, 19.818], [100.772, 19.88], [101.216, 20.309]]]}, "properties": {"name": "Oudomxay", "iso2": "LA-OU", "admin_level": 4, "osm_id": 5831661, "countrylevel_id": "iso2:LA-OU", "osm_data": {"localname": "ອຸດົມໄຊ", "official_name": "", "alltags": {"name:ar": "محافظة أودومكساي", "name:az": "Udomsay əyaləti", "name:en": "Oudomxay", "name:eo": "Provinco Udomsai", "name:es": "Provincia de Oudomxay", "name:fa": "استان اودومشای", "name:fi": "Oudomxai", "name:fr": "Province d'Oudomxay", "name:hi": "उडोमसाए प्रान्त", "name:hr": "Oudomxay", "name:hu": "Udomszaj tartomány", "name:id": "Provinsi Oudomxai", "name:it": "Provincia di Oudomxay", "name:ja": "ウドムサイ", "name:km": "ខេត្តឧត្តមជ័យ", "name:ko": "우돔싸이 주", "name:lo": "ອຸດົມໄຊ", "name:lt": "Udomsajaus provincija", "name:ms": "Wilayah Oudomxay", "name:nl": "Udomxai", "name:no": "Udomxai", "name:pl": "Prowincja Oudômxai", "name:pt": "Oudomxai", "name:ru": "Удомсай", "name:sv": "Udomxai", "name:tg": "Вилояти Оудомсаи", "name:th": "แขวงอุดมไซ", "name:uk": "Удомсай", "name:ur": "اودامسائے صوبہ", "name:vi": "Oudomxay", "name:zh": "乌多姆塞省", "alt_name": "Oudomxai", "name:lo_rm": "Oudômxai"}}, "center_lat": 20.43, "center_lon": 101.73, "area_m2": 11872702943, "timezone": "Asia/Vientiane", "wikidata_id": "Q465961", "wikipedia_id": "en:Oudomxay Province"}}