{"type": "Feature", "geometry": {"type": "Polygon", "coordinates": [[[104.737, 16.805], [104.735, 16.929], [104.855, 17.074], [105.22, 17.046], [105.653, 17.114], [105.861, 17.044], [106.122, 17.101], [106.426, 17.022], [106.549, 16.999], [106.565, 16.643], [106.772, 16.434], [106.646, 16.199], [106.123, 16.147], [106.092, 15.948], [105.781, 15.888], [105.425, 15.991], [105.06, 16.098], [104.978, 16.279], [104.735, 16.545], [104.737, 16.805]]]}, "properties": {"name": "Savannakhet Province", "iso2": "LA-SV", "admin_level": 4, "osm_id": 5831665, "countrylevel_id": "iso2:LA-SV", "osm_data": {"localname": "ສະຫວັນນະເຂດ", "official_name": "", "alltags": {"name:ar": "محافظة سافاناكيت", "name:en": "Savannakhet Province", "name:eo": "Provinco Savannaĥet", "name:es": "Provincia de Savannakhet", "name:fa": "استان ساوان‌ناکت", "name:fi": "Savannakhet", "name:fr": "Province de Savannakhet", "name:hi": "सवन्नाखेत प्रान्त", "name:hr": "Savannakhet", "name:hu": "Szavannakhet tartomány", "name:id": "Provinsi Savannakhet", "name:it": "Provincia di Savannakhet", "name:ja": "サワンナケート", "name:ko": "사반나케트 주", "name:lo": "ສະຫວັນນະເຂດ", "name:lt": "Savanaketo provincija", "name:mn": "Саваннакхет аймаг", "name:ms": "Wilayah Savannakhet", "name:nl": "Savannakhet", "name:no": "Savannakhet", "name:pl": "Prowincja Savannakhét", "name:pt": "Savannakhet", "name:ru": "Саваннакхет", "name:sv": "Savannakhet", "name:tg": "Вилояти Саваннаxет", "name:th": "แขวงสุวรรณเขต", "name:uk": "Саваннакхет", "name:ur": "ساواناخیت صوبہ", "name:vi": "Savannakhet", "name:zh": "沙湾拿吉省", "alt_name": "Savannakhet", "name:lo_rm": "Savannakhét"}}, "center_lat": 16.55, "center_lon": 105.71, "area_m2": 21493354836, "timezone": "Asia/Vientiane", "population": 969697, "wikidata_id": "Q465940", "wikipedia_id": "en:Savannakhet Province"}}