{"type": "Feature", "geometry": {"type": "Polygon", "coordinates": [[[107.15, 16.19], [107.467, 16.025], [107.215, 15.824], [107.386, 15.493], [107.625, 15.415], [107.623, 15.107], [107.52, 15.039], [107.463, 15.213], [107.199, 15.287], [106.753, 15.244], [106.669, 15.13], [106.568, 15.309], [106.317, 15.39], [106.356, 15.52], [106.68, 15.608], [106.65, 15.771], [106.85, 16.056], [107.15, 16.19]]]}, "properties": {"name": "Sekong Province", "iso2": "LA-XE", "admin_level": 4, "osm_id": 5831669, "countrylevel_id": "iso2:LA-XE", "osm_data": {"localname": "ເຊກອງ", "official_name": "", "alltags": {"name:ar": "محافظة سيكونغ", "name:en": "Sekong Province", "name:eo": "Provinco Sekong", "name:es": "Provincia de Sekong", "name:fa": "استان سکونگ", "name:fr": "Province de Sékong", "name:hi": "सेकोंग प्रान्त", "name:hr": "Sekong", "name:hu": "Szekong tartomány", "name:id": "Provinsi Xekong", "name:it": "Provincia di Xekong", "name:ja": "セーコーン", "name:ko": "세콩 주", "name:lo": "ເຊກອງ", "name:ms": "Wilayah Sekong", "name:nl": "Sekong", "name:no": "Sekong", "name:pl": "Prowincja Xékong", "name:pt": "Sekong", "name:ru": "Секонг", "name:sv": "Sekong", "name:tg": "Вилояти Секонг", "name:th": "แขวงเซกอง", "name:uk": "Секонг", "name:ur": "سیکونگ صوبہ", "name:vi": "Sê-kông", "name:zh": "塞公省", "alt_name": "Xekong;Sekong", "name:lo_rm": "Xékong"}}, "center_lat": 15.59, "center_lon": 107.03, "area_m2": 8438539227, "timezone": "Asia/Vientiane", "population": 113048, "wikidata_id": "Q585707", "wikipedia_id": "en:Sekong Province"}}