{"type": "Feature", "geometry": {"type": "Polygon", "coordinates": [[[47.024, 40.463], [47.043, 40.477], [47.033, 40.499], [47.092, 40.49], [47.111, 40.458], [47.13, 40.466], [47.135, 40.504], [47.209, 40.551], [47.228, 40.526], [47.279, 40.516], [47.261, 40.491], [47.293, 40.459], [47.298, 40.435], [47.328, 40.431], [47.323, 40.413], [47.353, 40.407], [47.359, 40.369], [47.389, 40.351], [47.414, 40.349], [47.423, 40.319], [47.449, 40.321], [47.438, 40.298], [47.465, 40.295], [47.467, 40.255], [47.413, 40.233], [47.363, 40.204], [47.317, 40.172], [47.269, 40.198], [47.269, 40.211], [47.213, 40.197], [47.178, 40.184], [47.11, 40.195], [47.105, 40.232], [47.122, 40.261], [47.1, 40.286], [47.125, 40.295], [47.095, 40.321], [47.037, 40.355], [47.015, 40.384], [47.01, 40.417], [47.05, 40.447], [47.024, 40.463]]]}, "properties": {"name": "Barda District", "iso2": "AZ-BAR", "admin_level": 4, "osm_id": 3764546, "countrylevel_id": "iso2:AZ-BAR", "osm_data": {"localname": "Bərdə rayonu", "official_name": "", "alltags": {"name:ar": "مقاطعة بردعة", "name:en": "Barda District", "name:es": "Bərdə", "name:fa": "شهرستان بردع", "name:fr": "Bərdə", "name:ja": "バルダ県", "name:ru": "Бардинский район", "name:ur": "بردع ضلع", "name:azb": "برده رایونو", "name:pnb": "ضلع بردع"}}, "center_lat": 40.35, "center_lon": 47.23, "area_m2": 945645113, "timezone": "Asia/Baku", "population": 152700, "wikidata_id": "Q330857", "wikipedia_id": "az:Bərdə rayonu"}}