{"type": "Feature", "geometry": {"type": "Polygon", "coordinates": [[[-5.315, 34.516], [-5.145, 34.765], [-4.791, 34.843], [-4.573, 34.683], [-4.143, 34.744], [-3.82, 34.888], [-3.593, 34.83], [-3.641, 34.633], [-3.844, 34.456], [-3.846, 34.022], [-4.11, 33.561], [-3.947, 33.515], [-3.516, 33.91], [-3.032, 33.731], [-3.257, 33.517], [-2.935, 33.256], [-3.029, 33.114], [-3.436, 33.057], [-3.576, 33.108], [-4.018, 32.608], [-4.217, 32.614], [-4.477, 32.883], [-4.77, 32.912], [-4.846, 33.076], [-5.255, 32.869], [-5.33, 33.083], [-5.576, 33.38], [-5.787, 33.47], [-5.715, 33.786], [-5.856, 34.143], [-5.469, 34.147], [-5.505, 34.324], [-5.315, 34.516]]]}, "properties": {"name": "Fez-Meknes", "iso2": "MA-03", "admin_level": 4, "osm_id": 4730909, "countrylevel_id": "iso2:MA-03", "osm_data": {"localname": "Fès-Meknès ⴼⴰⵙ-ⵎⴽⵏⴰⵙ فاس-مكناس", "official_name": "", "alltags": {"name:ar": "فاس - مكناس", "name:cs": "Fes-Meknes", "name:en": "Fez-Meknes", "name:es": "Fez-Mequinez", "name:fr": "Fès-Meknès", "name:pl": "Fez-Meknes", "name:ru": "Фес-Мекне́с", "name:uk": "Фес-Мекне́с", "network": "Régions du Maroc", "name:ber": "ⴼⴰⵙ-ⵎⴽⵏⴰⵙ", "population": "4236892", "ref:MA:HCP": "03.", "population:date": "2014"}}, "center_lat": 33.75, "center_lon": -4.49, "area_m2": 38960322107, "timezone": "Africa/Casablanca", "wikidata_id": "Q19951027", "wikipedia_id": "fr:Fès-Meknès"}}