{"type": "Feature", "geometry": {"type": "Polygon", "coordinates": [[[5.424, 36.654], [5.436, 36.64], [5.425, 36.604], [5.457, 36.606], [5.47, 36.595], [5.483, 36.571], [5.464, 36.561], [5.459, 36.539], [5.394, 36.507], [5.375, 36.517], [5.343, 36.5], [5.353, 36.474], [5.34, 36.451], [5.312, 36.432], [5.287, 36.388], [5.262, 36.365], [5.194, 36.361], [5.183, 36.417], [5.189, 36.452], [5.171, 36.471], [5.181, 36.503], [5.201, 36.52], [5.175, 36.547], [5.144, 36.566], [5.112, 36.57], [5.062, 36.551], [5.052, 36.523], [5.027, 36.513], [5.002, 36.528], [4.973, 36.509], [4.929, 36.518], [4.907, 36.534], [4.859, 36.531], [4.852, 36.483], [4.774, 36.46], [4.73, 36.43], [4.722, 36.398], [4.669, 36.364], [4.632, 36.361], [4.604, 36.322], [4.598, 36.289], [4.61, 36.257], [4.568, 36.259], [4.554, 36.247], [4.521, 36.248], [4.507, 36.229], [4.462, 36.222], [4.396, 36.223], [4.379, 36.248], [4.374, 36.284], [4.374, 36.317], [4.351, 36.335], [4.354, 36.354], [4.392, 36.4], [4.394, 36.434], [4.375, 36.443], [4.364, 36.467], [4.379, 36.479], [4.437, 36.491], [4.464, 36.528], [4.504, 36.541], [4.554, 36.593], [4.539, 36.616], [4.558, 36.627], [4.573, 36.654], [4.597, 36.663], [4.598, 36.688], [4.519, 36.716], [4.52, 36.73], [4.55, 36.747], [4.584, 36.752], [4.619, 36.737], [4.65, 36.759], [4.64, 36.786], [4.653, 36.796], [4.623, 36.816], [4.624, 36.833], [4.592, 36.85], [4.583, 36.883], [4.591, 36.884], [4.596, 36.883], [4.597, 36.883], [4.6, 36.883], [4.602, 36.884], [4.603, 36.884], [4.606, 36.884], [4.616, 36.883], [4.619, 36.883], [4.633, 36.883], [4.635, 36.884], [4.636, 36.884], [4.636, 36.885], [4.641, 36.887], [4.643, 36.888], [4.647, 36.888], [4.648, 36.888], [4.65, 36.887], [4.653, 36.887], [4.654, 36.886], [4.657, 36.886], [4.658, 36.886], [4.657, 36.886], [4.656, 36.886], [4.654, 36.886], [4.655, 36.884], [4.655, 36.885], [4.655, 36.884], [4.656, 36.884], [4.656, 36.885], [4.657, 36.883], [4.659, 36.883], [4.66, 36.884], [4.663, 36.883], [4.666, 36.884], [4.668, 36.884], [4.669, 36.884], [4.671, 36.884], [4.674, 36.884], [4.678, 36.883], [4.681, 36.882], [4.686, 36.883], [4.688, 36.882], [4.69, 36.882], [4.691, 36.882], [4.692, 36.881], [4.694, 36.881], [4.696, 36.881], [4.697, 36.881], [4.712, 36.881], [4.715, 36.882], [4.72, 36.883], [4.721, 36.882], [4.723, 36.882], [4.725, 36.882], [4.732, 36.883], [4.74, 36.89], [4.742, 36.89], [4.745, 36.892], [4.749, 36.893], [4.754, 36.895], [4.76, 36.895], [4.761, 36.896], [4.762, 36.894], [4.766, 36.893], [4.767, 36.893], [4.77, 36.892], [4.775, 36.891], [4.776, 36.89], [4.779, 36.892], [4.781, 36.89], [4.783, 36.89], [4.787, 36.892], [4.789, 36.891], [4.79, 36.889], [4.791, 36.889], [4.792, 36.886], [4.797, 36.882], [4.801, 36.883], [4.807, 36.883], [4.807, 36.882], [4.807, 36.881], [4.806, 36.881], [4.807, 36.881], [4.875, 36.858], [4.875, 36.859], [4.876, 36.86], [4.877, 36.859], [4.876, 36.859], [4.877, 36.858], [4.876, 36.857], [4.876, 36.855], [4.877, 36.855], [4.881, 36.853], [4.886, 36.851], [4.886, 36.85], [4.889, 36.85], [4.892, 36.851], [4.897, 36.851], [4.898, 36.851], [4.899, 36.851], [4.9, 36.851], [4.901, 36.85], [4.902, 36.85], [4.923, 36.85], [4.938, 36.83], [4.966, 36.817], [4.968, 36.817], [4.968, 36.816], [4.969, 36.815], [4.971, 36.815], [4.975, 36.814], [4.977, 36.814], [5.048, 36.782], [5.091, 36.776], [5.092, 36.776], [5.093, 36.755], [5.091, 36.754], [5.093, 36.749], [5.088, 36.747], [5.082, 36.712], [5.085, 36.71], [5.084, 36.709], [5.142, 36.677], [5.2, 36.656], [5.223, 36.648], [5.224, 36.648], [5.229, 36.646], [5.238, 36.644], [5.254, 36.641], [5.26, 36.64], [5.264, 36.639], [5.267, 36.639], [5.275, 36.638], [5.278, 36.638], [5.279, 36.638], [5.285, 36.638], [5.293, 36.638], [5.296, 36.638], [5.307, 36.639], [5.337, 36.642], [5.338, 36.642], [5.346, 36.643], [5.347, 36.643], [5.361, 36.644], [5.424, 36.654]]]}, "properties": {"name": "Bejaia", "iso2": "DZ-06", "admin_level": 4, "osm_id": 1278765, "countrylevel_id": "iso2:DZ-06", "osm_data": {"localname": "Béjaïa بجاية", "official_name": "", "alltags": {"name:ar": "بجاية", "name:be": "Правінцыя Беджая", "name:bg": "Бежая", "name:ca": "Província de Bejaïa", "name:da": "Béjaïa (provins)", "name:el": "Μπετζάια", "name:en": "Bejaia", "name:eo": "Provinco Beĵaja", "name:es": "Bugía", "name:eu": "Bejaia probintzia", "name:fa": "استان بجایه", "name:fr": "Béjaïa", "name:gl": "Vilaia de Buxía", "name:hi": "बेजैअ प्रांत", "name:id": "Provinsi Bajayah", "name:it": "Provincia di Béjaïa", "name:ja": "ベジャイア", "name:ka": "ბეჯაიის პროვინცია", "name:ko": "베자이아 주", "name:la": "Saldae", "name:lt": "Bedžaja", "name:mk": "Беџаја", "name:ms": "Wilayah Béjaïa", "name:nl": "Béjaïa (provincie)", "name:no": "Béjaïa (provins)", "name:pl": "Bidżaja", "name:pt": "Bugia", "name:ro": "Provincia Béjaïa", "name:ru": "Беджая", "name:se": "Béjaïa eanangoddi", "name:sr": "Беџаја (покрајина)", "name:sv": "Béjaïa (provins)", "name:sw": "Jimbo ya Béjaïa (Aljeria)", "name:tg": "Вилояти Баҷоя", "name:tl": "Lalawigan ng Béjaïa", "name:tr": "Becaye Vilayeti", "name:uk": "Беджая (вілаєт)", "name:ur": "صوبہ بجایہ", "name:vi": "Béjaïa (tỉnh)", "name:zh": "贝贾亚", "name:ber": "ⴲⴳⴰⵢⴻⵝ", "name:kab": "Bgayet", "long_name": "ولاية بجاية", "population": "912577", "alt_name:ar": "صالدى;الناصرية", "old_name:ar": "بوجي", "old_name:fr": "Bougie", "alt_name:kab": "Vgayet", "long_name:ar": "ولاية بجاية", "long_name:en": "Bejaia Province", "long_name:fr": "Wilaya de Béjaïa", "population:date": "2008"}}, "center_lat": 36.58, "center_lon": 4.83, "area_m2": 3232807360, "timezone": "Africa/Algiers", "population": 912577, "wikidata_id": "Q233665", "wikipedia_id": "ar:ولاية بجاية"}}