{"type": "Feature", "geometry": {"type": "Polygon", "coordinates": [[[0.74, 36.334], [0.763, 36.337], [0.805, 36.366], [0.837, 36.363], [0.9, 36.389], [0.923, 36.417], [0.935, 36.446], [0.998, 36.461], [1.083, 36.494], [1.137, 36.493], [1.154, 36.501], [1.159, 36.503], [1.186, 36.515], [1.225, 36.506], [1.283, 36.507], [1.321, 36.527], [1.318, 36.527], [1.323, 36.527], [1.343, 36.552], [1.386, 36.552], [1.397, 36.537], [1.455, 36.541], [1.456, 36.541], [1.473, 36.532], [1.511, 36.529], [1.523, 36.541], [1.581, 36.534], [1.606, 36.537], [1.654, 36.555], [1.695, 36.553], [1.67, 36.51], [1.671, 36.49], [1.646, 36.473], [1.642, 36.457], [1.611, 36.421], [1.579, 36.417], [1.527, 36.382], [1.529, 36.348], [1.565, 36.298], [1.593, 36.284], [1.562, 36.231], [1.622, 36.235], [1.624, 36.202], [1.6, 36.186], [1.569, 36.186], [1.569, 36.146], [1.603, 36.119], [1.64, 36.126], [1.627, 36.083], [1.72, 35.979], [1.704, 35.967], [1.714, 35.948], [1.708, 35.917], [1.645, 35.942], [1.613, 35.969], [1.615, 35.987], [1.553, 36.022], [1.54, 35.997], [1.507, 35.984], [1.507, 35.956], [1.457, 35.937], [1.421, 35.933], [1.394, 35.905], [1.407, 35.865], [1.391, 35.851], [1.341, 35.897], [1.331, 35.927], [1.301, 35.944], [1.299, 35.971], [1.226, 35.959], [1.191, 35.946], [1.152, 35.947], [1.142, 35.96], [1.08, 35.988], [1.054, 36.02], [1.008, 36.023], [0.957, 36.017], [0.946, 36.063], [0.924, 36.069], [0.926, 36.094], [0.943, 36.135], [0.919, 36.164], [0.913, 36.208], [0.89, 36.228], [0.847, 36.21], [0.819, 36.213], [0.791, 36.196], [0.765, 36.192], [0.694, 36.206], [0.693, 36.241], [0.718, 36.271], [0.74, 36.334]]]}, "properties": {"name": "Chlef", "iso2": "DZ-02", "admin_level": 4, "osm_id": 1283740, "countrylevel_id": "iso2:DZ-02", "osm_data": {"localname": "Chlef الشلف", "official_name": "", "alltags": {"name:ar": "الشلف", "name:bg": "Шлеф", "name:el": "Σλεφ", "name:en": "Chlef", "name:fa": "الشلف", "name:fr": "Chlef", "name:la": "Castellum Tingitanum", "name:lt": "Šelifas", "name:pl": "Szalif", "name:sv": "Ech Cheliff", "name:ur": "الشلف", "name:zh": "谢利夫", "name:azb": "الشلف", "name:ber": "ⵛⵛⵍⴻⴼ", "name:kab": "Cclef", "name:pnb": "شلف", "old_name": "أورليانفيل;الأصنام", "long_name": "ولاية الشلف", "old_name:ar": "أورليانفيل;الأصنام", "old_name:fr": "Orléansville;Al-Asnam", "long_name:ar": "ولاية الشلف", "long_name:en": "Chlef Province", "long_name:fa": "استان الشلف", "long_name:fr": "Wilaya de Chlef", "long_name:ur": "صوبہ الشلف", "long_name:azb": "الشلف اوستانی", "long_name:pnb": "صوبہ شلف"}}, "center_lat": 36.24, "center_lon": 1.26, "area_m2": 4077080942, "timezone": "Africa/Algiers", "population": 1002088, "wikidata_id": "Q231752", "wikipedia_id": "ar:ولاية الشلف"}}