{"type": "Feature", "geometry": {"type": "Polygon", "coordinates": [[[-61.923, -20.089], [-61.735, -19.634], [-60.604, -19.457], [-59.978, -19.295], [-59.069, -19.288], [-58.236, -19.775], [-58.17, -20.167], [-57.996, -20.448], [-58.014, -20.606], [-57.817, -20.98], [-57.853, -21.32], [-57.968, -21.523], [-57.896, -21.704], [-57.994, -22.09], [-57.856, -22.398], [-58.186, -22.349], [-58.267, -22.179], [-59.202, -22.148], [-59.368, -22.076], [-59.953, -22.055], [-59.872, -21.447], [-59.715, -21.346], [-59.768, -21.037], [-59.927, -20.633], [-61.55, -20.175], [-61.923, -20.089]]]}, "properties": {"name": "Alto Paraguay", "iso2": "PY-16", "admin_level": 4, "osm_id": 389882, "countrylevel_id": "iso2:PY-16", "osm_data": {"localname": "Alto Paraguay", "official_name": "", "alltags": {"name:bg": "Горен Парагвай", "name:ca": "Alt Paraguai", "name:es": "Alto Paraguay", "name:fi": "Alto Paraguayn", "name:ja": "アルト・パラグアイ県", "name:ka": "ალტო-პარაგვაის დეპარტამენტი", "name:lt": "Aukštutinio Paragvajaus", "name:mk": "Алто Парагвај", "name:pl": "Górny Paragwaj", "name:pt": "Alto Paraguay", "name:ru": "Альто-Парагвай", "name:zh": "上巴拉圭省", "is_in:country": "Paraguay"}}, "center_lat": -20.6, "center_lon": -59.38, "area_m2": 78948883025, "timezone": "America/Asuncion", "population": 18231, "wikidata_id": "Q682642", "wikipedia_id": "en:Alto Paraguay Department"}}