{"type": "Feature", "geometry": {"type": "Polygon", "coordinates": [[[81.708, 6.511], [81.707, 6.511], [81.703, 6.513], [81.699, 6.515], [81.686, 6.514], [81.662, 6.54], [81.64, 6.541], [81.608, 6.58], [81.637, 6.96], [81.456, 7.458], [81.271, 7.277], [80.978, 7.625], [80.989, 7.722], [81.241, 7.739], [81.312, 8.252], [80.924, 8.337], [80.912, 8.836], [80.753, 8.905], [80.755, 8.908], [80.756, 8.91], [80.756, 8.912], [80.756, 8.914], [80.766, 8.937], [80.927, 8.992], [81.353, 8.484], [81.406, 8.256], [81.408, 8.247], [81.586, 7.839], [81.814, 7.482], [81.815, 7.477], [81.879, 7.026], [81.708, 6.511]]]}, "properties": {"name": "Eastern Province", "iso2": "LK-5", "admin_level": 4, "osm_id": 4630810, "countrylevel_id": "iso2:LK-5", "osm_data": {"localname": "கிழக்கு மாகாணம்", "official_name": "", "alltags": {"name:cs": "Východní provincie", "name:en": "Eastern Province", "name:ja": "東部州", "name:ru": "Восточная провинция", "name:si": "නැගෙනහිර පළාත", "name:ta": "கிழக்கு மாகாணம்", "name:zh": "东部省"}}, "center_lat": 7.74, "center_lon": 81.41, "area_m2": 9867726744, "timezone": "Asia/Colombo", "wikidata_id": "Q1046126", "wikipedia_id": "en:Eastern Province, Sri Lanka"}}