{"type": "Feature", "geometry": {"type": "Polygon", "coordinates": [[[34.219, 31.324], [34.22, 31.325], [34.221, 31.325], [34.227, 31.33], [34.24, 31.341], [34.265, 31.322], [34.273, 31.314], [34.28, 31.308], [34.285, 31.301], [34.29, 31.297], [34.297, 31.294], [34.305, 31.293], [34.316, 31.295], [34.315, 31.291], [34.317, 31.282], [34.318, 31.276], [34.323, 31.265], [34.326, 31.258], [34.316, 31.252], [34.309, 31.249], [34.293, 31.242], [34.291, 31.24], [34.285, 31.234], [34.278, 31.229], [34.267, 31.22], [34.257, 31.249], [34.255, 31.253], [34.24, 31.296], [34.236, 31.297], [34.219, 31.323], [34.219, 31.324]]]}, "properties": {"name": "Rafah Governorate", "iso2": "PS-RFH", "admin_level": 5, "osm_id": 4731201, "countrylevel_id": "iso2:PS-RFH", "osm_data": {"localname": "محافظة رفح", "official_name": "", "alltags": {"ref": "RFH", "name": "محافظة رفح", "name:ar": "محافظة رفح", "name:de": "Gouvernement Rafah", "name:el": "Κυβερνείο Ράφα", "name:en": "Rafah Governorate", "name:fr": "Gouvernorat de Rafah", "name:he": "נפת רפיח", "name:ru": "провинция Рафах", "boundary": "administrative", "state_code": "RFH", "admin_level": "5"}}, "center_lat": 31.28, "center_lon": 34.27, "area_m2": 60393084, "timezone": "Asia/Gaza", "population": 173372, "wikidata_id": "Q1074341", "wikipedia_id": "ar:محافظة رفح"}}