{"type": "Feature", "geometry": {"type": "Polygon", "coordinates": [[[126.644, 35.147], [126.672, 35.172], [126.691, 35.215], [126.717, 35.212], [126.73, 35.244], [126.794, 35.22], [126.84, 35.231], [126.874, 35.25], [126.904, 35.258], [126.929, 35.252], [126.979, 35.187], [127.004, 35.188], [127.023, 35.17], [127.008, 35.155], [127.013, 35.127], [126.95, 35.073], [126.906, 35.082], [126.86, 35.079], [126.805, 35.053], [126.77, 35.053], [126.762, 35.091], [126.735, 35.108], [126.69, 35.111], [126.652, 35.12], [126.644, 35.147]]]}, "properties": {"name": "Gwangju", "iso2": "KR-29", "admin_level": 4, "osm_id": 2399220, "countrylevel_id": "iso2:KR-29", "osm_data": {"localname": "광주", "official_name": "광주광역시", "alltags": {"name:af": "Gwangju", "name:ar": "غوانغجو", "name:bg": "Куанджу", "name:bi": "Gwangju", "name:ca": "Gwangju", "name:cs": "Kwangdžu", "name:da": "Gwangju", "name:el": "Γκουάνγκτζου", "name:en": "Gwangju", "name:eo": "Gŭangĝu", "name:es": "Gwangju", "name:et": "Kwangju", "name:eu": "Gwangju", "name:fa": "گوانگجو", "name:fi": "Gwangju", "name:fr": "Gwangju", "name:he": "קוואנגג'ו", "name:ht": "Gouanjou", "name:id": "Gwangju", "name:io": "Gwangju", "name:it": "Gwangju", "name:ja": "光州", "name:kl": "Gwangju", "name:ko": "광주", "name:la": "Quansua", "name:lt": "Kvandžu", "name:mi": "Gwangju", "name:mn": "Куанжү", "name:mr": "ग्वांगजू", "name:ms": "Gwangju", "name:nl": "Gwangju", "name:no": "Gwangju", "name:pl": "Gwangju", "name:pt": "Gwangju", "name:ro": "Gwangju", "name:ru": "Кванджу", "name:sr": "Квангџу", "name:sv": "Gwangju", "name:sw": "Gwangju", "name:th": "ควังจู", "name:tl": "Gwangju", "name:tr": "Gwangju", "name:uk": "Кванджу", "name:vi": "Gwangju", "name:vo": "Gwangju", "name:zh": "光州", "alt_name": "광주", "population": "1467996", "alt_name:ko": "광주", "official_name": "광주광역시", "official_name:ja": "光州広域市", "official_name:ko": "광주광역시", "official_name:zh": "光州广域市"}}, "center_lat": 35.16, "center_lon": 126.84, "area_m2": 500784868, "timezone": "Asia/Seoul", "population": 1490092, "wikidata_id": "Q41283", "wikipedia_id": "ko:광주광역시"}}