{"type": "Feature", "geometry": {"type": "Polygon", "coordinates": [[[126.743, 36.018], [126.77, 36.03], [126.863, 36.059], [126.873, 36.072], [126.872, 36.11], [126.892, 36.142], [126.921, 36.14], [126.958, 36.157], [126.982, 36.147], [127.017, 36.147], [127.064, 36.126], [127.063, 36.091], [127.09, 36.072], [127.123, 36.063], [127.146, 36.09], [127.226, 36.099], [127.251, 36.11], [127.274, 36.106], [127.338, 36.131], [127.355, 36.109], [127.361, 36.055], [127.401, 36.008], [127.433, 36.028], [127.456, 35.984], [127.508, 35.979], [127.534, 35.992], [127.538, 36.033], [127.591, 36.025], [127.619, 36.007], [127.619, 36.053], [127.638, 36.068], [127.661, 36.04], [127.689, 36.063], [127.697, 36.04], [127.788, 36.015], [127.8, 36.026], [127.853, 36.039], [127.877, 36.023], [127.878, 36.001], [127.895, 35.986], [127.908, 35.941], [127.882, 35.928], [127.885, 35.91], [127.85, 35.889], [127.841, 35.867], [127.804, 35.857], [127.758, 35.837], [127.748, 35.843], [127.719, 35.797], [127.662, 35.759], [127.661, 35.71], [127.645, 35.699], [127.639, 35.67], [127.62, 35.643], [127.629, 35.618], [127.612, 35.607], [127.611, 35.586], [127.586, 35.558], [127.626, 35.525], [127.645, 35.499], [127.646, 35.498], [127.651, 35.495], [127.651, 35.494], [127.65, 35.491], [127.65, 35.49], [127.65, 35.489], [127.636, 35.478], [127.645, 35.45], [127.67, 35.447], [127.662, 35.417], [127.639, 35.405], [127.611, 35.367], [127.619, 35.332], [127.578, 35.309], [127.542, 35.329], [127.504, 35.358], [127.472, 35.367], [127.437, 35.363], [127.389, 35.305], [127.356, 35.322], [127.322, 35.307], [127.261, 35.312], [127.227, 35.335], [127.205, 35.316], [127.171, 35.333], [127.115, 35.299], [127.065, 35.311], [127.042, 35.324], [127.071, 35.367], [127.042, 35.379], [127.05, 35.424], [127.037, 35.433], [127.035, 35.466], [127.013, 35.459], [126.983, 35.426], [126.977, 35.4], [126.934, 35.395], [126.898, 35.433], [126.897, 35.448], [126.852, 35.466], [126.818, 35.469], [126.764, 35.466], [126.749, 35.451], [126.755, 35.419], [126.737, 35.403], [126.731, 35.376], [126.705, 35.365], [126.699, 35.349], [126.667, 35.352], [126.647, 35.319], [126.604, 35.335], [126.556, 35.313], [126.532, 35.307], [126.514, 35.327], [126.513, 35.362], [126.477, 35.386], [126.493, 35.408], [126.48, 35.421], [126.447, 35.429], [126.432, 35.439], [126.484, 35.52], [126.515, 35.532], [126.593, 35.542], [126.614, 35.57], [126.668, 35.573], [126.659, 35.59], [126.607, 35.586], [126.541, 35.588], [126.53, 35.579], [126.492, 35.586], [126.47, 35.603], [126.467, 35.643], [126.513, 35.665], [126.539, 35.689], [126.567, 35.697], [126.6, 35.718], [126.619, 35.741], [126.573, 35.777], [126.609, 35.81], [126.651, 35.817], [126.693, 35.798], [126.701, 35.805], [126.637, 35.832], [126.65, 35.857], [126.683, 35.853], [126.718, 35.868], [126.631, 35.873], [126.615, 35.891], [126.616, 35.942], [126.588, 35.948], [126.588, 35.903], [126.564, 35.906], [126.564, 35.936], [126.532, 35.933], [126.522, 35.948], [126.526, 35.974], [126.647, 35.979], [126.706, 35.994], [126.747, 35.992], [126.743, 36.018]]]}, "properties": {"name": "Jeollabuk-do", "iso2": "KR-45", "admin_level": 4, "osm_id": 2355168, "countrylevel_id": "iso2:KR-45", "osm_data": {"localname": "전라북도", "official_name": "", "alltags": {"name:bg": "Чъла-Пукто", "name:ca": "Jeollabuk-do", "name:el": "Τζόλαμπουκ-ντο", "name:en": "Jeollabuk-do", "name:es": "Jeolla del Norte", "name:et": "Põhja-Chŏlla provints", "name:fa": "جئولابوک-دو", "name:fi": "Pohjois-Jeolla", "name:fr": "Jeolla du Nord", "name:id": "Jeolla Utara", "name:it": "Nord Jeolla", "name:ja": "全羅北道", "name:jv": "Jeollabuk-do", "name:ko": "전라북도", "name:lt": "Šiaurės Džolos provincija", "name:mn": "Умард Чолла", "name:ms": "Jeolla Utara", "name:nl": "Jeollabuk-do", "name:no": "Nord-Jeolla", "name:pl": "Jeolla Północna", "name:pt": "Jeolla do Norte", "name:ru": "Чолла-Пукто", "name:sv": "Nordjeolla", "name:sw": "Jeollabuk-do", "name:th": "จังหวัดจ็อลลาเหนือ", "name:uk": "Північна провінція Чолла", "name:vi": "Jeolla Bắc", "name:zh": "全羅北道", "short_name": "전북", "alt_name:en": "North Jeolla Province", "short_name:en": "Jeonbuk"}}, "center_lat": 35.72, "center_lon": 127.14, "area_m2": 8159780838, "timezone": "Asia/Seoul", "population": 1818157, "wikidata_id": "Q41157", "wikipedia_id": "en:North Jeolla Province"}}