{"type": "Feature", "geometry": {"type": "Polygon", "coordinates": [[[17.381, 9.826], [17.543, 10.451], [17.864, 10.497], [17.962, 10.397], [18.496, 10.186], [18.642, 10.025], [19.078, 9.988], [19.43, 10.469], [19.703, 10.588], [19.613, 10.067], [19.681, 9.962], [19.992, 9.083], [19.684, 9.014], [19.072, 9.015], [18.907, 8.85], [19.048, 8.574], [18.602, 8.047], [18.215, 8.02], [18.168, 8.378], [17.996, 8.959], [18.055, 9.191], [17.825, 9.296], [17.554, 9.597], [17.381, 9.826]]]}, "properties": {"name": "Moyen-Chari", "iso2": "TD-MC", "admin_level": 4, "osm_id": 3218253, "countrylevel_id": "iso2:TD-MC", "osm_data": {"localname": "Moyen-Chari شاري الأوسط", "official_name": "", "alltags": {"name:ar": "شاري الأوسط", "name:en": "Moyen-Chari", "name:es": "Moyen-Chari", "name:fr": "Moyen-Chari", "name:pl": "Szari Środkowe", "name:ru": "Среднее Шари", "name:uk": "Середнє Шарі", "population": "598284", "population:date": "2009-06-20"}}, "center_lat": 9.43, "center_lon": 18.65, "area_m2": 41766699953, "timezone": "Africa/Ndjamena", "wikidata_id": "Q177799", "wikipedia_id": "fr:Moyen-Chari"}}