{"type": "Feature", "geometry": {"type": "Polygon", "coordinates": [[[20.062, 14.082], [20.349, 14.384], [20.587, 14.417], [20.86, 14.313], [21.252, 14.042], [21.66, 14.102], [22.187, 13.908], [22.084, 13.779], [22.227, 13.567], [22.269, 13.321], [21.941, 13.049], [21.821, 12.799], [21.716, 12.849], [21.372, 12.64], [21.101, 12.613], [20.777, 12.989], [20.358, 13.059], [20.364, 13.421], [20.268, 13.829], [20.062, 14.082]]]}, "properties": {"name": "Ouaddaï", "iso2": "TD-OD", "admin_level": 4, "osm_id": 3106500, "countrylevel_id": "iso2:TD-OD", "osm_data": {"localname": "Ouaddaï وداي", "official_name": "", "alltags": {"name:ar": "وداي", "name:en": "Ouaddaï", "name:es": "Ouaddaï", "name:fr": "Ouaddaï", "name:pl": "Wadaj", "name:ru": "Ваддай", "name:uk": "Вадаї", "population": "731679", "alt_name:es": "Waddaí", "long_name:ar": "مقاطعة وداي", "population:date": "2009-06-20"}}, "center_lat": 13.54, "center_lon": 21.16, "area_m2": 30312357023, "timezone": "Africa/Ndjamena", "wikidata_id": "Q841338", "wikipedia_id": "fr:Ouaddaï"}}