{"type": "Feature", "geometry": {"type": "Polygon", "coordinates": [[[19.906, 12.04], [20.298, 12.019], [20.998, 11.672], [21.301, 11.6], [21.867, 11.7], [22.079, 11.625], [22.387, 10.958], [22.176, 10.814], [21.716, 10.636], [21.748, 10.407], [21.432, 10.038], [21.015, 9.739], [20.771, 9.387], [20.538, 9.318], [20.372, 9.108], [19.992, 9.083], [19.681, 9.962], [19.613, 10.067], [19.703, 10.588], [19.694, 11.001], [19.479, 11.048], [18.902, 11.331], [18.902, 11.692], [19.215, 11.638], [19.465, 12.123], [19.906, 12.04]]]}, "properties": {"name": "Salamat", "iso2": "TD-SA", "admin_level": 4, "osm_id": 3106489, "countrylevel_id": "iso2:TD-SA", "osm_data": {"localname": "Salamat سلامات", "official_name": "", "alltags": {"name:ar": "سلامات", "name:en": "Salamat", "name:es": "Salamat", "name:fr": "Salamat", "name:pl": "Salamat", "name:ru": "Саламат", "name:uk": "Саламат", "population": "308605", "long_name:ar": "منطقة سلامات", "population:date": "2009-06-20"}}, "center_lat": 10.8, "center_lon": 20.58, "area_m2": 68331498290, "timezone": "Africa/Ndjamena", "wikidata_id": "Q385584", "wikipedia_id": "fr:Salamat"}}