{"type": "Feature", "geometry": {"type": "Polygon", "coordinates": [[[20.043, 15.742], [20.251, 15.63], [20.602, 15.618], [20.834, 15.744], [21.134, 15.935], [21.359, 15.858], [22.015, 15.985], [22.602, 15.797], [22.992, 15.821], [23.111, 15.715], [22.918, 15.494], [23.004, 15.241], [22.781, 14.992], [22.703, 14.691], [22.403, 14.592], [22.436, 14.315], [22.553, 14.121], [22.187, 13.908], [21.66, 14.102], [21.252, 14.042], [20.86, 14.313], [20.587, 14.417], [20.349, 14.384], [20.062, 14.082], [20.043, 15.742]]]}, "properties": {"name": "Wadi Fira", "iso2": "TD-WF", "admin_level": 4, "osm_id": 2537750, "countrylevel_id": "iso2:TD-WF", "osm_data": {"localname": "Wadi Fira وادي فيرا", "official_name": "", "alltags": {"name:ar": "وادي فيرا", "name:en": "Wadi Fira", "name:es": "Wadi Fira", "name:fr": "Wadi Fira", "name:pl": "Wadi Fira", "name:ru": "Вади-Фера", "name:uk": "Ваді-Фіра", "alt_name": "Ouaddi Fira", "population": "494993", "alt_name:fr": "Ouaddi Fira", "long_name:ar": "مقاطعة وادي فيرا", "population:date": "2009-06-20"}}, "center_lat": 15.03, "center_lon": 21.5, "area_m2": 54316457285, "timezone": "Africa/Ndjamena", "population": 494933, "wikidata_id": "Q860813", "wikipedia_id": "fr:Wadi Fira"}}