{"type": "Feature", "geometry": {"type": "Polygon", "coordinates": [[[0.336, 41.407], [0.356, 41.453], [0.341, 41.467], [0.35, 41.487], [0.397, 41.49], [0.446, 41.544], [0.43, 41.577], [0.402, 41.593], [0.35, 41.599], [0.355, 41.63], [0.328, 41.681], [0.369, 41.714], [0.407, 41.759], [0.47, 41.766], [0.474, 41.788], [0.511, 41.821], [0.544, 41.821], [0.557, 41.854], [0.606, 41.87], [0.593, 41.884], [0.603, 41.922], [0.562, 41.933], [0.593, 41.969], [0.624, 41.992], [0.655, 42], [0.657, 42.04], [0.702, 42.122], [0.696, 42.152], [0.715, 42.225], [0.733, 42.249], [0.745, 42.301], [0.765, 42.323], [0.743, 42.336], [0.746, 42.357], [0.723, 42.366], [0.746, 42.385], [0.736, 42.413], [0.711, 42.436], [0.697, 42.474], [0.736, 42.508], [0.727, 42.533], [0.75, 42.553], [0.768, 42.61], [0.708, 42.621], [0.696, 42.659], [0.66, 42.691], [0.683, 42.709], [0.646, 42.783], [0.669, 42.824], [0.661, 42.84], [0.709, 42.862], [0.764, 42.84], [0.807, 42.84], [0.858, 42.826], [0.926, 42.789], [0.96, 42.806], [0.986, 42.787], [1.005, 42.791], [1.073, 42.783], [1.109, 42.771], [1.133, 42.75], [1.133, 42.728], [1.166, 42.709], [1.217, 42.72], [1.253, 42.715], [1.357, 42.72], [1.414, 42.656], [1.416, 42.636], [1.442, 42.604], [1.427, 42.583], [1.425, 42.558], [1.468, 42.51], [1.46, 42.504], [1.426, 42.493], [1.446, 42.459], [1.446, 42.458], [1.452, 42.437], [1.516, 42.429], [1.553, 42.433], [1.561, 42.459], [1.597, 42.467], [1.657, 42.468], [1.663, 42.492], [1.704, 42.49], [1.726, 42.503], [1.73, 42.492], [1.726, 42.462], [1.745, 42.433], [1.795, 42.431], [1.807, 42.419], [1.811, 42.37], [1.851, 42.373], [1.836, 42.341], [1.843, 42.306], [1.776, 42.291], [1.692, 42.284], [1.69, 42.248], [1.704, 42.234], [1.68, 42.206], [1.707, 42.19], [1.737, 42.19], [1.734, 42.159], [1.698, 42.134], [1.712, 42.119], [1.717, 42.084], [1.691, 42.087], [1.67, 42.044], [1.699, 42.03], [1.649, 42.003], [1.715, 41.981], [1.683, 41.967], [1.645, 41.971], [1.65, 41.945], [1.616, 41.906], [1.63, 41.859], [1.611, 41.818], [1.589, 41.805], [1.6, 41.789], [1.548, 41.771], [1.473, 41.783], [1.472, 41.8], [1.426, 41.802], [1.403, 41.745], [1.416, 41.728], [1.382, 41.706], [1.419, 41.676], [1.448, 41.636], [1.392, 41.634], [1.36, 41.614], [1.407, 41.591], [1.393, 41.575], [1.372, 41.565], [1.273, 41.572], [1.22, 41.57], [1.211, 41.549], [1.181, 41.543], [1.164, 41.513], [1.181, 41.488], [1.131, 41.477], [1.083, 41.479], [1.057, 41.466], [1.027, 41.41], [0.982, 41.392], [0.964, 41.355], [0.912, 41.35], [0.863, 41.338], [0.832, 41.359], [0.82, 41.329], [0.763, 41.334], [0.752, 41.318], [0.695, 41.314], [0.613, 41.291], [0.597, 41.294], [0.575, 41.318], [0.554, 41.327], [0.526, 41.29], [0.503, 41.29], [0.48, 41.323], [0.461, 41.335], [0.435, 41.321], [0.433, 41.276], [0.386, 41.279], [0.349, 41.331], [0.375, 41.351], [0.356, 41.372], [0.32, 41.395], [0.336, 41.407]]]}, "properties": {"name": "Lleida", "iso2": "ES-L", "admin_level": 6, "osm_id": 348990, "countrylevel_id": "iso2:ES-L", "osm_data": {"localname": "Lleida", "official_name": "", "alltags": {"name:an": "Leida", "name:ar": "لاردة", "name:be": "Лерыда", "name:ca": "Lleida", "name:el": "Λέριδα", "name:es": "Lérida", "name:eu": "Lleida", "name:fa": "لریدا", "name:fr": "Lérida", "name:id": "Lerida", "name:ja": "リェイダ", "name:ko": "레리다", "name:la": "Ilerda", "name:lt": "Lerida", "name:lv": "Lerida", "name:nl": "Lerida", "name:oc": "Lhèida", "name:pt": "Lérida", "name:ru": "Лерида", "name:sr": "Љеида", "name:uk": "Льєйда", "name:vi": "Lérida", "name:zh": "莱里达", "website": "http://www.diputaciolleida.cat/", "name:ext": "Léria", "ine:provincia": "25", "official_name:be": "Правінцыя Лерыда"}}, "center_lat": 42.04, "center_lon": 1.05, "area_m2": 12176732959, "timezone": "Europe/Madrid", "population": 428418, "wikidata_id": "Q13904", "wikipedia_id": "ca:Província de Lleida"}}