{"type": "Feature", "geometry": {"type": "Polygon", "coordinates": [[[19.78, 40.415], [19.923, 40.527], [20.447, 40.44], [20.618, 40.083], [20.319, 39.974], [20.391, 39.789], [20.304, 39.817], [19.796, 40.26], [19.78, 40.415]]]}, "properties": {"name": "Gjirokastër County", "iso2": "AL-05", "admin_level": 6, "osm_id": 1253915, "countrylevel_id": "iso2:AL-05", "osm_data": {"localname": "Qarku i Gjirokastrës", "official_name": "", "alltags": {"name:an": "Prefectura de Gjirokastër", "name:ar": "مقاطعة غيروكاستر", "name:be": "Гіракастра", "name:bg": "Аргирокастро (област)", "name:br": "Gjirokastër (rannvro)", "name:ca": "Comtat de Gjirokastër", "name:cs": "Gjirokastër (kraj)", "name:el": "Νομός Αργυροκάστρου", "name:en": "Gjirokastër County", "name:eo": "Provinco Gjirokastër", "name:es": "Condado de Gjirokastër", "name:et": "Gjirokastëri maakond", "name:eu": "Gjirokastër konderria", "name:fi": "Gjirokastërin maakunta", "name:fr": "Préfecture de Gjirokastër", "name:ga": "Contae Gjirokastër", "name:gl": "Condado de Gjirokastër", "name:hi": "घिरोकसतेर प्रांत", "name:hr": "Gjirokastrski okrug", "name:hu": "Gjirokastra megye", "name:hy": "Գիրոկաստրայի գավառ", "name:it": "Prefettura di Argirocastro", "name:ja": "ジロカストラ州", "name:ka": "გიროკასტრის ოლქი", "name:kg": "Gjirokastër (kizunga)", "name:ko": "지로카스터르 주", "name:lt": "Girokasterio apskritis", "name:mk": "Ѓирокастро (област)", "name:nl": "Gjirokastër (prefectuur)", "name:no": "Gjirokastër (region)", "name:pl": "Obwód Gjirokastra", "name:pt": "Gjirokastër (prefeitura)", "name:ro": "Regiunea Gjirokastër", "name:ru": "Гирокастра (область)", "name:sk": "Gjirokastër (kraj)", "name:sv": "Gjirokastër prefektur", "name:tl": "Kondado ng Gjirokastër", "name:tr": "Ergiri ili", "name:uk": "Гірокастра (область)", "name:ur": "صوبہ ارجیر", "name:vi": "Gjirokastër (hạt)", "name:zh": "吉羅卡斯特州", "name:ceb": "Qarku i Gjirokastrës", "name:lmo": "Prefettura de Argirocaster", "name:pnb": "صوبہ ارجیر", "name:sco": "Gjirokastër Coonty", "name:war": "Gjirokastër (condado)", "ref:nuts": "AL033", "population": "62952", "ref:nuts:3": "AL033", "name:simple": "Gjirokastër County", "name:be-tarask": "Гіракастра"}}, "center_lat": 40.21, "center_lon": 20.18, "area_m2": 2848350613, "timezone": "Europe/Tirane", "population": 72176, "wikidata_id": "Q193454", "wikipedia_id": "sq:Qarku i Gjirokastrës"}}