{"type": "Feature", "geometry": {"type": "Polygon", "coordinates": [[[102.144, 22.4], [102.182, 22.324], [102.177, 22.306], [102.234, 22.282], [102.233, 22.264], [102.246, 22.237], [102.268, 22.238], [102.277, 22.212], [102.313, 22.208], [102.335, 22.187], [102.335, 22.167], [102.36, 22.167], [102.384, 22.149], [102.388, 22.127], [102.434, 22.117], [102.446, 22.075], [102.47, 22.062], [102.484, 22.043], [102.509, 22.036], [102.487, 21.997], [102.514, 21.966], [102.535, 21.96], [102.594, 21.925], [102.613, 21.92], [102.621, 21.899], [102.61, 21.879], [102.642, 21.849], [102.648, 21.808], [102.661, 21.787], [102.648, 21.76], [102.648, 21.735], [102.666, 21.678], [102.688, 21.662], [102.739, 21.66], [102.767, 21.681], [102.788, 21.707], [102.826, 21.736], [102.82, 21.798], [102.811, 21.825], [102.817, 21.84], [102.852, 21.842], [102.86, 21.798], [102.856, 21.722], [102.886, 21.712], [102.973, 21.736], [102.988, 21.721], [102.99, 21.684], [102.982, 21.647], [102.99, 21.623], [102.992, 21.586], [102.959, 21.554], [102.913, 21.502], [102.907, 21.478], [102.886, 21.477], [102.88, 21.425], [102.931, 21.446], [102.919, 21.407], [102.896, 21.385], [102.889, 21.333], [102.897, 21.305], [102.851, 21.298], [102.808, 21.263], [102.822, 21.247], [102.858, 21.257], [102.894, 21.245], [102.912, 21.229], [102.909, 21.181], [102.949, 21.139], [102.94, 21.13], [102.88, 21.128], [102.86, 21.119], [102.808, 21.135], [102.811, 21.107], [102.785, 21.068], [102.794, 21.054], [102.781, 21.02], [102.743, 21.001], [102.7, 20.992], [102.652, 20.964], [102.645, 20.95], [102.601, 20.939], [102.549, 20.907], [102.514, 20.864], [102.491, 20.848], [102.462, 20.855], [102.414, 20.833], [102.374, 20.84], [102.358, 20.858], [102.357, 20.874], [102.309, 20.92], [102.286, 20.976], [102.244, 21.011], [102.204, 21.015], [102.171, 21.029], [102.152, 21.054], [102.116, 21.069], [102.082, 21.111], [102.052, 21.11], [102.014, 21.142], [101.96, 21.155], [101.944, 21.141], [101.921, 21.149], [101.923, 21.169], [101.871, 21.187], [101.841, 21.215], [101.845, 21.253], [101.815, 21.258], [101.799, 21.291], [101.768, 21.288], [101.734, 21.323], [101.726, 21.355], [101.741, 21.366], [101.738, 21.406], [101.753, 21.45], [101.738, 21.481], [101.762, 21.501], [101.75, 21.583], [101.79, 21.577], [101.824, 21.59], [101.834, 21.626], [101.809, 21.63], [101.77, 21.659], [101.776, 21.688], [101.767, 21.719], [101.746, 21.729], [101.743, 21.751], [101.758, 21.756], [101.772, 21.817], [101.771, 21.838], [101.739, 21.849], [101.739, 21.873], [101.714, 21.882], [101.695, 21.903], [101.707, 21.92], [101.699, 21.945], [101.669, 21.931], [101.655, 21.952], [101.632, 21.955], [101.617, 21.977], [101.632, 22.013], [101.596, 22.064], [101.596, 22.083], [101.579, 22.103], [101.574, 22.126], [101.6, 22.135], [101.576, 22.186], [101.571, 22.208], [101.55, 22.234], [101.57, 22.275], [101.593, 22.269], [101.625, 22.276], [101.633, 22.314], [101.653, 22.336], [101.648, 22.365], [101.67, 22.372], [101.647, 22.413], [101.665, 22.42], [101.672, 22.476], [101.694, 22.472], [101.761, 22.509], [101.784, 22.5], [101.823, 22.462], [101.832, 22.421], [101.866, 22.388], [101.899, 22.381], [101.911, 22.396], [101.915, 22.44], [101.95, 22.44], [101.967, 22.429], [101.999, 22.432], [102.024, 22.456], [102.05, 22.457], [102.088, 22.441], [102.126, 22.432], [102.144, 22.4]]]}, "properties": {"name": "Phongsaly", "iso2": "LA-PH", "admin_level": 4, "osm_id": 5831662, "countrylevel_id": "iso2:LA-PH", "osm_data": {"localname": "ຜົ້ງສາລີ", "official_name": "", "alltags": {"name:ar": "محافظة فونغ سالي", "name:ca": "Província de Phongsali", "name:en": "Phongsaly", "name:eo": "Provinco Phongsali", "name:es": "Provincia de Phongsali", "name:fa": "استان فونگسالی", "name:fi": "Phongsali", "name:fr": "Province de Phongsaly", "name:hi": "फोंगसाली प्रान्त", "name:hr": "Phongsali", "name:hu": "Phongszali tartomány", "name:id": "Provinsi Phongsali", "name:it": "Provincia di Phongsali", "name:ja": "ポンサーリー", "name:km": "ខេត្តផុងសាលី", "name:ko": "퐁살리 주", "name:lo": "ຜົ້ງສາລີ", "name:ms": "Wilayah Phongsaly", "name:nl": "Phongsali", "name:no": "Phongsali", "name:pl": "Prowincja Phôngsali", "name:pt": "Phongsali", "name:ru": "Пхонгсали", "name:sv": "Phongsali", "name:tg": "Вилояти Понгсали", "name:th": "แขวงพงสาลี", "name:uk": "Пхонгсалі", "name:ur": "فونگسالی صوبہ", "name:vi": "Phong Sa Lỳ", "name:zh": "丰沙里省", "name:lo_rm": "Phôngsali"}}, "center_lat": 21.65, "center_lon": 102.24, "area_m2": 15579736458, "timezone": "Asia/Vientiane", "population": 177989, "wikidata_id": "Q334868", "wikipedia_id": "en:Phongsaly Province"}}