{"type": "Feature", "geometry": {"type": "Polygon", "coordinates": [[[102.896, 18.304], [102.893, 18.296], [102.938, 18.269], [102.982, 18.264], [102.991, 18.209], [103.022, 18.205], [103.019, 18.184], [102.999, 18.16], [102.999, 18.143], [103.015, 18.125], [103.045, 18.138], [103.049, 18.17], [103.069, 18.179], [103.103, 18.141], [103.083, 18.129], [103.072, 18.077], [103.081, 18.05], [103.073, 18.022], [103.042, 17.982], [103.009, 17.976], [102.969, 18.004], [102.938, 18.002], [102.899, 17.981], [102.862, 17.974], [102.814, 17.939], [102.781, 17.929], [102.766, 17.899], [102.74, 17.884], [102.705, 17.879], [102.679, 17.857], [102.68, 17.837], [102.698, 17.82], [102.682, 17.803], [102.667, 17.805], [102.635, 17.832], [102.595, 17.836], [102.589, 17.849], [102.613, 17.908], [102.613, 17.941], [102.594, 17.96], [102.553, 17.969], [102.525, 17.964], [102.508, 17.971], [102.46, 17.971], [102.418, 17.991], [102.388, 18.016], [102.341, 18.047], [102.3, 18.053], [102.249, 18.098], [102.186, 18.148], [102.165, 18.203], [102.134, 18.216], [102.105, 18.214], [102.088, 18.22], [102.045, 18.198], [102.025, 18.15], [102.029, 18.21], [102.012, 18.223], [102.022, 18.244], [102.049, 18.337], [102.044, 18.381], [102.025, 18.396], [102.041, 18.412], [102.104, 18.391], [102.118, 18.411], [102.122, 18.437], [102.142, 18.429], [102.167, 18.436], [102.217, 18.422], [102.245, 18.382], [102.259, 18.339], [102.29, 18.316], [102.322, 18.321], [102.364, 18.3], [102.391, 18.295], [102.437, 18.311], [102.445, 18.292], [102.492, 18.292], [102.513, 18.236], [102.548, 18.234], [102.559, 18.25], [102.577, 18.246], [102.582, 18.21], [102.593, 18.202], [102.638, 18.221], [102.631, 18.239], [102.655, 18.269], [102.691, 18.259], [102.744, 18.28], [102.764, 18.31], [102.813, 18.297], [102.826, 18.308], [102.861, 18.303], [102.896, 18.304]]]}, "properties": {"name": "Vientiane Prefecture", "iso2": "LA-VT", "admin_level": 4, "osm_id": 5831666, "countrylevel_id": "iso2:LA-VT", "osm_data": {"localname": "ນະຄອນຫຼວງວຽງຈັນ", "official_name": "", "alltags": {"name:ar": "مقاطعة فيينتيان", "name:en": "Vientiane Prefecture", "name:eo": "Prefektlando Vjentiano", "name:es": "Prefectura de Vientián", "name:fa": "منطقه وینتیان", "name:fr": "Préfecture de Vientiane", "name:hi": "व्यिंचन प्रशासितक्षेत्र", "name:hr": "Prefektura Vientiane", "name:hu": "Vientián prefektúra", "name:id": "Prefektur Vientiane", "name:it": "Prefettura di Vientiane", "name:ja": "ヴィエンチャン", "name:ko": "비엔티안 도", "name:lo": "ນະຄອນຫຼວງວຽງຈັນ", "name:lt": "Vientiano prefektūra", "name:mn": "Вьентьян тойрог", "name:ms": "Prefektur Vientiane", "name:nl": "Prefectuur Vientiane", "name:pl": "Prefektura Wientian", "name:pt": "Prefeitura Vientiane", "name:ru": "Вьентьян", "name:th": "นครหลวงเวียงจันทน์", "name:ur": "وینتیان پریفیکچر", "name:lo_rm": "Nakhonlouang Viangchan"}}, "center_lat": 18.14, "center_lon": 102.57, "area_m2": 3582763630, "timezone": "Asia/Vientiane", "wikidata_id": "Q390377", "wikipedia_id": "en:Vientiane Prefecture"}}