{"type": "Feature", "geometry": {"type": "Polygon", "coordinates": [[[14.691, 48.584], [14.723, 48.676], [14.901, 48.77], [15.022, 49.02], [15.542, 48.908], [16.093, 48.747], [16.464, 48.81], [16.94, 48.617], [16.95, 48.536], [16.843, 48.351], [17.067, 48.119], [16.437, 47.928], [16.368, 47.621], [16.172, 47.422], [15.379, 47.824], [14.738, 47.749], [14.743, 47.917], [14.456, 48.047], [14.958, 48.227], [14.909, 48.517], [14.691, 48.584]], [[16.182, 48.171], [16.412, 48.12], [16.553, 48.239], [16.438, 48.317], [16.182, 48.171]]]}, "properties": {"name": "Lower Austria", "iso2": "AT-3", "admin_level": 4, "osm_id": 77189, "countrylevel_id": "iso2:AT-3", "osm_data": {"localname": "Niederösterreich", "official_name": "", "alltags": {"name:ar": "النمسا السفلى", "name:be": "Ніжняя Аўстрыя", "name:ca": "Baixa Àustria", "name:cs": "Dolní Rakousko", "name:en": "Lower Austria", "name:es": "Baja Austria", "name:fr": "Basse-Autriche", "name:ga": "An Ostair Íochtarach", "name:hr": "Donja Austrija", "name:hu": "Alsó-Ausztria", "name:is": "Neðra Austurríki", "name:mk": "Долна Австрија", "name:nl": "Neder-Oostenrijk", "name:pl": "Dolna Austria", "name:ru": "Нижняя Австрия", "name:sk": "Dolné Rakúsko", "name:sl": "Spodnja Avstrija", "name:ta": "கீழ் ஆஸ்திரியா", "website": "http://www.noel.gv.at", "ref:at:gkz": "3", "alt_name:cs": "Dolní Rakousy", "name:be-tarask": "Ніжняя Аўстрыя", "name:prefix:at": "Bundesland"}}, "center_lat": 48.27, "center_lon": 15.75, "area_m2": 19180160292, "timezone": "Europe/Vienna", "population": 1653419, "wikidata_id": "Q42497", "wikipedia_id": "de:Niederösterreich"}}