{"type": "Feature", "geometry": {"type": "Polygon", "coordinates": [[[121.496, 23.435], [121.316, 23.111], [121.028, 23.297], [121.015, 23.435], [121.214, 23.601], [121.343, 24.224], [121.451, 24.365], [121.774, 24.315], [121.755, 24.295], [121.758, 24.298], [121.693, 24.218], [121.662, 24.132], [121.66, 24.131], [121.659, 24.129], [121.658, 24.127], [121.631, 24.03], [121.633, 24.027], [121.606, 23.916], [121.606, 23.915], [121.605, 23.911], [121.605, 23.91], [121.604, 23.903], [121.605, 23.901], [121.546, 23.674], [121.546, 23.673], [121.514, 23.557], [121.513, 23.556], [121.504, 23.509], [121.505, 23.497], [121.507, 23.496], [121.514, 23.488], [121.513, 23.488], [121.496, 23.435]]]}, "properties": {"name": "Hualien County", "iso2": "TW-HUA", "admin_level": 6, "osm_id": 2921156, "countrylevel_id": "iso2:TW-HUA", "osm_data": {"localname": "花蓮縣", "official_name": "", "alltags": {"name:ar": "هوالين", "name:cs": "Okres Chua-lien", "name:en": "Hualien County", "name:es": "Condado de Hualien", "name:eu": "Hualien konderria", "name:fa": "هوالاین", "name:fr": "Comté de Hualien", "name:id": "Kabupaten Hualien", "name:it": "Contea di Hualien", "name:ja": "花蓮県", "name:ko": "화롄현", "name:lt": "Hualiano apskritis", "name:ml": "ഹുവാലിയെൻ കൗണ്ടി", "name:mn": "Хуалянь", "name:nl": "Hualien", "name:pl": "Hualian", "name:pt": "Condado de Hualien", "name:ru": "Хуалянь", "name:th": "เทศมณฑลฮวาเหลียน", "name:tr": "Hualien", "name:ur": "ہوالیئن کاؤنٹی", "name:vi": "Hoa Liên", "name:zh": "花蓮縣", "nat_ref": "10015", "name:cdo": "Huă-lièng", "name:ceb": "Hualien", "name:frr": "Hualien", "name:hak": "Fâ-lièn-yen", "name:nan": "Hoa-liân-koān", "name:yue": "花蓮縣"}}, "center_lat": 23.75, "center_lon": 121.38, "area_m2": 4622724074, "timezone": "Asia/Taipei", "population": 327968, "wikidata_id": "Q249868", "wikipedia_id": "zh:花蓮縣"}}