{"type": "Feature", "geometry": {"type": "Polygon", "coordinates": [[[118.278, 24.413], [118.386, 24.469], [118.419, 24.528], [118.461, 24.479], [118.32, 24.386], [118.278, 24.413]]]}, "properties": {"name": "Kinmen", "iso2": "TW-KIN", "admin_level": 6, "osm_id": 3339695, "countrylevel_id": "iso2:TW-KIN", "osm_data": {"localname": "金門縣", "official_name": "", "alltags": {"name:ar": "كنمن", "name:en": "Kinmen", "name:es": "Kinmen", "name:et": "Jinmen", "name:fr": "Kinmen", "name:id": "Kabupaten Kinmen", "name:it": "Kinmen", "name:ja": "金門県", "name:ko": "진먼 현", "name:ml": "കിന്മെൻ", "name:pl": "Kinmen", "name:ru": "Цзиньмэнь", "name:th": "หมู่เกาะจินเหมิน", "name:uk": "Цзіньмень", "name:zh": "金門縣", "nat_ref": "09020", "name:cdo": "Gĭng-muòng", "name:ceb": "Kinmen", "name:hak": "Kîm-mùn-yen", "name:lzh": "金門縣", "name:nan": "Kim-mn̂g-koān", "name:wuu": "金門縣", "name:yue": "金門", "name:zh-Hant": "金門縣"}}, "center_lat": 24.45, "center_lon": 118.37, "area_m2": 152137533, "timezone": "Asia/Taipei", "population": 139273, "wikidata_id": "Q249870", "wikipedia_id": "zh:金門縣"}}