{"type": "Feature", "geometry": {"type": "Polygon", "coordinates": [[[120, 26.237], [119.998, 26.223], [119.973, 26.212], [119.968, 26.216], [120, 26.237]]]}, "properties": {"name": "Matsu Islands", "iso2": "TW-LIE", "admin_level": 6, "osm_id": 3777249, "countrylevel_id": "iso2:TW-LIE", "osm_data": {"localname": "馬祖列島", "official_name": "", "alltags": {"name:en": "Matsu Islands", "name:es": "Islas Matsu", "name:et": "Matsu saared", "name:fr": "Îles Matsu", "name:ja": "馬祖島", "name:ko": "마쭈 열도", "name:pl": "Mazu Liedao", "name:pt": "Ilhas Matsu", "name:ru": "Мацзу", "name:uk": "Мацзу", "name:vi": "Quần đảo Mã Tổ", "name:zh": "馬祖列島", "nat_ref": "09007", "alt_name": "連江縣", "name:cdo": "Mā-cū Liĕk-dō̤", "name:hak": "Mâ-chú-tó", "name:nan": "Má-chó͘ Lia̍t-tó", "name:yue": "馬祖", "alt_name:en": "Lienchiang County", "alt_name:ja": "連江県", "alt_name:ko": "롄장 현", "alt_name:zh": "連江縣", "alt_name:nan": "Liân-kang-koān"}}, "center_lat": 26.18, "center_lon": 120.04, "area_m2": 28574042, "timezone": "Asia/Taipei", "population": 13056, "wikidata_id": "Q249872", "wikipedia_id": "zh:馬祖列島"}}