{"type": "Feature", "geometry": {"type": "Polygon", "coordinates": [[[120.461, 24.216], [120.47, 24.236], [120.472, 24.24], [120.505, 24.285], [120.501, 24.29], [120.527, 24.314], [120.528, 24.314], [120.614, 24.429], [120.614, 24.43], [120.622, 24.44], [120.834, 24.29], [121.035, 24.297], [121.259, 24.438], [121.318, 24.441], [121.451, 24.365], [121.343, 24.224], [121.255, 24.243], [120.679, 24.014], [120.486, 24.197], [120.488, 24.203], [120.489, 24.206], [120.482, 24.208], [120.474, 24.211], [120.468, 24.212], [120.461, 24.216]]]}, "properties": {"name": "Taichung", "iso2": "TW-TXG", "admin_level": 4, "osm_id": 2921154, "countrylevel_id": "iso2:TW-TXG", "osm_data": {"localname": "臺中市", "official_name": "", "alltags": {"name:af": "Taichung", "name:ar": "تاي شانغ", "name:ce": "Тайчжун", "name:cs": "Tchaj-čung", "name:en": "Taichung", "name:eo": "Tajĉung", "name:es": "Taichung", "name:fa": "تایچونگ", "name:fi": "Taichung", "name:fr": "Taichung", "name:ga": "Taichung", "name:he": "טאיג'ונג", "name:hi": "ताइचुंग", "name:id": "Kota Taichung", "name:it": "Taichung", "name:ja": "台中市", "name:ko": "타이중 시", "name:ky": "Тайчжун", "name:lt": "Taičungas", "name:lv": "Taidžuna", "name:mn": "Тайжун", "name:nl": "Taichung", "name:no": "Taichung", "name:pl": "Taizhong", "name:pt": "Taichung", "name:qu": "T'aychun", "name:ro": "Taichung", "name:ru": "Тайчжун", "name:sv": "Taichung", "name:th": "เมืองไถโจวง", "name:tr": "Taichung", "name:ug": "Teyjong shehiri", "name:uk": "Тайчжун", "name:ur": "تائچونگ", "name:vi": "Đài Trung", "name:za": "Daizcungh", "name:zh": "臺中市", "nat_ref": "66", "name:ast": "Taichung", "name:cdo": "Dài-dṳ̆ng", "name:gan": "臺中市", "name:hak": "Thòi-chûng-sṳ", "name:nan": "Tâi-tiong-chhī", "name:sco": "Taichung", "name:szl": "Taizhong", "name:tay": "shangh", "name:war": "Taichung", "name:wuu": "臺中市", "name:yue": "臺中市", "name:zh_pinyin": "Táizhōng Shì"}}, "center_lat": 24.24, "center_lon": 120.9, "area_m2": 2228960541, "timezone": "Asia/Taipei", "population": 2803894, "wikidata_id": "Q245023", "wikipedia_id": "zh:臺中市"}}