{"type": "Feature", "geometry": {"type": "Polygon", "coordinates": [[[120.041, 23.113], [120.049, 23.125], [120.056, 23.135], [120.059, 23.139], [120.06, 23.142], [120.062, 23.145], [120.068, 23.174], [120.069, 23.185], [120.125, 23.334], [120.125, 23.335], [120.441, 23.413], [120.653, 23.225], [120.351, 22.889], [120.175, 22.912], [120.149, 22.988], [120.147, 22.989], [120.147, 22.988], [120.041, 23.113]]]}, "properties": {"name": "Tainan", "iso2": "TW-TNN", "admin_level": 4, "osm_id": 2418506, "countrylevel_id": "iso2:TW-TNN", "osm_data": {"localname": "臺南市", "official_name": "", "alltags": {"name:ar": "تاينان", "name:da": "Tainan", "name:en": "Tainan", "name:et": "Tainan", "name:fr": "Tainan", "name:id": "Kota Tainan", "name:it": "Tainan", "name:ja": "台南市", "name:ko": "타이난 시", "name:pl": "Tainan", "name:pt": "Tainan", "name:ru": "Тайнань", "name:th": "ไถหนาน", "name:vi": "Đài Nam", "name:zh": "臺南市", "nat_ref": "67", "name:cdo": "Dài-nàng", "name:hak": "Thòi-nàm-sṳ", "name:nan": "Tâi-lâm-chhī", "name:wuu": "台南市", "name:yue": "臺南", "name:zh_pinyin": "Táinán Shì"}}, "center_lat": 23.15, "center_lon": 120.33, "area_m2": 2251793381, "timezone": "Asia/Taipei", "population": 1883831, "wikidata_id": "Q140631", "wikipedia_id": "zh:臺南市"}}