{"type": "Feature", "geometry": {"type": "Polygon", "coordinates": [[[121.284, 25.117], [121.321, 24.9], [121.48, 24.674], [121.403, 24.592], [121.301, 24.764], [120.986, 24.94], [120.986, 24.941], [120.988, 24.942], [120.989, 24.946], [120.99, 24.947], [120.998, 24.953], [121, 24.955], [121.006, 24.964], [121.009, 24.968], [121.012, 24.971], [121.014, 24.972], [121.015, 24.981], [121.016, 24.984], [121.009, 24.99], [121.014, 24.991], [121.026, 25.007], [121.052, 25.037], [121.052, 25.038], [121.075, 25.048], [121.076, 25.048], [121.077, 25.049], [121.079, 25.05], [121.082, 25.052], [121.083, 25.052], [121.087, 25.055], [121.088, 25.056], [121.097, 25.062], [121.098, 25.063], [121.145, 25.078], [121.147, 25.078], [121.149, 25.079], [121.153, 25.079], [121.266, 25.121], [121.268, 25.12], [121.284, 25.117]]]}, "properties": {"name": "Taoyuan", "iso2": "TW-TAO", "admin_level": 4, "osm_id": 2770986, "countrylevel_id": "iso2:TW-TAO", "osm_data": {"localname": "桃園市", "official_name": "", "alltags": {"name:ar": "تاو يوان", "name:en": "Taoyuan", "name:es": "Taoyuan", "name:fr": "Taoyuan", "name:hu": "Taojüan megye", "name:id": "Kota Taoyuan", "name:it": "Taoyuan", "name:ja": "桃園市", "name:ko": "타오위안 시", "name:mn": "Таоюань", "name:ru": "Таоюань", "name:th": "เถา-ยฺเหวียน", "name:zh": "桃園市", "nat_ref": "68", "name:cdo": "Tò̤-huòng", "name:ceb": "Taoyuan", "name:hak": "Thò-yèn-sṳ", "name:nan": "Thô-hn̂g-chhī", "name:wuu": "桃園市", "name:yue": "桃園市", "old_name": "桃園縣", "name:zh_pinyin": "Táoyuán"}}, "center_lat": 24.9, "center_lon": 121.26, "area_m2": 1210128258, "timezone": "Asia/Taipei", "population": 2220872, "wikidata_id": "Q115256", "wikipedia_id": "zh:桃園市"}}