{"type": "Feature", "geometry": {"type": "Polygon", "coordinates": [[[120.143, 23.571], [120.143, 23.572], [120.14, 23.613], [120.142, 23.638], [120.143, 23.64], [120.272, 23.829], [120.272, 23.83], [120.64, 23.786], [120.731, 23.611], [120.403, 23.627], [120.223, 23.504], [120.152, 23.518], [120.153, 23.518], [120.154, 23.519], [120.15, 23.519], [120.147, 23.521], [120.146, 23.521], [120.143, 23.571]]]}, "properties": {"name": "Yunlin County", "iso2": "TW-YUN", "admin_level": 6, "osm_id": 2915930, "countrylevel_id": "iso2:TW-YUN", "osm_data": {"localname": "雲林縣", "official_name": "", "alltags": {"name:ar": "مقاطعة يونلين", "name:cs": "Okres Jün-lin", "name:en": "Yunlin County", "name:fr": "Comté de Yunlin", "name:id": "Kabupaten Yunlin", "name:it": "Contea di Yunlin", "name:ja": "雲林県", "name:ko": "윈린 현", "name:ru": "Уезд Юньлинь", "name:th": "เทศมณฑลยฺหวินหลิน", "name:vi": "Vân Lâm", "name:zh": "雲林縣", "nat_ref": "10009", "name:cdo": "Hùng-lìng", "name:frr": "Yunlin", "name:gan": "雲林", "name:hak": "Yùn-lìm-yen", "name:nan": "Hûn-lîm-koān", "name:yue": "雲林縣"}}, "center_lat": 23.69, "center_lon": 120.39, "area_m2": 1328503779, "timezone": "Asia/Taipei", "population": 686022, "wikidata_id": "Q153221", "wikipedia_id": "zh:雲林縣"}}