{"type": "Feature", "geometry": {"type": "Polygon", "coordinates": [[[101.712, 2.595], [101.751, 2.869], [101.948, 3.024], [101.915, 3.257], [102.389, 3.117], [102.7, 2.832], [102.594, 2.41], [102.179, 2.498], [101.973, 2.391], [101.859, 2.414], [101.857, 2.416], [101.712, 2.595]]]}, "properties": {"name": "Negeri Sembilan", "iso2": "MY-05", "admin_level": 4, "osm_id": 2939674, "countrylevel_id": "iso2:MY-05", "osm_data": {"localname": "Negeri Sembilan", "official_name": "", "alltags": {"name:ar": "نكري سمبيلن", "name:az": "Neqeri Sembilan", "name:bg": "Негери Сембилан", "name:eo": "Negeri-Sembilano", "name:fa": "نگاری سمبیلان", "name:he": "נגרי סמבילן", "name:hi": "नेगेरी सेमबिलान", "name:ik": "Negri Sembilan", "name:ja": "ヌグリ・スンビラン", "name:ko": "느그리슴빌란", "name:mk": "Негери Сембилан", "name:mr": "नगरी संबिलान", "name:ms": "Negeri Sembilan", "name:qu": "Negeri Sembilan suyu", "name:ru": "Негери-Сембилан", "name:ta": "நெகிரி செம்பிலான்", "name:th": "รัฐเนอเกอรีเซิมบีลัน", "name:uk": "Неґері-Сембілан", "name:ur": "نگری سمبیلان", "name:zh": "森美兰", "alt_name:en": "Negri Sembilan", "border_type": "state"}}, "center_lat": 2.78, "center_lon": 102.21, "area_m2": 6700469108, "timezone": "Asia/Kuala_Lumpur", "population": 997071, "wikidata_id": "Q213893", "wikipedia_id": "ms:Negeri Sembilan"}}