{"type": "Feature", "geometry": {"type": "MultiPolygon", "coordinates": [[[[100.195, 6.254], [100.367, 6.54], [100.708, 6.47], [100.709, 6.471], [100.842, 6.302], [101.094, 6.26], [101.087, 5.911], [100.989, 5.784], [100.928, 5.507], [100.559, 5.08], [100.492, 5.133], [100.524, 5.559], [100.34, 5.578], [100.342, 5.616], [100.342, 5.623], [100.342, 6.003], [100.341, 6.004], [100.328, 6.042], [100.327, 6.044], [100.325, 6.047], [100.324, 6.05], [100.195, 6.254]]], [[[100.037, 6.058], [100.042, 6.066], [100.037, 6.057], [100.036, 6.057], [100.037, 6.058]]], [[[99.8, 6.161], [99.8, 6.164], [99.801, 6.159], [99.8, 6.161]]], [[[99.778, 6.167], [99.778, 6.168], [99.779, 6.167], [99.78, 6.167], [99.778, 6.167]]], [[[99.774, 6.169], [99.774, 6.17], [99.775, 6.17], [99.775, 6.171], [99.776, 6.171], [99.774, 6.169]]], [[[99.785, 6.176], [99.787, 6.172], [99.784, 6.172], [99.785, 6.176]]], [[[99.748, 6.231], [99.748, 6.232], [99.748, 6.233], [99.749, 6.231], [99.748, 6.231]]], [[[99.873, 6.238], [99.872, 6.238], [99.872, 6.239], [99.873, 6.238]]], [[[99.712, 6.242], [99.712, 6.244], [99.713, 6.244], [99.713, 6.243], [99.713, 6.242], [99.712, 6.242]]], [[[99.743, 6.252], [99.744, 6.253], [99.744, 6.252], [99.743, 6.252]]], [[[99.77, 6.256], [99.771, 6.258], [99.772, 6.258], [99.771, 6.257], [99.77, 6.256]]], [[[99.805, 6.273], [99.81, 6.274], [99.811, 6.275], [99.816, 6.278], [99.819, 6.278], [99.824, 6.28], [99.826, 6.285], [99.826, 6.289], [99.829, 6.292], [99.833, 6.293], [99.834, 6.296], [99.839, 6.295], [99.81, 6.17], [99.768, 6.219], [99.805, 6.273]]], [[[99.74, 6.26], [99.741, 6.259], [99.742, 6.259], [99.743, 6.259], [99.743, 6.258], [99.743, 6.257], [99.742, 6.257], [99.742, 6.258], [99.741, 6.259], [99.741, 6.26], [99.74, 6.26]]], [[[99.867, 6.276], [99.868, 6.277], [99.87, 6.279], [99.871, 6.279], [99.873, 6.275], [99.872, 6.275], [99.871, 6.275], [99.87, 6.275], [99.869, 6.275], [99.867, 6.276]]], [[[99.713, 6.269], [99.713, 6.271], [99.715, 6.271], [99.716, 6.271], [99.715, 6.27], [99.717, 6.269], [99.718, 6.269], [99.72, 6.271], [99.721, 6.273], [99.722, 6.272], [99.722, 6.269], [99.721, 6.267], [99.72, 6.267], [99.719, 6.265], [99.718, 6.265], [99.716, 6.266], [99.715, 6.267], [99.714, 6.268], [99.713, 6.269]]], [[[99.756, 6.263], [99.754, 6.263], [99.755, 6.264], [99.759, 6.265], [99.756, 6.263]]], [[[99.938, 6.316], [99.939, 6.318], [99.94, 6.319], [99.941, 6.319], [99.941, 6.318], [99.942, 6.317], [99.943, 6.317], [99.944, 6.316], [99.945, 6.314], [99.944, 6.314], [99.942, 6.313], [99.942, 6.312], [99.941, 6.311], [99.938, 6.316]]], [[[99.776, 6.449], [99.777, 6.447], [99.776, 6.448], [99.776, 6.449]]], [[[99.794, 6.454], [99.794, 6.455], [99.795, 6.455], [99.795, 6.452], [99.795, 6.454], [99.794, 6.454]]], [[[99.709, 6.294], [99.71, 6.294], [99.712, 6.295], [99.711, 6.293], [99.71, 6.292], [99.709, 6.294]]], [[[99.704, 6.299], [99.703, 6.298], [99.7, 6.291], [99.696, 6.293], [99.699, 6.294], [99.698, 6.295], [99.699, 6.296], [99.696, 6.295], [99.696, 6.294], [99.695, 6.293], [99.693, 6.304], [99.704, 6.299]]], [[[99.931, 6.309], [99.933, 6.309], [99.934, 6.308], [99.935, 6.307], [99.931, 6.309]]], [[[99.885, 6.304], [99.886, 6.303], [99.887, 6.301], [99.885, 6.304]]], [[[99.93, 6.322], [99.93, 6.319], [99.934, 6.319], [99.934, 6.317], [99.931, 6.313], [99.923, 6.297], [99.922, 6.297], [99.913, 6.303], [99.912, 6.308], [99.912, 6.31], [99.91, 6.31], [99.909, 6.31], [99.896, 6.31], [99.895, 6.312], [99.93, 6.322]]], [[[99.863, 6.282], [99.861, 6.287], [99.863, 6.291], [99.864, 6.292], [99.869, 6.286], [99.869, 6.285], [99.863, 6.282]]], [[[99.868, 6.293], [99.87, 6.293], [99.869, 6.292], [99.869, 6.293], [99.868, 6.293]]], [[[99.902, 6.368], [99.901, 6.368], [99.864, 6.303], [99.861, 6.293], [99.851, 6.301], [99.851, 6.302], [99.851, 6.304], [99.851, 6.305], [99.778, 6.287], [99.777, 6.286], [99.707, 6.36], [99.706, 6.359], [99.704, 6.359], [99.702, 6.361], [99.7, 6.36], [99.699, 6.36], [99.683, 6.36], [99.684, 6.361], [99.685, 6.368], [99.684, 6.368], [99.683, 6.369], [99.682, 6.368], [99.65, 6.368], [99.649, 6.369], [99.793, 6.425], [99.902, 6.368]]]]}, "properties": {"name": "Kedah", "iso2": "MY-02", "admin_level": 4, "osm_id": 4444908, "countrylevel_id": "iso2:MY-02", "osm_data": {"localname": "Kedah", "official_name": "", "alltags": {"name:ar": "قدح", "name:ba": "Кедах", "name:bg": "Кедах", "name:bn": "কেদাহ", "name:en": "Kedah", "name:eo": "Kedaho", "name:et": "Kedahi osariik", "name:fa": "کداح", "name:he": "קדה", "name:hi": "केदाह", "name:ja": "ケダ", "name:kn": "ಕಟಾಹ", "name:ko": "크다", "name:lt": "Kedahas", "name:mk": "Кедах", "name:mr": "कदा", "name:ms": "Kedah", "name:pt": "Quedá", "name:qu": "Kedah suyu", "name:ru": "Кедах", "name:sa": "कदा", "name:ta": "கடாரம்", "name:th": "รัฐเกดะห์", "name:uk": "Кедах", "name:ur": "قدح (ریاست)", "name:zh": "吉打", "alt_name": "Darul Aman;Kedah Darul Aman;قدح در الامن", "old_name": "Kadaram", "old_name:th": "ไทรบุร"}}, "center_lat": 5.95, "center_lon": 100.62, "area_m2": 9520366321, "timezone": "Asia/Kuala_Lumpur", "population": 1890098, "wikidata_id": "Q188947", "wikipedia_id": "en:Kedah"}}