{"type": "Feature", "geometry": {"type": "Polygon", "coordinates": [[[115.448, 4.979], [115.655, 4.785], [115.545, 4.593], [115.674, 4.115], [115.582, 3.888], [115.483, 3.02], [115.15, 2.909], [115.093, 2.694], [115.237, 2.506], [114.799, 2.249], [114.878, 1.915], [114.565, 1.427], [114.416, 1.511], [114.207, 1.41], [113.976, 1.45], [113.631, 1.216], [113.535, 1.321], [113.106, 1.445], [113.058, 1.559], [112.517, 1.574], [112.2, 1.437], [112.134, 1.138], [111.826, 0.985], [111.522, 0.959], [111.226, 1.088], [110.905, 1.028], [110.595, 0.858], [110.301, 0.996], [110.192, 1.183], [109.662, 1.619], [109.538, 1.927], [109.645, 2.081], [109.704, 1.844], [109.965, 1.701], [110.463, 1.738], [110.534, 1.58], [110.941, 1.521], [111.086, 1.757], [111.396, 2.536], [111.432, 2.699], [111.63, 2.845], [111.999, 2.891], [112, 2.891], [112.924, 3.113], [113.302, 3.517], [113.433, 3.756], [113.684, 3.945], [113.947, 4.286], [114.076, 4.587], [114.649, 4.006], [114.826, 4.273], [114.783, 4.734], [115.025, 4.897], [115.027, 4.807], [115.028, 4.806], [115.055, 4.79], [115.099, 4.468], [115.289, 4.604], [115.152, 4.879], [115.153, 4.879], [115.153, 4.88], [115.158, 4.886], [115.159, 4.886], [115.16, 4.888], [115.159, 4.889], [115.158, 4.897], [115.157, 4.898], [115.155, 4.911], [115.176, 4.919], [115.176, 4.92], [115.175, 4.922], [115.237, 4.935], [115.238, 4.934], [115.323, 4.89], [115.324, 4.89], [115.324, 4.891], [115.391, 4.923], [115.395, 4.928], [115.395, 4.933], [115.393, 4.935], [115.392, 4.935], [115.42, 4.976], [115.448, 4.979]]]}, "properties": {"name": "Sarawak", "iso2": "MY-13", "admin_level": 4, "osm_id": 3879784, "countrylevel_id": "iso2:MY-13", "osm_data": {"localname": "Sarawak", "official_name": "", "alltags": {"name:ar": "سراوق", "name:az": "Saravak", "name:be": "Саравак", "name:bg": "Саравак", "name:bn": "সারাওয়াক", "name:en": "Sarawak", "name:eo": "Saravako", "name:et": "Sarawaki osariik", "name:fa": "ساراواک", "name:he": "סראוואק", "name:hi": "सारावाक", "name:hy": "Սարավակ", "name:ja": "サラワク", "name:ko": "사라왁", "name:lt": "Saravakas", "name:lv": "Saravaka", "name:mk": "Саравак", "name:ml": "സാരവാക്ക്", "name:mr": "सारावाक", "name:ms": "Sarawak", "name:my": "ဆာရာဝပ်ပြည်နယ်", "name:nl": "Sarawak", "name:qu": "Sarawak suyu", "name:ru": "Саравак", "name:sr": "Саравак", "name:ta": "சரவாக்", "name:th": "รัฐซาราวัก", "name:tr": "Saravak", "name:uk": "Саравак", "name:ur": "سراواک", "name:zh": "砂拉越"}}, "center_lat": 2.59, "center_lon": 113.3, "area_m2": 124582757493, "timezone": "Asia/Kuching", "population": 2790000, "wikidata_id": "Q170462", "wikipedia_id": "en:Sarawak"}}