{"type": "Feature", "geometry": {"type": "Polygon", "coordinates": [[[16.207, 44.251], [16.45, 44.463], [17.086, 44.084], [17.264, 44.074], [17.449, 43.882], [17.535, 43.655], [17.084, 43.538], [16.549, 43.968], [16.172, 44.21], [16.207, 44.251]]]}, "properties": {"name": "Herzeg-Bosnia Canton", "iso2": "BA-10", "admin_level": 5, "osm_id": 2528147, "countrylevel_id": "iso2:BA-10", "osm_data": {"localname": "Hercegbosanska županija", "official_name": "", "alltags": {"name:bs": "Kanton 10", "name:ca": "Cantó 10", "name:en": "Herzeg-Bosnia Canton", "name:es": "Cantón de Herzeg-Bosnia", "name:fr": "Canton de Herceg-Bosna", "name:hr": "Hercegbosanska županija", "name:it": "Cantone dell'Erzeg-Bosnia", "name:ru": "Герцегбосанский кантон", "population": "84127", "alt_name:bs": "Livanjski kanton", "alt_name:ca": "Comtat d'Herceg-Bòsnia", "alt_name:de": "Kanton Westbosnien", "alt_name:fr": "Canton 10", "alt_name:hr": "Županija br. 10", "old_name:bs": "Zapadnobosanski kanton", "default_language": "hr"}}, "center_lat": 43.98, "center_lon": 16.87, "area_m2": 4898421739, "timezone": "Europe/Sarajevo", "wikidata_id": "Q18277", "wikipedia_id": "en:Canton 10"}}