{"type": "Feature", "geometry": {"type": "Polygon", "coordinates": [[[18.578, 44.837], [18.583, 44.839], [18.584, 44.839], [18.585, 44.839], [18.609, 44.855], [18.726, 44.956], [18.786, 44.966], [19.005, 44.855], [18.81, 44.755], [18.578, 44.837]]]}, "properties": {"name": "Brčko District", "iso2": "BA-BRC", "admin_level": 4, "osm_id": 2528143, "countrylevel_id": "iso2:BA-BRC", "osm_data": {"localname": "Distrikt Brčko", "official_name": "Brčko Distrikt Bosne i Hercegovine", "alltags": {"name:bs": "Distrikt Brčko", "name:ca": "Districte de Brčko", "name:en": "Brčko District", "name:fr": "District de Brčko", "name:hr": "Distrikt Brčko", "name:ru": "Округ Брчко", "name:sr": "Дистрикт Брчко", "official_name": "Brčko Distrikt Bosne i Hercegovine", "official_name:bs": "Brčko Distrikt Bosne i Hercegovine", "official_name:en": "Brčko District of Bosnia and Herzegovina", "official_name:hr": "Brčko Distrikt Bosne i Hercegovine", "official_name:sr": "Брчко Dистрикт Босне и Херцеговине"}}, "center_lat": 44.82, "center_lon": 18.73, "area_m2": 494692271, "timezone": "Europe/Sarajevo", "wikidata_id": "Q194483", "wikipedia_id": "bs:Brčko Distrikt"}}