{"type": "Feature", "geometry": {"type": "MultiPolygon", "coordinates": [[[[-6.302, 49.904], [-6.314, 49.927], [-6.276, 49.923], [-6.302, 49.904]]], [[[-6.289, 49.978], [-6.288, 49.978], [-6.289, 49.978], [-6.289, 49.977], [-6.29, 49.977], [-6.288, 49.977], [-6.289, 49.977], [-6.289, 49.976], [-6.288, 49.976], [-6.291, 49.974], [-6.292, 49.978], [-6.295, 49.978], [-6.296, 49.98], [-6.29, 49.98], [-6.289, 49.978]]], [[[-6.361, 49.966], [-6.361, 49.967], [-6.36, 49.967], [-6.359, 49.966], [-6.36, 49.964], [-6.363, 49.964], [-6.361, 49.966]]]]}, "properties": {"name": "Isles of Scilly", "iso2": "GB-IOS", "admin_level": 6, "osm_id": 158039, "countrylevel_id": "iso2:GB-IOS", "osm_data": {"localname": "Isles of Scilly", "official_name": "", "alltags": {"name:br": "Inizi Sillan", "name:da": "Scillyøerne", "name:en": "Isles of Scilly", "name:eo": "Insuloj Scilly", "name:es": "Islas Sorlingas", "name:fr": "Îles Sorlingues", "name:it": "Isole Sorlinghe", "name:nl": "Scilly-eilanden", "name:nn": "Scillyøyane", "name:no": "Syllingene", "name:pt": "Ilhas Sorlingas", "name:ro": "Insulele Scilly", "name:sv": "Scillyöarna", "ref:gss": "E06000053", "website": "http://www.scilly.gov.uk/", "ons_code": "00HF", "designation": "unitary_authority", "council_name": "Council of the Isles of Scilly"}}, "center_lat": 49.94, "center_lon": -6.31, "area_m2": 15298135, "timezone": "Europe/London", "population": 2242, "wikidata_id": "Q180209"}}