{"type": "Feature", "geometry": {"type": "Polygon", "coordinates": [[[-6.292, 54.112], [-6.336, 54.095], [-6.362, 54.097], [-6.367, 54.07], [-6.393, 54.06], [-6.443, 54.058], [-6.48, 54.067], [-6.516, 54.052], [-6.587, 54.058], [-6.595, 54.044], [-6.623, 54.039], [-6.661, 54.063], [-6.661, 54.123], [-6.632, 54.147], [-6.636, 54.171], [-6.664, 54.192], [-6.707, 54.2], [-6.746, 54.189], [-6.802, 54.215], [-6.837, 54.267], [-6.866, 54.27], [-6.851, 54.297], [-6.877, 54.347], [-6.904, 54.35], [-6.911, 54.375], [-6.982, 54.41], [-7.029, 54.421], [-7.054, 54.412], [-7.104, 54.356], [-7.152, 54.335], [-7.182, 54.34], [-7.174, 54.286], [-7.15, 54.258], [-7.147, 54.226], [-7.185, 54.225], [-7.248, 54.204], [-7.26, 54.184], [-7.246, 54.168], [-7.264, 54.145], [-7.31, 54.167], [-7.34, 54.147], [-7.305, 54.123], [-7.32, 54.113], [-7.442, 54.154], [-7.491, 54.123], [-7.531, 54.133], [-7.566, 54.127], [-7.61, 54.144], [-7.625, 54.165], [-7.702, 54.208], [-7.71, 54.203], [-7.804, 54.207], [-7.862, 54.219], [-7.861, 54.26], [-7.888, 54.301], [-7.947, 54.304], [-7.986, 54.344], [-8.056, 54.366], [-8.084, 54.397], [-8.16, 54.44], [-8.178, 54.465], [-8.115, 54.469], [-8.086, 54.487], [-8.043, 54.489], [-8.042, 54.506], [-8.006, 54.546], [-7.953, 54.534], [-7.851, 54.533], [-7.8, 54.576], [-7.751, 54.599], [-7.698, 54.61], [-7.705, 54.632], [-7.771, 54.621], [-7.817, 54.642], [-7.893, 54.657], [-7.913, 54.676], [-7.855, 54.727], [-7.818, 54.734], [-7.805, 54.719], [-7.746, 54.704], [-7.735, 54.717], [-7.676, 54.733], [-7.637, 54.752], [-7.578, 54.742], [-7.548, 54.755], [-7.549, 54.789], [-7.484, 54.824], [-7.442, 54.876], [-7.451, 54.893], [-7.445, 54.937], [-7.405, 54.942], [-7.391, 55.022], [-7.345, 55.051], [-7.321, 55.045], [-7.257, 55.067], [-7.21, 55.057], [-7.149, 55.057], [-7.132, 55.042], [-7.059, 55.048], [-7.014, 55.079], [-7.02, 55.101], [-6.993, 55.114], [-6.966, 55.154], [-6.964, 55.194], [-6.912, 55.175], [-6.847, 55.167], [-6.727, 55.172], [-6.707, 55.194], [-6.629, 55.208], [-6.544, 55.217], [-6.506, 55.245], [-6.396, 55.233], [-6.368, 55.246], [-6.292, 55.229], [-6.237, 55.204], [-6.177, 55.214], [-6.14, 55.227], [-6.116, 55.21], [-6.066, 55.197], [-6.026, 55.158], [-6.042, 55.131], [-6.036, 55.103], [-6.056, 55.084], [-6.043, 55.053], [-5.981, 55.058], [-5.963, 55.045], [-5.991, 54.986], [-5.935, 54.97], [-5.9, 54.944], [-5.878, 54.908], [-5.841, 54.897], [-5.797, 54.845], [-5.758, 54.859], [-5.715, 54.839], [-5.692, 54.81], [-5.692, 54.766], [-5.747, 54.727], [-5.79, 54.721], [-5.842, 54.704], [-5.894, 54.675], [-5.915, 54.646], [-5.895, 54.626], [-5.855, 54.634], [-5.822, 54.652], [-5.747, 54.675], [-5.723, 54.668], [-5.625, 54.678], [-5.577, 54.676], [-5.529, 54.642], [-5.52, 54.596], [-5.477, 54.564], [-5.486, 54.547], [-5.464, 54.499], [-5.433, 54.485], [-5.452, 54.443], [-5.478, 54.432], [-5.464, 54.415], [-5.49, 54.357], [-5.513, 54.344], [-5.56, 54.389], [-5.573, 54.419], [-5.532, 54.454], [-5.562, 54.534], [-5.582, 54.533], [-5.614, 54.558], [-5.639, 54.562], [-5.679, 54.583], [-5.7, 54.564], [-5.678, 54.52], [-5.678, 54.5], [-5.639, 54.464], [-5.641, 54.401], [-5.664, 54.366], [-5.588, 54.384], [-5.55, 54.369], [-5.542, 54.32], [-5.563, 54.284], [-5.609, 54.249], [-5.636, 54.244], [-5.746, 54.252], [-5.832, 54.239], [-5.888, 54.211], [-5.872, 54.165], [-5.897, 54.105], [-6.056, 54.026], [-6.104, 54.04], [-6.098, 54.064], [-6.167, 54.068], [-6.191, 54.094], [-6.251, 54.097], [-6.292, 54.112]]]}, "properties": {"name": "Northern Ireland", "iso2": "GB-NIR", "admin_level": 4, "osm_id": 156393, "countrylevel_id": "iso2:GB-NIR", "osm_data": {"localname": "Northern Ireland", "official_name": "", "alltags": {"name:ar": "أيرلندا الشمالية", "name:be": "Паўночная Ірландыя", "name:br": "Norzhiwerzhon", "name:ca": "Irlanda del Nord", "name:cs": "Severní Irsko", "name:cy": "Gogledd Iwerddon", "name:en": "Northern Ireland", "name:eo": "Nord-Irlando", "name:eu": "Ipar Irlanda", "name:fi": "Pohjois-Irlanti", "name:fr": "Irlande du Nord", "name:fy": "Noard-Ierlân", "name:ga": "Tuaisceart na hÉireann", "name:gd": "Èirinn a Tuath", "name:he": "צפון אירלנד", "name:hu": "Észak-Írország", "name:ia": "Irlanda del Nord", "name:io": "Nord-Irlando", "name:ja": "北アイルランド", "name:ku": "Îrlendaya Bakur", "name:lt": "Šiaurės Airija", "name:nl": "Noord-Ierland", "name:pl": "Irlandia Północna", "name:pt": "Irlanda do Norte", "name:ru": "Северная Ирландия", "name:sk": "Severné Írsko", "name:sl": "Severna Irska", "name:sv": "Nordirland", "name:tr": "Kuzey İrlanda", "name:vi": "Bắc Ireland", "name:vo": "Nolüda-Lireyeän", "ref:gss": "N92000002", "name:tzl": "Oira Septentrional", "ref:nuts:1": "UKN", "ref:nuts:2": "UKN0", "alt_name:vi": "Bắc Ai-len", "old_name:vi": "Bắc Ái Nhĩ Lan", "name:be-tarask": "Паўночная Ірляндыя"}}, "center_lat": 54.61, "center_lon": -6.69, "area_m2": 14118521083, "timezone": "Europe/London", "population": 1862100, "wikidata_id": "Q26", "wikipedia_id": "en:Northern Ireland"}}