{"type": "Feature", "geometry": {"type": "MultiPolygon", "coordinates": [[[[14.267, 53.699], [14.412, 53.33], [13.826, 53.498], [13.484, 53.291], [12.848, 53.2], [12.056, 53.349], [11.535, 53.125], [11.266, 53.122], [10.988, 53.333], [10.595, 53.364], [10.911, 53.572], [10.757, 53.759], [10.904, 53.957], [11.434, 53.91], [11.678, 54.151], [12.123, 54.183], [12.521, 54.373], [13.091, 54.37], [13.109, 54.279], [13.287, 54.235], [13.439, 54.113], [13.697, 54.149], [13.97, 53.772], [14.267, 53.699]]], [[[13.359, 54.249], [13.116, 54.331], [13.15, 54.429], [13.345, 54.551], [13.575, 54.478], [13.359, 54.249]]]]}, "properties": {"name": "Mecklenburg-Vorpommern", "iso2": "DE-MV", "admin_level": 4, "osm_id": 28322, "countrylevel_id": "iso2:DE-MV", "osm_data": {"localname": "Mecklenburg-Vorpommern", "official_name": "", "alltags": {"name:ar": "مكلنبورغ فوربمرن", "name:ca": "Mecklemburg – Pomerània Occidental", "name:en": "Mecklenburg-Vorpommern", "name:eo": "Meklenburgo-Antaŭpomerio", "name:es": "Mecklemburgo-Pomerania Occidental", "name:fa": "مکلنبورگ-فورپومرن", "name:fi": "Mecklenburg-Etu-Pommeri", "name:fr": "Mecklembourg-Poméranie-Occidentale", "name:ia": "Mecklenburg-Vorpommeria", "name:io": "Mecklenburg-Westa Pomerania", "name:mk": "Мекленбург-Западна Померанија", "name:nl": "Mecklenburg-Voor-Pommeren", "name:pl": "Meklemburgia-Pomorze Przednie", "name:ru": "Мекленбург-Передняя Померания", "name:sl": "Mecklenburg-Predpomorjanska", "name:sr": "Мекленбург-Западна Померанија", "name:uk": "Мекленбург — Передня Померанія", "name:ur": "مکلنبرگ-ورپورمرن", "name:vo": "Mäklänburgän-Vesudapomerän", "name:hsb": "Mecklenburgsko-Předpomorska", "name:nds": "Mekelnborg-Vörpommern", "border_type": "state", "name:prefix": "Bundesland", "TMC:cid_58:tabcd_1:Class": "Area", "TMC:cid_58:tabcd_1:LCLversion": "12.0", "TMC:cid_58:tabcd_1:LocationCode": "268"}}, "center_lat": 53.75, "center_lon": 12.54, "area_m2": 23052870153, "timezone": "Europe/Berlin", "population": 1609675, "wikidata_id": "Q1196", "wikipedia_id": "de:Mecklenburg-Vorpommern"}}