{"type": "Feature", "geometry": {"type": "Polygon", "coordinates": [[[6.138, 50.13], [6.405, 50.323], [6.71, 50.344], [7.049, 50.603], [7.967, 50.844], [8.126, 50.686], [7.983, 50.511], [8.122, 50.277], [7.772, 50.058], [8.333, 49.965], [8.423, 49.584], [8.481, 49.286], [8.233, 48.966], [7.635, 49.054], [7.369, 49.162], [7.262, 49.576], [6.974, 49.634], [6.381, 49.551], [6.379, 49.551], [6.374, 49.59], [6.502, 49.733], [6.314, 49.86], [6.235, 49.899], [6.224, 49.928], [6.198, 49.948], [6.166, 49.977], [6.138, 50.13]]]}, "properties": {"name": "Rhineland-Palatinate", "iso2": "DE-RP", "admin_level": 4, "osm_id": 62341, "countrylevel_id": "iso2:DE-RP", "osm_data": {"localname": "Rheinland-Pfalz", "official_name": "", "alltags": {"name:ar": "راينلند بالاتينات", "name:ca": "Renània-Palatinat", "name:cs": "Porýní-Falc", "name:en": "Rhineland-Palatinate", "name:eo": "Rejnlando-Palatinato", "name:es": "Renania-Palatinado", "name:fa": "راینلاند-فالتس", "name:fr": "Rhénanie-Palatinat", "name:ga": "Tír na Réine agus an Phalaitíneacht", "name:ia": "Rhenania Palatina", "name:io": "Rhenlando-Palatenio", "name:is": "Rínarland-Pfalz", "name:it": "Renania-Palatinato", "name:lt": "Reino kraštas-Pfalcas", "name:mk": "Рајнска област-Пфалц", "name:nl": "Rijnland-Palts", "name:pl": "Nadrenia-Palatynat", "name:ru": "Рейнланд-Пфальц", "name:sk": "Porýnie-Falcko", "name:sl": "Porenje-Pfalška", "name:sr": "Рајна-Палатинат", "name:uk": "Рейнланд-Пфальц", "name:ur": "رائنلینڈ-پالاتینات", "name:vo": "Rinän-Palzän", "name:zh": "莱茵兰-普法尔茨", "name:hsb": "Porynsko-Pfalca", "border_type": "state", "name:prefix": "Bundesland", "TMC:cid_58:tabcd_1:Class": "Area", "TMC:cid_58:tabcd_1:LCLversion": "12.0", "TMC:cid_58:tabcd_1:LocationCode": "262"}}, "center_lat": 49.91, "center_lon": 7.45, "area_m2": 19835702092, "timezone": "Europe/Berlin", "population": 4011582, "wikidata_id": "Q1200", "wikipedia_id": "de:Rheinland-Pfalz"}}