{"type": "Feature", "geometry": {"type": "MultiPolygon", "coordinates": [[[[9.514, 53.682], [9.512, 53.685], [9.512, 53.686], [9.528, 53.684], [9.527, 53.665], [9.526, 53.665], [9.525, 53.666], [9.524, 53.668], [9.523, 53.67], [9.521, 53.673], [9.52, 53.674], [9.519, 53.676], [9.517, 53.678], [9.517, 53.679], [9.515, 53.682], [9.514, 53.682]]], [[[10.904, 53.957], [10.757, 53.759], [10.911, 53.572], [10.595, 53.364], [10.308, 53.434], [10.082, 53.72], [9.73, 53.558], [9.649, 53.576], [9.379, 53.831], [9.211, 53.889], [8.972, 53.892], [8.831, 54.022], [8.918, 54.422], [8.637, 54.912], [9.42, 54.832], [9.957, 54.78], [10.124, 54.485], [11.093, 54.199], [10.904, 53.957]]]]}, "properties": {"name": "Schleswig-Holstein", "iso2": "DE-SH", "admin_level": 4, "osm_id": 51529, "countrylevel_id": "iso2:DE-SH", "osm_data": {"localname": "Schleswig-Holstein", "official_name": "", "alltags": {"name:ar": "شليسفيغ هولشتاين", "name:ca": "Slesvig-Holstein", "name:cs": "Šlesvicko-Holštýnsko", "name:en": "Schleswig-Holstein", "name:eo": "Ŝlesvigo-Holstinio", "name:fa": "اشلسویگ-هولشتاین", "name:is": "Slésvík-Holtsetaland", "name:lv": "Šlēsviga-Holšteina", "name:mk": "Шлезвиг-Холштајн", "name:nl": "Sleeswijk-Holstein", "name:pl": "Szlezwik-Holsztyn", "name:ru": "Шлезвиг-Гольштейн", "name:sk": "Šlezvicko-Holštajnsko", "name:sr": "Шлезвиг-Холштајн", "name:uk": "Шлезвіг-Гольштейн", "name:ur": "شلسویگ-ہولشتائن", "name:vo": "Jlesvigän-Holstän", "name:hsb": "Šleswigsko-Holšteinska", "name:nds": "Sleswig-Holsteen", "border_type": "state", "name:prefix": "Bundesland", "TMC:cid_58:tabcd_1:Class": "Area", "TMC:cid_58:tabcd_1:LCLversion": "12.0", "TMC:cid_58:tabcd_1:LocationCode": "256"}}, "center_lat": 54.19, "center_lon": 9.81, "area_m2": 15716079986, "timezone": "Europe/Berlin", "population": 2896712, "wikidata_id": "Q1194", "wikipedia_id": "de:Schleswig-Holstein"}}