{"type": "Feature", "geometry": {"type": "MultiPolygon", "coordinates": [[[[136.418, -14], [136.436, -13.815], [136.811, -13.856], [136.651, -14.296], [136.402, -14.176], [136.418, -14]]], [[[137.995, -16.539], [137.995, -18.285], [137.996, -19.465], [137.997, -20.907], [137.998, -22.079], [137.998, -23.5], [137.999, -24.697], [137.999, -25.997], [136.763, -25.997], [134.674, -25.998], [132.377, -25.999], [130.952, -25.999], [129.002, -25.999], [129.001, -24.919], [129.001, -23.479], [129.001, -22.039], [129.001, -20.599], [129, -19.158], [129, -17.718], [129, -16.187], [129, -14.88], [129.348, -14.873], [129.618, -14.941], [129.625, -14.688], [129.374, -14.354], [129.494, -14.13], [129.722, -14.013], [129.833, -13.558], [130.16, -13.44], [130.117, -13.165], [130.177, -12.91], [130.347, -12.717], [130.543, -12.714], [130.616, -12.387], [130.768, -12.447], [131.222, -12.228], [131.66, -12.287], [131.88, -12.215], [132.06, -12.306], [132.417, -12.195], [132.62, -12.014], [132.65, -11.723], [132.528, -11.444], [132.067, -11.524], [131.831, -11.225], [131.963, -11.177], [132.436, -11.212], [132.733, -11.52], [133.001, -11.429], [133.152, -11.706], [133.525, -11.824], [133.732, -11.784], [134.191, -12.028], [134.493, -12.073], [134.769, -11.957], [134.855, -12.133], [135.244, -12.313], [135.394, -12.179], [135.911, -12.153], [136.047, -12.473], [136.306, -12.399], [136.212, -12.185], [136.417, -11.958], [136.531, -11.993], [136.664, -12.282], [136.927, -12.281], [136.663, -12.711], [136.625, -12.953], [136.476, -13.234], [135.92, -13.271], [135.88, -13.698], [136.016, -13.832], [135.881, -14.182], [135.73, -14.297], [135.389, -14.753], [135.467, -14.965], [136.24, -15.417], [136.289, -15.569], [136.677, -15.814], [137.006, -15.878], [137.314, -16.093], [137.728, -16.235], [137.995, -16.539]]], [[[130.209, -11.704], [130.18, -11.429], [130.342, -11.325], [130.505, -11.832], [130.209, -11.704]]], [[[131, -11.359], [131.251, -11.194], [131.467, -11.387], [131.473, -11.606], [130.975, -11.935], [130.499, -11.662], [130.556, -11.36], [131, -11.359]]]]}, "properties": {"name": "Northern Territory", "iso2": "AU-NT", "admin_level": 4, "osm_id": 2316594, "countrylevel_id": "iso2:AU-NT", "osm_data": {"localname": "Northern Territory", "official_name": "", "alltags": {"name:af": "Noordelike Gebied", "name:ar": "إقليم شمالي", "name:be": "Паўночная тэрыторыя", "name:br": "Tiriad an Norzh", "name:cs": "Severní teritorium", "name:en": "Northern Territory", "name:eo": "Norda Teritorio", "name:es": "Territorio del Norte", "name:fi": "Pohjoisterritorio", "name:fr": "Territoire du Nord", "name:he": "הטריטוריה הצפונית", "name:it": "Territorio del Nord", "name:ja": "ノーザンテリトリー", "name:kn": "ಉತ್ತರ ಪ್ರದೇಶ", "name:lt": "Šiaurinė Teritorija", "name:mk": "Северна Територија", "name:nl": "Noordelijk Territorium", "name:pt": "Território do Norte", "name:ro": "Teritoriul de Nord", "name:ru": "Северная территория", "name:sk": "Severné teritórium", "name:sl": "Severno ozemlje", "name:uk": "Північна територія", "name:vi": "Lãnh thổ Bắc", "name:zh": "北领地", "website": "https://nt.gov.au", "state_code": "NT", "alt_name:eo": "Nordteritorio", "alt_name:vi": "Lãnh thổ Bắc Úc", "loc_name:vi": "Lãnh thổ Bắc", "website:tourism": "http://northernterritory.com/", "is_in:country_code": "AU", "def:highway=footway;access:bicycle": "yes"}}, "center_lat": -19.42, "center_lon": 133.37, "area_m2": 1354460519135, "timezone": "Australia/Darwin", "population": 245562, "wikidata_id": "Q3235", "wikipedia_id": "en:Northern Territory"}}