{"type": "Feature", "geometry": {"type": "MultiPolygon", "coordinates": [[[[137.001, -36.018], [136.758, -36.05], [136.533, -35.877], [136.587, -35.749], [137.491, -35.58], [137.666, -35.739], [137.373, -35.999], [137.001, -36.018]]], [[[129.002, -31.687], [129.002, -30.449], [129.002, -29.011], [129.002, -27.572], [129.002, -25.999], [130.952, -25.999], [132.377, -25.999], [134.674, -25.998], [136.763, -25.997], [137.999, -25.997], [139.874, -25.997], [140.999, -25.996], [141, -27.668], [140.999, -28.999], [141, -30.163], [141.001, -31.592], [141.001, -32.561], [141.003, -34.021], [140.962, -34.096], [140.962, -35.8], [140.972, -37.032], [140.966, -38.057], [140.665, -38.059], [140.376, -37.896], [140.129, -37.543], [139.758, -37.194], [139.67, -36.959], [139.861, -36.689], [139.55, -36.077], [139.212, -35.755], [138.711, -35.514], [138.522, -35.643], [138.096, -35.6], [138.441, -35.349], [138.541, -34.753], [138.043, -34.17], [137.916, -34.431], [137.734, -35.131], [137.423, -35.099], [137.143, -35.244], [136.829, -35.249], [137.012, -34.921], [137.457, -34.888], [137.46, -34.427], [137.601, -33.879], [137.931, -33.482], [137.836, -33.209], [138.054, -33.113], [137.809, -32.748], [137.453, -33.131], [137.215, -33.66], [136.93, -33.676], [136.365, -34.068], [136.263, -34.264], [135.932, -34.53], [135.847, -34.881], [135.685, -34.945], [135.431, -34.714], [135.254, -33.984], [134.843, -33.631], [134.802, -33.329], [134.601, -33.141], [134.267, -33.137], [134.143, -32.72], [134.254, -32.555], [133.904, -32.32], [133.534, -32.165], [133.135, -32.169], [132.741, -31.949], [132.176, -32.018], [131.818, -31.755], [131.13, -31.465], [130.793, -31.608], [130.275, -31.574], [129.002, -31.687]]]]}, "properties": {"name": "South Australia", "iso2": "AU-SA", "admin_level": 4, "osm_id": 2316596, "countrylevel_id": "iso2:AU-SA", "osm_data": {"localname": "South Australia", "official_name": "", "alltags": {"is_in": "Australia", "name:ar": "جنوب أستراليا", "name:be": "Паўднёвая Аўстралія", "name:br": "Aostralia ar Su", "name:cs": "Jižní Austrálie", "name:en": "South Australia", "name:eo": "Suda Aŭstralio", "name:es": "Australia Meridional", "name:fi": "Etelä-Australia", "name:fr": "Australie méridionale", "name:he": "אוסטרליה הדרומית", "name:hu": "Dél-Ausztrália", "name:it": "Australia Meridionale", "name:ja": "南オーストラリア", "name:la": "Australia Australis", "name:lb": "Südaustralien", "name:lt": "Pietų Australija", "name:mi": "Ahitereiria ki te Tonga", "name:mk": "Јужна Австралија", "name:nl": "Zuid-Australië", "name:pl": "Australia Południowa", "name:pt": "Austrália Meridional", "name:ro": "Australia de Sud", "name:ru": "Южная Австралия", "name:sk": "Južná Austrália", "name:uk": "Південна Австралія", "name:vi": "Nam Úc", "name:vo": "Sulüda-Laustralän", "name:zh": "南澳大利亚州", "website": "https://www.sa.gov.au/", "state_code": "SA", "website:tourism": "http://southaustralia.com/", "is_in:country_code": "AU", "def:highway=footway;access:bicycle": "yes"}}, "center_lat": -30.11, "center_lon": 135.83, "area_m2": 987476526842, "timezone": "Australia/Adelaide", "population": 1742744, "wikidata_id": "Q35715", "wikipedia_id": "en:South Australia"}}