{"type": "Feature", "geometry": {"type": "MultiPolygon", "coordinates": [[[[147.891, -39.999], [147.957, -39.728], [148.282, -39.966], [148.331, -40.212], [148.043, -40.246], [147.891, -39.999]]], [[[143.886, -40], [143.849, -39.711], [144.11, -39.67], [144.128, -39.993], [143.886, -40]]], [[[145.999, -43.432], [145.905, -43.266], [145.513, -42.982], [145.196, -42.328], [145.294, -42.179], [145.188, -41.941], [144.912, -41.693], [144.687, -41.243], [144.615, -40.946], [144.736, -40.69], [145.258, -40.806], [146.172, -41.15], [147.489, -40.98], [147.834, -40.887], [147.973, -40.742], [148.224, -40.847], [148.32, -41.621], [148.283, -42.003], [148.014, -42.239], [147.962, -42.679], [147.814, -42.899], [147.582, -42.799], [146.803, -43.603], [145.999, -43.432]]]]}, "properties": {"name": "Tasmania", "iso2": "AU-TAS", "admin_level": 4, "osm_id": 2369652, "countrylevel_id": "iso2:AU-TAS", "osm_data": {"localname": "Tasmania", "official_name": "", "alltags": {"name:af": "Tasmanië", "name:ar": "تسمانيا", "name:be": "Тасманія", "name:cs": "Tasmánie", "name:da": "Tasmanien", "name:en": "Tasmania", "name:eo": "Tasmanio", "name:es": "Tasmania", "name:et": "Tasmaania", "name:fr": "Tasmanie", "name:he": "טסמניה", "name:hu": "Tasmánia", "name:it": "Tasmania", "name:ja": "タスマニア", "name:ku": "Tasmanya", "name:la": "Tasmania", "name:lb": "Tasmanien", "name:lt": "Tasmanija", "name:mk": "Тасманија", "name:nl": "Tasmanië", "name:or": "ଟାସମାନିଆ", "name:pt": "Tasmânia", "name:ru": "Тасмания", "name:sk": "Tasmánia", "name:sl": "Tasmanija", "name:sv": "Tasmanien", "name:tt": "Тасмания", "name:uk": "Тасманія", "name:vo": "Tasmaneän", "name:zh": "塔斯马尼亚州", "website": "https://www.tas.gov.au/", "old_name": "Van Diemen's Land", "state_code": "TAS", "old_name:de": "Van-Diemens-Land", "ISO3166-2:old": "AU-TS", "website:tourism": "http://www.discovertasmania.com.au/", "def:highway=footway;access:bicycle": "yes"}}, "center_lat": -41.97, "center_lon": 146.62, "area_m2": 68332662203, "timezone": "Australia/Hobart", "population": 509965, "wikidata_id": "Q34366", "wikipedia_id": "en:Tasmania"}}