{"type": "Feature", "geometry": {"type": "Polygon", "coordinates": [[[140.966, -38.057], [140.972, -37.032], [140.962, -35.8], [140.962, -34.096], [141.003, -34.021], [141.532, -34.211], [141.732, -34.091], [142.225, -34.189], [142.388, -34.364], [142.526, -34.76], [142.805, -34.608], [143.352, -34.795], [143.394, -35.192], [144.376, -35.801], [144.749, -36.121], [144.951, -36.082], [144.975, -35.883], [145.542, -35.81], [145.793, -35.983], [146.298, -36.048], [146.425, -35.964], [147.049, -36.104], [147.708, -35.929], [147.916, -36.005], [148.039, -36.387], [148.202, -36.588], [148.195, -36.796], [149.977, -37.505], [149.489, -37.774], [148.29, -37.811], [147.752, -37.973], [146.932, -38.596], [146.384, -38.72], [146.193, -38.857], [145.916, -38.878], [145.735, -38.635], [145.436, -38.539], [145.486, -38.234], [145.118, -38.143], [144.97, -37.86], [144.652, -38.001], [144.625, -38.257], [144.037, -38.476], [143.842, -38.679], [143.512, -38.858], [143.357, -38.754], [142.788, -38.569], [142.372, -38.349], [142.148, -38.39], [141.742, -38.253], [141.407, -38.369], [140.966, -38.057]]]}, "properties": {"name": "Victoria", "iso2": "AU-VIC", "admin_level": 4, "osm_id": 2316741, "countrylevel_id": "iso2:AU-VIC", "osm_data": {"localname": "Victoria", "official_name": "", "alltags": {"is_in": "Australia", "name:ar": "ولاية فيكتوريا", "name:be": "Вікторыя", "name:br": "Victoria", "name:cs": "Victoria", "name:en": "Victoria", "name:eo": "Viktorio", "name:es": "Victoria", "name:fr": "Victoria", "name:hu": "Victoria", "name:ja": "ビクトリア", "name:lt": "Viktorija", "name:mi": "Wikitōria", "name:pl": "Wiktoria", "name:ru": "Виктория", "name:sk": "Viktória", "name:uk": "Вікторія", "name:zh": "维多利亚州", "website": "https://www.vic.gov.au/", "population": "5926624", "state_code": "VIC", "website:tourism": "http://www.visitvictoria.com/", "is_in:country_code": "AU", "def:highway=footway;access:bicycle": "no"}}, "center_lat": -36.85, "center_lon": 144.3, "area_m2": 227909405202, "timezone": "Australia/Melbourne", "population": 5926624, "wikidata_id": "Q36687", "wikipedia_id": "en:Victoria (Australia)"}}