{"type": "Feature", "geometry": {"type": "Polygon", "coordinates": [[[129, -14.88], [129, -16.187], [129, -17.718], [129, -19.158], [129.001, -20.599], [129.001, -22.039], [129.001, -23.479], [129.001, -24.919], [129.002, -25.999], [129.002, -27.572], [129.002, -29.011], [129.002, -30.449], [129.002, -31.687], [128.056, -32.065], [127.221, -32.276], [126.678, -32.309], [126.205, -32.233], [125.949, -32.292], [125.532, -32.55], [125.025, -32.73], [124.751, -32.898], [124.243, -33.015], [124.106, -33.169], [123.979, -33.551], [123.547, -33.935], [123.165, -34.015], [123.042, -33.858], [122.362, -33.915], [122.118, -33.98], [122.003, -33.83], [121.786, -33.908], [121.374, -33.816], [121.177, -33.871], [120.6, -33.886], [120.437, -33.972], [120.046, -33.923], [119.64, -34.095], [119.399, -34.46], [118.996, -34.452], [118.259, -34.909], [117.629, -35.112], [117.362, -35.02], [116.636, -35.054], [116.032, -34.838], [115.589, -34.429], [115.369, -34.323], [115.12, -34.343], [114.991, -34.101], [114.98, -33.709], [115.427, -33.609], [115.681, -33.277], [115.607, -32.686], [115.746, -32.476], [115.748, -31.835], [115.057, -30.503], [114.959, -30.049], [114.998, -29.491], [114.873, -29.118], [114.634, -28.873], [114.596, -28.612], [114.176, -28.113], [114.104, -27.502], [113.757, -26.894], [113.296, -26.399], [113.56, -26.353], [113.68, -26.658], [113.887, -26.497], [113.882, -26.337], [113.582, -26.095], [113.414, -25.724], [113.514, -25.56], [113.894, -26.036], [113.974, -26.346], [114.22, -26.359], [114.279, -25.869], [114.055, -25.658], [113.831, -25.185], [113.704, -25.093], [113.611, -24.728], [113.408, -24.485], [113.391, -24.225], [113.47, -23.9], [113.779, -23.475], [113.83, -23.032], [113.716, -22.514], [113.996, -21.874], [114.179, -22.306], [114.154, -22.525], [114.431, -22.571], [114.522, -22.262], [114.914, -21.7], [115.286, -21.595], [116.232, -20.857], [116.465, -20.821], [116.707, -20.655], [116.899, -20.724], [117.177, -20.653], [117.336, -20.736], [117.769, -20.667], [118.152, -20.364], [118.829, -20.273], [119.104, -19.959], [119.574, -20.075], [119.742, -19.976], [120.196, -19.913], [121.053, -19.583], [121.491, -19.127], [121.652, -18.768], [121.904, -18.464], [122.368, -18.118], [122.249, -17.956], [122.147, -17.56], [122.173, -17.264], [122.579, -16.764], [122.779, -16.58], [123.116, -16.715], [123.391, -17.306], [123.625, -17.198], [123.83, -16.961], [123.621, -16.681], [123.738, -16.152], [123.967, -16.272], [124.431, -16.36], [124.585, -16.008], [124.409, -15.86], [124.477, -15.479], [124.624, -15.478], [124.716, -15.259], [125.06, -15.038], [125.385, -15.144], [125.155, -14.742], [125.358, -14.554], [126.042, -14.476], [126.207, -14.017], [126.455, -14.077], [126.576, -14.231], [126.983, -13.757], [127.113, -13.965], [127.348, -13.907], [127.671, -14.191], [127.888, -14.49], [128.184, -14.746], [128.078, -15.101], [128.456, -14.996], [128.553, -14.77], [129, -14.88]]]}, "properties": {"name": "Western Australia", "iso2": "AU-WA", "admin_level": 4, "osm_id": 2316598, "countrylevel_id": "iso2:AU-WA", "osm_data": {"localname": "Western Australia", "official_name": "", "alltags": {"name:af": "Wes-Australië", "name:ar": "أستراليا الغربية", "name:be": "Заходняя Аўстралія", "name:br": "Aostralia ar C'hornôg", "name:cs": "Západní Austrálie", "name:en": "Western Australia", "name:eo": "Okcidenta Aŭstralio", "name:es": "Australia Occidental", "name:et": "Lääne-Austraalia", "name:fi": "Länsi-Australia", "name:fr": "Australie occidentale", "name:he": "אוסטרליה המערבית", "name:hu": "Nyugat-Ausztrália", "name:it": "Australia Occidentale", "name:ja": "西オーストラリア", "name:kn": "ಪಶ್ಚಿಮ ಆಸ್ಟ್ರೇಲಿಯ", "name:la": "Australia Occidentalis", "name:lb": "Westaustralien", "name:lt": "Vakarų Australija", "name:mi": "Ahitereiria ki te Hauāuru", "name:mk": "Западна Австралија", "name:nl": "West-Australië", "name:pl": "Australia Zachodnia", "name:pt": "Austrália Ocidental", "name:ro": "Australia de Vest", "name:ru": "Западная Австралия", "name:sk": "Západná Austrália", "name:uk": "Західна Австралія", "name:vi": "Tây Úc", "name:vo": "Vesüda-Laustralän", "name:zh": "西澳大利亚州", "website": "http://wa.gov.au/", "state_code": "WA", "website:tourism": "http://westernaustralia.com/", "is_in:country_code": "AU", "def:highway=footway;access:bicycle": "yes"}}, "center_lat": -25.47, "center_lon": 122.18, "area_m2": 2536395732270, "timezone": "Australia/Perth", "population": 2474410, "wikidata_id": "Q3206", "wikipedia_id": "en:Western Australia"}}