{"type": "Feature", "geometry": {"type": "Polygon", "coordinates": [[[-0.762, 37.847], [-0.921, 37.944], [-1.084, 38.346], [-1.027, 38.656], [-0.929, 38.784], [-0.643, 38.728], [-0.311, 38.882], [-0.038, 38.887], [0.12, 38.845], [0.123, 38.847], [0.12, 38.845], [0.122, 38.844], [0.123, 38.844], [0.215, 38.762], [0.216, 38.762], [0.006, 38.63], [-0.481, 38.34], [-0.508, 38.33], [-0.509, 38.33], [-0.508, 38.329], [-0.541, 38.188], [-0.541, 38.189], [-0.72, 37.93], [-0.762, 37.852], [-0.762, 37.851], [-0.762, 37.847]]]}, "properties": {"name": "Alacant / Alicante", "iso2": "ES-A", "admin_level": 6, "osm_id": 349012, "countrylevel_id": "iso2:ES-A", "osm_data": {"localname": "Alacant / Alicante", "official_name": "Provincia de Alacant/Alicante", "alltags": {"name:ar": "أليكانتي", "name:be": "Алікантэ", "name:ca": "Alacant", "name:el": "Αλικάντε", "name:es": "Alicante", "name:eu": "Alacant", "name:fr": "Alicante", "name:hu": "Alicante", "name:nl": "Alicante", "name:ru": "Аликанте", "name:sr": "Аликанте", "border_type": "province", "ine:provincia": "03", "official_name": "Provincia de Alacant/Alicante", "official_name:ar": "منطقة أليكانتي", "official_name:be": "Правінцыя Алікантэ", "official_name:ca": "Província d'Alacant", "official_name:de": "Provinz Alicante", "official_name:en": "Province of Alicante", "official_name:es": "Provincia de Alicante", "official_name:fr": "Province d'Alicante"}}, "center_lat": 38.48, "center_lon": -0.57, "area_m2": 5827171040, "timezone": "Europe/Madrid", "wikidata_id": "Q54936", "wikipedia_id": "es:Provincia de Alicante"}}