{"type": "Feature", "geometry": {"type": "MultiPolygon", "coordinates": [[[[-4.512, 43.393], [-4.841, 43.181], [-5.102, 43.102], [-5.974, 43.064], [-6.451, 42.935], [-6.824, 42.915], [-6.919, 43.141], [-7.18, 43.398], [-7.101, 43.429], [-7.092, 43.453], [-7.079, 43.465], [-7.063, 43.474], [-7.059, 43.472], [-7.058, 43.472], [-7.057, 43.472], [-7.052, 43.472], [-7.046, 43.477], [-7.031, 43.543], [-6.869, 43.569], [-6.868, 43.569], [-6.867, 43.567], [-6.866, 43.567], [-6.864, 43.567], [-6.864, 43.568], [-6.863, 43.568], [-6.861, 43.568], [-6.86, 43.568], [-6.857, 43.569], [-6.856, 43.57], [-6.855, 43.57], [-6.854, 43.571], [-6.632, 43.567], [-6.632, 43.569], [-6.633, 43.57], [-6.632, 43.57], [-6.54, 43.553], [-6.54, 43.552], [-6.539, 43.55], [-6.54, 43.549], [-6.54, 43.548], [-6.539, 43.547], [-6.395, 43.559], [-6.355, 43.551], [-6.354, 43.551], [-6.297, 43.568], [-6.242, 43.592], [-6.148, 43.566], [-6.147, 43.566], [-6.077, 43.57], [-6.078, 43.565], [-6.076, 43.565], [-6.076, 43.564], [-6.066, 43.565], [-6.065, 43.565], [-6.064, 43.565], [-6.063, 43.566], [-5.985, 43.579], [-5.984, 43.579], [-5.941, 43.591], [-5.943, 43.592], [-5.945, 43.592], [-5.942, 43.592], [-5.941, 43.592], [-5.877, 43.628], [-5.877, 43.63], [-5.875, 43.63], [-5.866, 43.633], [-5.866, 43.634], [-5.865, 43.635], [-5.863, 43.635], [-5.858, 43.639], [-5.86, 43.644], [-5.855, 43.656], [-5.855, 43.657], [-5.853, 43.657], [-5.853, 43.658], [-5.852, 43.658], [-5.845, 43.657], [-5.844, 43.658], [-5.842, 43.659], [-5.843, 43.656], [-5.841, 43.656], [-5.841, 43.655], [-5.841, 43.654], [-5.837, 43.652], [-5.836, 43.652], [-5.836, 43.651], [-5.835, 43.65], [-5.836, 43.648], [-5.837, 43.647], [-5.836, 43.647], [-5.835, 43.645], [-5.831, 43.642], [-5.825, 43.64], [-5.823, 43.643], [-5.821, 43.644], [-5.82, 43.643], [-5.81, 43.638], [-5.811, 43.637], [-5.81, 43.637], [-5.81, 43.636], [-5.811, 43.635], [-5.811, 43.633], [-5.811, 43.63], [-5.809, 43.629], [-5.787, 43.62], [-5.787, 43.617], [-5.792, 43.615], [-5.791, 43.614], [-5.79, 43.613], [-5.761, 43.595], [-5.76, 43.595], [-5.76, 43.594], [-5.762, 43.592], [-5.758, 43.589], [-5.761, 43.588], [-5.759, 43.588], [-5.76, 43.588], [-5.76, 43.587], [-5.759, 43.585], [-5.756, 43.582], [-5.755, 43.582], [-5.756, 43.583], [-5.749, 43.585], [-5.748, 43.585], [-5.747, 43.584], [-5.712, 43.568], [-5.711, 43.569], [-5.703, 43.573], [-5.696, 43.581], [-5.694, 43.582], [-5.676, 43.587], [-5.69, 43.545], [-5.691, 43.544], [-5.687, 43.545], [-5.686, 43.544], [-5.677, 43.545], [-5.676, 43.545], [-5.662, 43.549], [-5.661, 43.549], [-5.66, 43.548], [-5.66, 43.547], [-5.615, 43.557], [-5.614, 43.556], [-5.614, 43.555], [-5.614, 43.554], [-5.43, 43.55], [-5.429, 43.551], [-5.388, 43.537], [-5.386, 43.535], [-5.013, 43.459], [-5.013, 43.46], [-4.782, 43.431], [-4.781, 43.431], [-4.69, 43.408], [-4.689, 43.408], [-4.575, 43.393], [-4.512, 43.393]]], [[[-5.836, 43.652], [-5.835, 43.653], [-5.834, 43.654], [-5.835, 43.652], [-5.836, 43.652]]]]}, "properties": {"name": "Asturias", "iso2": "ES-AS", "admin_level": 4, "osm_id": 349033, "countrylevel_id": "iso2:ES-AS", "osm_data": {"localname": "Asturias / Asturies", "official_name": "", "alltags": {"name:af": "Asturië", "name:am": "አስቱርያስ", "name:ar": "أستورياس", "name:az": "Asturiya", "name:be": "Астурыя", "name:bg": "Астурия", "name:bn": "আস্তুরিয়াস", "name:br": "Asturiez", "name:bs": "Asturija", "name:ca": "Astúries", "name:cs": "Asturie", "name:cy": "Asturias", "name:da": "Asturien", "name:el": "Αστούριες", "name:en": "Asturias", "name:eo": "Asturio", "name:es": "Asturias", "name:et": "Astuuria", "name:eu": "Asturias", "name:fa": "آستوریاس", "name:fi": "Asturia", "name:fr": "Asturies", "name:fy": "Astuerje", "name:ga": "Asturias", "name:gd": "Asturias", "name:gl": "Asturias", "name:gn": "Asturias", "name:he": "אסטוריאס", "name:hi": "आस्तुरियास", "name:hr": "Asturija", "name:ht": "Asturies", "name:hu": "Asztúria", "name:hy": "Աստուրիա", "name:ia": "Asturias", "name:id": "Asturias", "name:io": "Asturia", "name:is": "Astúría", "name:it": "Asturie", "name:ja": "アストゥリアス州", "name:jv": "Asturias", "name:ka": "ასტურია", "name:kk": "Астурия", "name:ko": "아스투리아스", "name:kw": "Asturya", "name:la": "Asturiae", "name:lb": "Asturien", "name:li": "Asturië", "name:lt": "Astūrija", "name:lv": "Astūrija", "name:mi": "Asturias", "name:mk": "Астурија", "name:mn": "Астур", "name:mr": "आस्तुरियास", "name:ms": "Asturias", "name:nl": "Asturië", "name:nn": "Asturias", "name:no": "Asturias", "name:oc": "Astúrias", "name:os": "Астури", "name:pl": "Asturia", "name:pt": "Astúrias", "name:ro": "Asturia", "name:ru": "Астурия", "name:sc": "Astùrias", "name:se": "Asturia", "name:sh": "Asturija", "name:sk": "Astúria", "name:sq": "Asturia", "name:sr": "Астурија", "name:sv": "Asturien", "name:ta": "ஆதூரியா", "name:th": "อัสตูเรียส", "name:tl": "Asturias", "name:tr": "Asturias", "name:uk": "Астурія", "name:ur": "آستوریاس", "name:uz": "Asturiya", "name:vi": "Asturias", "name:yi": "אסטוריאס", "name:zh": "阿斯圖里亞斯", "website": "https://www.asturias.es/", "ine:ccaa": "03", "name:ast": "Asturies", "name:azb": "آستوریاس", "name:ceb": "Asturias", "name:ckb": "ئاستۆریاس", "name:ext": "Asturias", "name:frp": "Asturies", "name:frr": "Astuurien", "name:hak": "Asturias", "name:kbd": "Астуриэ", "name:krc": "Астурия", "name:lad": "Asturias", "name:lfn": "Asturias", "name:lij": "Asturias", "name:lzh": "阿斯圖里亞斯", "name:mrj": "Астурвлӓ", "name:mwl": "Stúrias", "name:nan": "Asturias", "name:nov": "Asturias", "name:pam": "Asturias", "name:pms": "Asturie", "name:pnb": "استوریا", "name:scn": "Asturi", "name:sco": "Asturias", "name:vec": "Asturie", "name:war": "Asturias", "name:yue": "阿斯圖里亞斯", "border_type": "region", "official_name:ar": "منطقة أستورياس", "official_name:be": "Астурыйскае княства", "official_name:ca": "Principat d'Astúries", "official_name:de": "Fürstentum Asturien", "official_name:en": "Principality of Asturias", "official_name:es": "Principado de Asturias", "official_name:eu": "Asturiasko Printzerria", "official_name:fr": "Principauté des Asturies", "official_name:gd": "Prionnsachd Asturias", "official_name:gl": "Principado de Asturias", "official_name:hu": "Asztúriai Hercegség", "official_name:ia": "Principato de Asturias", "official_name:ja": "アストゥリアス州", "official_name:ko": "아스투리아스 지방", "official_name:mn": "Астур муж", "official_name:pl": "Księstwo Asturii", "official_name:pt": "Principado das Astúrias", "official_name:ru": "Астурийское княжество", "official_name:se": "Asturia eanangoddi", "official_name:sr": "Кнежевина Астурија", "official_name:th": "ราชรัฐอัสตูเรียส", "official_name:uk": "Князі́вство Асту́рія", "official_name:zh": "阿斯图里亚斯公国", "official_name:ast": "Principáu d'Asturies", "official_name:ext": "Prencipau d'Astúrias", "official_name:nan": "Asturias Thâu-lâng-kok", "official_name:war": "Principado de Asturias", "official_name:yue": "阿斯圖里亞斯公國"}}, "center_lat": 43.29, "center_lon": -5.99, "area_m2": 10593188242, "timezone": "Europe/Madrid", "population": 1028244, "wikidata_id": "Q3934", "wikipedia_id": "es:Asturias"}}