{"type": "Feature", "geometry": {"type": "Polygon", "coordinates": [[[-7.542, 39.664], [-7.016, 39.67], [-6.881, 40.042], [-6.951, 40.258], [-6.865, 40.27], [-6.587, 40.271], [-6.24, 40.486], [-5.921, 40.281], [-5.738, 40.294], [-5.335, 40.115], [-5.401, 39.886], [-5.138, 39.715], [-5.202, 39.592], [-4.953, 39.395], [-5.61, 39.099], [-6.309, 39.156], [-6.801, 39.239], [-6.802, 39.389], [-7.231, 39.278], [-7.294, 39.457], [-7.542, 39.664]]]}, "properties": {"name": "Cáceres", "iso2": "ES-CC", "admin_level": 6, "osm_id": 1863380, "countrylevel_id": "iso2:ES-CC", "osm_data": {"localname": "Cáceres", "official_name": "Provincia de Cáceres", "alltags": {"name:ar": "قصرش", "name:be": "Касерэс", "name:ca": "Càceres", "name:el": "Κάθερες", "name:es": "Cáceres", "name:eu": "Caceres", "name:fa": "کاسرس", "name:lb": "Cáceres", "name:pt": "Cáceres", "name:ur": "کاکیریس", "name:ast": "Cáceres", "alt_name:ar": "قشرش;كاثيريس;كاثيرس", "ine:provincia": "10", "official_name": "Provincia de Cáceres", "official_name:ar": "مقاطعة قصرش", "official_name:be": "Правінцыя Касерэс", "official_name:es": "Provincia de Cáceres", "official_name:pt": "Província de Cáceres"}}, "center_lat": 39.71, "center_lon": -6.16, "area_m2": 19889196813, "timezone": "Europe/Madrid", "wikidata_id": "Q81977", "wikipedia_id": "es:Provincia de Cáceres"}}