{"type": "Feature", "geometry": {"type": "Polygon", "coordinates": [[[-5.335, 40.115], [-5.174, 40.085], [-4.698, 40.282], [-4.579, 40.217], [-4.358, 40.31], [-3.608, 40.109], [-3.161, 40.065], [-3.068, 40.159], [-3.2, 40.514], [-3.463, 40.698], [-3.398, 41.007], [-3.54, 41.165], [-3.207, 41.304], [-2.875, 41.321], [-2.469, 41.078], [-2.052, 41.147], [-1.617, 40.944], [-1.536, 40.687], [-1.806, 40.398], [-1.449, 40.145], [-1.165, 40.01], [-1.142, 39.972], [-1.505, 39.418], [-1.162, 39.306], [-1.266, 39.075], [-0.929, 38.784], [-1.027, 38.656], [-1.184, 38.755], [-1.448, 38.65], [-1.479, 38.376], [-2.064, 38.298], [-2.342, 38.026], [-2.551, 38.084], [-2.445, 38.186], [-2.567, 38.49], [-2.762, 38.533], [-2.89, 38.456], [-3.326, 38.482], [-4.269, 38.347], [-4.869, 38.681], [-5.047, 38.729], [-4.688, 39.45], [-4.755, 39.416], [-4.941, 39.395], [-4.953, 39.395], [-5.202, 39.592], [-5.138, 39.715], [-5.401, 39.886], [-5.335, 40.115]]]}, "properties": {"name": "Castile-La Mancha", "iso2": "ES-CM", "admin_level": 4, "osm_id": 349052, "countrylevel_id": "iso2:ES-CM", "osm_data": {"localname": "Castilla-La Mancha", "official_name": "Castilla-La Mancha", "alltags": {"name:ar": "قشتالة-لا مانتشا", "name:be": "Кастылія-Ла-Манча", "name:ca": "Castella-la Manxa", "name:cs": "Kastilie-La Mancha", "name:el": "Καστίλλη-Λα Μάντσα", "name:en": "Castile-La Mancha", "name:es": "Castilla-La Mancha", "name:eu": "Gaztela-Mantxa", "name:fr": "Castille-La Manche", "name:hu": "Kasztília-La Mancha", "name:ja": "カスティーリャ＝ラ・マンチャ州", "name:nl": "Castilië-La Mancha", "name:pl": "Kastylia-La Mancha", "name:pt": "Castela-Mancha", "name:ru": "Кастилия-Ла-Манча", "name:sk": "Kastília-La Mancha", "ine:ccaa": "08", "name:ast": "Castiella-La Mancha", "name:ext": "Castilla-La Mancha", "border_type": "region", "official_name": "Castilla-La Mancha"}}, "center_lat": 39.58, "center_lon": -3.0, "area_m2": 79564462236, "timezone": "Europe/Madrid", "population": 2106331, "wikidata_id": "Q5748", "wikipedia_id": "es:Castilla-La Mancha"}}