{"type": "Feature", "geometry": {"type": "Polygon", "coordinates": [[[-7.077, 42.508], [-7.045, 42.695], [-6.824, 42.915], [-6.451, 42.935], [-5.974, 43.064], [-5.102, 43.102], [-4.841, 43.181], [-4.737, 43.021], [-4.442, 43.056], [-4.081, 42.761], [-4.046, 42.767], [-4, 42.769], [-3.945, 43.006], [-3.652, 43.181], [-3.418, 43.133], [-3.142, 43.161], [-3.089, 43.002], [-3.038, 42.982], [-3.226, 42.83], [-2.858, 42.638], [-3.129, 42.201], [-2.914, 42.023], [-2.58, 41.996], [-2.438, 42.137], [-1.856, 41.966], [-1.788, 41.734], [-2.17, 41.319], [-2.052, 41.147], [-2.469, 41.078], [-2.875, 41.321], [-3.207, 41.304], [-3.54, 41.165], [-4.16, 40.69], [-4.579, 40.217], [-4.698, 40.282], [-5.174, 40.085], [-5.335, 40.115], [-5.738, 40.294], [-5.921, 40.281], [-6.24, 40.486], [-6.587, 40.271], [-6.865, 40.27], [-6.781, 40.364], [-6.803, 40.846], [-6.931, 41.029], [-6.479, 41.294], [-6.189, 41.575], [-6.548, 41.686], [-6.599, 41.948], [-6.984, 41.972], [-6.784, 42.254], [-6.809, 42.469], [-7.077, 42.508]]]}, "properties": {"name": "Castile and León", "iso2": "ES-CL", "admin_level": 4, "osm_id": 349041, "countrylevel_id": "iso2:ES-CL", "osm_data": {"localname": "Castilla y León", "official_name": "Castilla y León", "alltags": {"name:ar": "قشتالة وليون", "name:be": "Кастылія і Леон", "name:ca": "Castella i Lleó", "name:cs": "Kastilie a León", "name:el": "Καστίλλη και Λεόν", "name:en": "Castile and León", "name:es": "Castilla y León", "name:eu": "Gaztela eta Leon", "name:fr": "Castille-et-León", "name:gl": "Castela e León", "name:hu": "Kasztília és León", "name:is": "Kastilía og León", "name:ja": "カスティーリャ・イ・レオン州", "name:lt": "Kastilija ir Leonas", "name:nl": "Castilië en León", "name:pl": "Kastylia i León", "name:pt": "Castela e Leão", "name:ru": "Кастилия и Леон", "name:sk": "Kastília-León", "website": "http://www.jcyl.es/", "ine:ccaa": "07", "name:ast": "Castiella y Lleón", "alt_name:cs": "Kastilie-León", "border_type": "region", "official_name": "Castilla y León", "official_name:ar": "منطقة قشتالة وليون"}}, "center_lat": 41.75, "center_lon": -4.78, "area_m2": 94295093338, "timezone": "Europe/Madrid", "population": 2418694, "wikidata_id": "Q5739", "wikipedia_id": "es:Castilla y León"}}