{"type": "Feature", "geometry": {"type": "Polygon", "coordinates": [[[-3.778, 36.738], [-3.827, 36.856], [-4.273, 37.015], [-4.328, 37.184], [-4.001, 37.402], [-3.507, 37.617], [-3.399, 37.564], [-2.902, 37.666], [-2.774, 37.926], [-2.551, 38.084], [-2.342, 38.026], [-2.208, 37.917], [-2.381, 37.523], [-2.851, 37.276], [-3.129, 36.751], [-3.578, 36.724], [-3.579, 36.724], [-3.764, 36.729], [-3.778, 36.738]]]}, "properties": {"name": "Granada", "iso2": "ES-GR", "admin_level": 6, "osm_id": 349026, "countrylevel_id": "iso2:ES-GR", "osm_data": {"localname": "Granada", "official_name": "", "alltags": {"name:ar": "غرناطة", "name:be": "Гранада", "name:ca": "Granada", "name:el": "Γρανάδα", "name:fr": "Grenade", "name:pt": "Granada", "name:ru": "Гранада", "ine:provincia": "18", "official_name:be": "Правінцыя Гранада", "official_name:es": "Provincia de Granada"}}, "center_lat": 37.31, "center_lon": -3.27, "area_m2": 12671062376, "timezone": "Europe/Madrid", "population": 914678, "wikidata_id": "Q82142", "wikipedia_id": "es:Provincia de Granada"}}