{"type": "Feature", "geometry": {"type": "Polygon", "coordinates": [[[-0.901, 42.743], [-0.723, 42.918], [-0.313, 42.849], [0.002, 42.686], [0.474, 42.7], [0.66, 42.691], [0.768, 42.61], [0.702, 42.122], [0.593, 41.884], [0.328, 41.681], [0.336, 41.407], [-0.07, 41.373], [-0.157, 41.535], [-0.504, 41.746], [-0.763, 42.067], [-0.759, 42.264], [-0.916, 42.537], [-0.901, 42.743]]]}, "properties": {"name": "Huesca", "iso2": "ES-HU", "admin_level": 6, "osm_id": 349022, "countrylevel_id": "iso2:ES-HU", "osm_data": {"localname": "Huesca", "official_name": "", "alltags": {"name:be": "Уэска", "name:ca": "Osca", "name:el": "Ουέσκα", "name:en": "Huesca", "name:es": "Huesca", "name:fr": "Huesca", "name:ru": "Уэска", "ine:provincia": "22", "official_name:be": "Правінцыя Уэска", "official_name:es": "Provincia de Huesca"}}, "center_lat": 42.2, "center_lon": -0.07, "area_m2": 15648321194, "timezone": "Europe/Madrid", "population": 219301, "wikidata_id": "Q55182", "wikipedia_id": "es:Provincia de Huesca"}}