{"type": "Feature", "geometry": {"type": "MultiPolygon", "coordinates": [[[[-0.724, 37.651], [-0.723, 37.651], [-0.722, 37.65], [-0.722, 37.648], [-0.723, 37.651], [-0.724, 37.651]]], [[[-1.63, 37.375], [-1.845, 37.455], [-2.208, 37.917], [-2.342, 38.026], [-2.064, 38.298], [-1.479, 38.376], [-1.448, 38.65], [-1.184, 38.755], [-1.027, 38.656], [-1.084, 38.346], [-0.921, 37.944], [-0.762, 37.847], [-0.802, 37.799], [-0.803, 37.798], [-0.803, 37.796], [-0.802, 37.795], [-0.803, 37.78], [-0.803, 37.779], [-0.836, 37.692], [-0.835, 37.69], [-0.835, 37.689], [-0.835, 37.688], [-0.805, 37.66], [-0.801, 37.657], [-0.724, 37.639], [-0.724, 37.64], [-0.71, 37.642], [-0.71, 37.618], [-0.711, 37.618], [-0.803, 37.587], [-0.988, 37.59], [-0.987, 37.584], [-0.988, 37.584], [-1.126, 37.553], [-1.173, 37.548], [-1.173, 37.562], [-1.265, 37.559], [-1.266, 37.559], [-1.467, 37.479], [-1.565, 37.404], [-1.577, 37.404], [-1.63, 37.375]]]]}, "properties": {"name": "Region of Murcia", "iso2": "ES-MC", "admin_level": 4, "osm_id": 349047, "countrylevel_id": "iso2:ES-MC", "osm_data": {"localname": "Región de Murcia", "official_name": "Comunidad autónoma de la Región de Murcia", "alltags": {"name:ar": "منطقة مرسية", "name:be": "Мурсійскі Рэгіён", "name:ca": "Regió de Múrcia", "name:cs": "Murcijský region", "name:en": "Region of Murcia", "name:es": "Región de Murcia", "name:eu": "Murtziako Eskualdea", "name:fr": "Région de Murcie", "name:ja": "ムルシア州", "name:nl": "Murcia", "name:pl": "Region Murcji", "name:pt": "Região de Múrcia", "name:sk": "Murcia", "website": "http://wwwp.carm.es/", "ine:ccaa": "14", "idee:name": "Región de Murcia", "short_name": "Murcia", "border_type": "region", "official_name": "Comunidad autónoma de la Región de Murcia", "short_name:ar": "مرسية", "short_name:be": "Мурсія", "short_name:ca": "Múrcia", "short_name:cs": "Murcie", "short_name:en": "Murcia", "short_name:es": "Murcia", "short_name:eu": "Murtzia", "short_name:fr": "Murcie", "short_name:lt": "Mursija", "short_name:pt": "Múrcia", "short_name:ru": "Мурсия", "short_name:sl": "Mursija", "short_name:sr": "Мурсија", "short_name:uk": "Мурсія", "official_name:be": "Аўтаномная супольнасць Мурсія", "official_name:ca": "Comunitat autònoma de la Regió de Murcia", "official_name:en": "Autonomous community of the Region of Murcia", "official_name:es": "Comunidad autónoma de la Región de Murcia", "official_name:fr": "Communauté autonome de la Région de Murcie"}}, "center_lat": 38.0, "center_lon": -1.49, "area_m2": 11333436809, "timezone": "Europe/Madrid", "population": 1478509, "wikidata_id": "Q5772", "wikipedia_id": "es:Región de Murcia"}}