{"type": "Feature", "geometry": {"type": "MultiPolygon", "coordinates": [[[[1.431, 38.743], [1.431, 38.744], [1.432, 38.745], [1.431, 38.745], [1.432, 38.746], [1.431, 38.746], [1.431, 38.747], [1.431, 38.748], [1.435, 38.761], [1.435, 38.762], [1.436, 38.761], [1.494, 38.69], [1.533, 38.676], [1.534, 38.676], [1.567, 38.692], [1.573, 38.651], [1.525, 38.653], [1.483, 38.679], [1.482, 38.68], [1.431, 38.743]]], [[[1.233, 38.945], [1.264, 38.967], [1.307, 38.974], [1.308, 38.975], [1.3, 38.978], [1.315, 39.044], [1.316, 39.044], [1.417, 39.078], [1.418, 39.079], [1.417, 39.079], [1.519, 39.116], [1.52, 39.116], [1.566, 39.094], [1.566, 39.095], [1.604, 39.047], [1.605, 39.046], [1.586, 39.01], [1.521, 38.944], [1.518, 38.946], [1.49, 38.928], [1.489, 38.928], [1.428, 38.904], [1.418, 38.897], [1.417, 38.896], [1.417, 38.897], [1.416, 38.897], [1.411, 38.892], [1.405, 38.881], [1.405, 38.87], [1.405, 38.869], [1.407, 38.869], [1.408, 38.868], [1.406, 38.866], [1.407, 38.865], [1.406, 38.861], [1.407, 38.859], [1.405, 38.857], [1.404, 38.857], [1.405, 38.857], [1.405, 38.855], [1.404, 38.853], [1.405, 38.853], [1.404, 38.851], [1.395, 38.839], [1.394, 38.84], [1.393, 38.84], [1.393, 38.841], [1.391, 38.841], [1.39, 38.842], [1.386, 38.842], [1.384, 38.842], [1.317, 38.867], [1.317, 38.868], [1.279, 38.878], [1.265, 38.875], [1.264, 38.874], [1.262, 38.873], [1.262, 38.872], [1.255, 38.864], [1.253, 38.863], [1.256, 38.862], [1.244, 38.863], [1.244, 38.865], [1.233, 38.945]]], [[[2.915, 39.145], [2.921, 39.152], [2.921, 39.153], [2.92, 39.153], [2.92, 39.154], [2.92, 39.155], [2.919, 39.155], [2.919, 39.156], [2.919, 39.157], [2.918, 39.157], [2.922, 39.159], [2.924, 39.154], [2.93, 39.145], [2.937, 39.145], [2.944, 39.15], [2.945, 39.15], [2.946, 39.15], [2.961, 39.149], [2.956, 39.146], [2.956, 39.145], [2.954, 39.127], [2.953, 39.127], [2.952, 39.127], [2.948, 39.126], [2.945, 39.126], [2.925, 39.131], [2.926, 39.132], [2.927, 39.132], [2.926, 39.132], [2.925, 39.132], [2.925, 39.136], [2.926, 39.139], [2.915, 39.145]]], [[[2.368, 39.613], [2.368, 39.614], [2.465, 39.655], [2.466, 39.656], [2.554, 39.7], [2.555, 39.7], [2.558, 39.702], [2.559, 39.703], [2.561, 39.703], [2.562, 39.703], [2.59, 39.721], [2.591, 39.722], [2.592, 39.723], [2.594, 39.724], [2.595, 39.725], [2.597, 39.726], [2.655, 39.769], [2.655, 39.77], [2.656, 39.77], [2.664, 39.781], [2.665, 39.78], [2.667, 39.788], [2.704, 39.809], [2.705, 39.809], [2.77, 39.841], [2.911, 39.896], [2.912, 39.897], [3.055, 39.922], [3.096, 39.928], [3.097, 39.928], [3.124, 39.933], [3.125, 39.933], [3.16, 39.956], [3.195, 39.955], [3.195, 39.942], [3.195, 39.941], [3.16, 39.926], [3.16, 39.927], [3.137, 39.928], [3.129, 39.919], [3.125, 39.916], [3.124, 39.916], [3.084, 39.875], [3.084, 39.874], [3.187, 39.866], [3.187, 39.864], [3.187, 39.863], [3.187, 39.862], [3.188, 39.862], [3.19, 39.862], [3.196, 39.859], [3.195, 39.857], [3.139, 39.838], [3.138, 39.839], [3.137, 39.839], [3.129, 39.789], [3.13, 39.788], [3.195, 39.75], [3.196, 39.749], [3.266, 39.734], [3.337, 39.785], [3.35, 39.788], [3.434, 39.745], [3.435, 39.744], [3.436, 39.744], [3.443, 39.744], [3.444, 39.744], [3.454, 39.744], [3.457, 39.743], [3.458, 39.744], [3.46, 39.741], [3.461, 39.741], [3.46, 39.738], [3.459, 39.737], [3.459, 39.738], [3.458, 39.737], [3.458, 39.736], [3.457, 39.733], [3.456, 39.732], [3.455, 39.732], [3.455, 39.731], [3.454, 39.731], [3.453, 39.73], [3.453, 39.729], [3.452, 39.727], [3.452, 39.726], [3.453, 39.726], [3.457, 39.728], [3.454, 39.726], [3.454, 39.725], [3.452, 39.725], [3.452, 39.724], [3.453, 39.723], [3.453, 39.722], [3.461, 39.721], [3.461, 39.72], [3.462, 39.721], [3.466, 39.72], [3.467, 39.72], [3.467, 39.721], [3.468, 39.721], [3.471, 39.721], [3.472, 39.721], [3.473, 39.721], [3.473, 39.72], [3.474, 39.72], [3.476, 39.719], [3.477, 39.715], [3.476, 39.715], [3.474, 39.709], [3.474, 39.71], [3.474, 39.711], [3.473, 39.711], [3.473, 39.712], [3.471, 39.712], [3.47, 39.713], [3.469, 39.711], [3.468, 39.711], [3.467, 39.711], [3.466, 39.711], [3.465, 39.71], [3.463, 39.709], [3.464, 39.71], [3.462, 39.71], [3.461, 39.71], [3.461, 39.708], [3.459, 39.707], [3.458, 39.706], [3.457, 39.706], [3.457, 39.705], [3.456, 39.705], [3.456, 39.704], [3.456, 39.703], [3.456, 39.702], [3.456, 39.701], [3.444, 39.657], [3.442, 39.657], [3.441, 39.656], [3.408, 39.637], [3.392, 39.613], [3.393, 39.613], [3.376, 39.57], [3.337, 39.537], [3.337, 39.533], [3.325, 39.526], [3.326, 39.526], [3.296, 39.5], [3.296, 39.499], [3.297, 39.499], [3.288, 39.483], [3.288, 39.482], [3.259, 39.416], [3.231, 39.369], [3.226, 39.37], [3.224, 39.37], [3.223, 39.373], [3.222, 39.373], [3.222, 39.371], [3.227, 39.369], [3.231, 39.367], [3.205, 39.352], [3.204, 39.351], [3.198, 39.352], [3.197, 39.352], [3.194, 39.352], [3.194, 39.351], [3.188, 39.352], [3.143, 39.326], [3.14, 39.324], [3.141, 39.324], [3.124, 39.316], [3.091, 39.289], [3.091, 39.288], [3.091, 39.287], [3.092, 39.287], [3.091, 39.287], [2.983, 39.346], [2.982, 39.346], [2.977, 39.351], [2.975, 39.352], [2.972, 39.354], [2.971, 39.354], [2.912, 39.353], [2.771, 39.383], [2.77, 39.384], [2.764, 39.387], [2.76, 39.389], [2.742, 39.451], [2.741, 39.451], [2.73, 39.464], [2.729, 39.464], [2.629, 39.566], [2.628, 39.563], [2.628, 39.562], [2.63, 39.562], [2.628, 39.562], [2.629, 39.561], [2.627, 39.56], [2.629, 39.56], [2.629, 39.559], [2.627, 39.56], [2.629, 39.559], [2.627, 39.559], [2.627, 39.558], [2.628, 39.558], [2.626, 39.557], [2.628, 39.557], [2.628, 39.554], [2.629, 39.554], [2.63, 39.553], [2.628, 39.553], [2.558, 39.53], [2.557, 39.53], [2.477, 39.482], [2.477, 39.483], [2.461, 39.504], [2.457, 39.504], [2.459, 39.507], [2.46, 39.508], [2.47, 39.51], [2.426, 39.526], [2.416, 39.539], [2.402, 39.526], [2.368, 39.613]]], [[[3.792, 40.018], [3.792, 40.019], [3.807, 40.031], [3.806, 40.031], [3.814, 40.039], [3.836, 40.049], [3.838, 40.05], [3.857, 40.054], [3.859, 40.054], [3.878, 40.053], [3.88, 40.053], [3.881, 40.054], [3.882, 40.056], [3.882, 40.055], [3.882, 40.054], [3.882, 40.053], [3.883, 40.054], [3.884, 40.054], [3.885, 40.055], [3.884, 40.056], [3.883, 40.057], [3.883, 40.058], [3.884, 40.058], [3.885, 40.058], [3.922, 40.046], [3.925, 40.057], [3.926, 40.057], [4.059, 40.059], [4.06, 40.059], [4.075, 40.066], [4.076, 40.068], [4.094, 40.071], [4.095, 40.07], [4.096, 40.069], [4.096, 40.068], [4.094, 40.063], [4.093, 40.062], [4.094, 40.061], [4.093, 40.061], [4.094, 40.061], [4.093, 40.06], [4.093, 40.059], [4.126, 40.063], [4.127, 40.063], [4.127, 40.026], [4.126, 40.026], [4.186, 40.024], [4.185, 40.024], [4.193, 40.032], [4.194, 40.032], [4.194, 40.027], [4.194, 40.026], [4.193, 40.024], [4.194, 40.024], [4.196, 40.011], [4.194, 40.01], [4.195, 40.01], [4.196, 40.01], [4.197, 40.011], [4.2, 40.003], [4.201, 40.002], [4.201, 39.998], [4.201, 39.997], [4.203, 39.996], [4.204, 39.996], [4.205, 39.995], [4.205, 39.993], [4.206, 39.994], [4.207, 39.994], [4.205, 39.998], [4.204, 39.999], [4.28, 39.949], [4.314, 39.879], [4.315, 39.879], [4.316, 39.879], [4.317, 39.879], [4.318, 39.879], [4.32, 39.879], [4.321, 39.879], [4.322, 39.879], [4.316, 39.871], [4.309, 39.879], [4.3, 39.84], [4.301, 39.839], [4.194, 39.834], [4.193, 39.834], [4.06, 39.905], [4.059, 39.906], [3.923, 39.932], [3.922, 39.932], [3.916, 39.932], [3.914, 39.932], [3.903, 39.926], [3.902, 39.926], [3.892, 39.927], [3.891, 39.927], [3.869, 39.924], [3.869, 39.923], [3.859, 39.921], [3.858, 39.922], [3.838, 39.926], [3.837, 39.926], [3.836, 39.925], [3.835, 39.925], [3.835, 39.926], [3.834, 39.925], [3.834, 39.929], [3.824, 39.922], [3.824, 39.939], [3.825, 39.939], [3.825, 39.942], [3.824, 39.942], [3.824, 39.943], [3.824, 39.944], [3.825, 39.945], [3.826, 39.948], [3.825, 39.95], [3.839, 39.978], [3.83, 39.984], [3.83, 39.985], [3.829, 39.991], [3.829, 39.992], [3.828, 39.992], [3.827, 39.993], [3.828, 39.993], [3.829, 39.993], [3.791, 40.015], [3.792, 40.018]]]]}, "properties": {"name": "Balearic Islands", "iso2": "ES-PM", "admin_level": 6, "osm_id": 6426656, "countrylevel_id": "iso2:ES-PM", "osm_data": {"localname": "Illes Balears", "official_name": "", "alltags": {"name:an": "Islas Balears", "name:ar": "جزر البليار", "name:be": "Балеарскія астравы", "name:bg": "Балеарски острови", "name:br": "Belearez", "name:bs": "Balearska ostrva", "name:ca": "Illes Balears", "name:co": "Baleare", "name:cs": "Baleáry", "name:cy": "Ynysoedd Balearig", "name:da": "Baleariske Øer", "name:el": "Βαλεαρίδες Νήσοι", "name:en": "Balearic Islands", "name:es": "Islas Baleares", "name:et": "Baleaarid", "name:eu": "Balear uharteak", "name:fa": "جزایر بالئارس", "name:fi": "Baleaarit", "name:fr": "Îles Baléares", "name:fy": "Balearen", "name:ga": "Na hOileáin Bhailéaracha", "name:gd": "Na h-Eileanan Balèarach", "name:gl": "Illas Baleares", "name:gv": "Ny h-Ellanyn Balearagh", "name:he": "האיים הבלאריים", "name:hr": "Balearski otoci", "name:hu": "Baleár-szigetek", "name:hy": "Բալեարյան կղզիներ", "name:id": "Kepulauan Balears", "name:is": "Baleareyjar", "name:it": "Isole Baleari", "name:ja": "バレアレス諸島", "name:ka": "ბალეარის კუნძულები", "name:kk": "Балеар аралдары", "name:ko": "발레아레스 제도", "name:kw": "Ynysow Balearek", "name:la": "Insulae Baliares", "name:lb": "Balearesch Inselen", "name:lt": "Balearų salos", "name:lv": "Baleāru Salas", "name:mk": "Балеарски Острови", "name:mr": "बालेआरिक द्वीपसमूह", "name:ms": "Kepulauan Balearic", "name:nl": "Balearen", "name:nn": "Balearane", "name:no": "Balearene", "name:oc": "Illas Balearas", "name:pl": "Baleary", "name:pt": "Ilhas Baleares", "name:ro": "Insulele Baleare", "name:ru": "Балеарские острова", "name:sk": "Baleáry", "name:sl": "Balearski otoki", "name:sv": "Balearerna", "name:th": "หมู่เกาะแบลีแอริก", "name:tr": "Balear Adaları", "name:uk": "Балеарські острови", "name:ur": "جزائر بلیبار", "name:vi": "Quần đảo Baleares", "name:zh": "巴利阿里群岛", "name:arc": "جزر البليار", "name:arz": "جزر البليار", "name:ast": "Islles Baleares", "name:ext": "Islas Balearis", "name:frp": "Iles Balèares", "name:lij": "Isoe Baleari", "name:pms": "Ìsole Balear", "name:scn": "Ìsuli Baliari", "name:vec": "Ixołe Bałeari", "alt_name:ar": "منطقة جزر البليار", "alt_name:cs": "Baleárské ostrovy", "alt_name:fr": "Baléares", "border_type": "province", "ine:provincia": "07", "official_name:ar": "جزر البليار", "official_name:ca": "Illes Balears", "official_name:es": "Illes Balears"}}, "center_lat": 39.57, "center_lon": 2.91, "area_m2": 4992050722, "timezone": "Europe/Madrid", "population": 1150839, "wikidata_id": "Q5765", "wikipedia_id": "ca:Illes Balears"}}