{"type": "Feature", "geometry": {"type": "Polygon", "coordinates": [[[-0.762, 37.847], [-0.921, 37.944], [-1.084, 38.346], [-1.027, 38.656], [-0.929, 38.784], [-1.266, 39.075], [-1.162, 39.306], [-1.505, 39.418], [-1.142, 39.972], [-0.798, 39.881], [-0.544, 40.252], [-0.28, 40.374], [-0.322, 40.603], [-0.165, 40.789], [0.17, 40.733], [0.515, 40.523], [0.493, 40.489], [0.492, 40.489], [0.415, 40.394], [0.411, 40.385], [0.409, 40.358], [0.408, 40.357], [0.383, 40.337], [0.382, 40.337], [0.369, 40.327], [0.367, 40.327], [0.364, 40.322], [0.308, 40.265], [0.307, 40.264], [0.304, 40.26], [0.122, 40.064], [-0.188, 39.722], [-0.209, 39.654], [-0.206, 39.652], [-0.219, 39.637], [-0.214, 39.635], [-0.241, 39.633], [-0.242, 39.632], [-0.248, 39.628], [-0.323, 39.495], [-0.323, 39.494], [-0.309, 39.345], [-0.223, 39.106], [-0.222, 39.106], [-0.063, 38.905], [-0.061, 38.904], [-0.053, 38.898], [-0.051, 38.896], [-0.038, 38.887], [0.12, 38.845], [0.123, 38.847], [0.12, 38.845], [0.122, 38.844], [0.123, 38.844], [0.215, 38.762], [0.216, 38.762], [0.006, 38.63], [-0.481, 38.34], [-0.508, 38.33], [-0.509, 38.33], [-0.508, 38.329], [-0.541, 38.188], [-0.541, 38.189], [-0.72, 37.93], [-0.762, 37.852], [-0.762, 37.851], [-0.762, 37.847]]]}, "properties": {"name": "Valencian Community", "iso2": "ES-VC", "admin_level": 4, "osm_id": 349043, "countrylevel_id": "iso2:ES-VC", "osm_data": {"localname": "Comunitat Valenciana", "official_name": "", "alltags": {"name:ar": "منطقة بلنسية", "name:be": "Валенсія", "name:ca": "Comunitat Valenciana", "name:cs": "Valencijské společenství", "name:en": "Valencian Community", "name:es": "Comunidad Valenciana", "name:fr": "Communauté Valencienne", "name:is": "Sjálfstjórnarhéraðið Valensía", "name:ja": "バレンシア州", "name:lt": "Valensijos regionas", "name:nl": "Valencia", "name:pl": "Wspólnota Walencka", "name:pt": "Comunidade Valenciana", "name:ru": "Валенсия", "name:sk": "Valencijské spoločenstvo", "ine:ccaa": "10", "old_name": "Regne de València", "alt_name:ca": "País Valencià", "border_type": "region", "short_name:cs": "Valencie", "official_name:ar": "منطقة بلنسية", "official_name:be": "Валенсійская супольнасць", "official_name:ca": "Comunitat Valenciana", "official_name:es": "Comunidad Valenciana"}}, "center_lat": 39.4, "center_lon": -0.55, "area_m2": 23294451455, "timezone": "Europe/Madrid", "population": 5003769, "wikidata_id": "Q5720", "wikipedia_id": "es:Comunidad Valenciana"}}