{"type": "Feature", "geometry": {"type": "Polygon", "coordinates": [[[4.242, 51.354], [4.218, 51.374], [4.277, 51.376], [4.335, 51.378], [4.341, 51.358], [4.385, 51.354], [4.432, 51.375], [4.392, 51.408], [4.397, 51.442], [4.443, 51.469], [4.538, 51.482], [4.53, 51.45], [4.535, 51.423], [4.575, 51.433], [4.67, 51.426], [4.667, 51.444], [4.753, 51.5], [4.774, 51.505], [4.817, 51.494], [4.84, 51.479], [4.823, 51.449], [4.83, 51.421], [4.787, 51.433], [4.789, 51.409], [4.883, 51.416], [4.929, 51.396], [5.005, 51.444], [5.022, 51.482], [5.079, 51.472], [5.105, 51.431], [5.071, 51.393], [5.132, 51.347], [5.134, 51.315], [5.163, 51.31], [5.2, 51.323], [5.242, 51.305], [5.226, 51.268], [5.238, 51.261], [5.216, 51.247], [5.217, 51.211], [5.261, 51.182], [5.262, 51.149], [5.222, 51.139], [5.182, 51.118], [5.13, 51.117], [5.095, 51.086], [5.011, 51.074], [4.982, 51.035], [4.911, 51.035], [4.843, 51.012], [4.811, 51.019], [4.789, 51.039], [4.758, 51.023], [4.709, 51.014], [4.685, 51.024], [4.606, 51.011], [4.601, 50.995], [4.552, 51.003], [4.529, 50.992], [4.492, 51.009], [4.475, 50.992], [4.449, 51.004], [4.403, 50.999], [4.283, 51.042], [4.241, 51.037], [4.207, 51.033], [4.187, 51.047], [4.19, 51.078], [4.173, 51.098], [4.21, 51.12], [4.243, 51.115], [4.323, 51.131], [4.33, 51.184], [4.3, 51.23], [4.3, 51.262], [4.32, 51.28], [4.283, 51.3], [4.268, 51.341], [4.242, 51.354]]]}, "properties": {"name": "Antwerp", "iso2": "BE-VAN", "admin_level": 6, "osm_id": 53114, "countrylevel_id": "iso2:BE-VAN", "osm_data": {"localname": "Antwerpen", "official_name": "Provincie Antwerpen", "alltags": {"name:ca": "Província d'Anvers", "name:en": "Antwerp", "name:es": "Amberes", "name:fr": "Anvers", "name:lt": "Antverpenas", "name:mk": "Антверпен", "name:nl": "Antwerpen", "name:pl": "Antwerpia", "name:ru": "Антверпен", "name:sk": "Antverpy", "ref:INS": "10000", "website": "http://www.provant.be/", "name:tzl": "Anviarça", "population": "1802719", "alt_name:mk": "Антверп", "border_type": "province", "wikipedia:fr": "Province d'Anvers", "official_name": "Provincie Antwerpen", "population:date": "2014-01-01", "official_name:nl": "Provincie Antwerpen"}}, "center_lat": 51.23, "center_lon": 4.72, "area_m2": 2871128000, "timezone": "Europe/Brussels", "population": 1847486, "wikidata_id": "Q1116", "wikipedia_id": "nl:Antwerpen (provincie)"}}