{"type": "Feature", "geometry": {"type": "Polygon", "coordinates": [[[33.1, 35.356], [33.103, 35.357], [33.106, 35.36], [33.107, 35.36], [33.284, 35.348], [33.284, 35.347], [33.319, 35.343], [33.32, 35.343], [33.32, 35.342], [33.649, 35.358], [33.554, 35.275], [32.936, 35.269], [32.936, 35.271], [33.1, 35.356]]]}, "properties": {"name": "Kyrenia/Girne", "iso2": "CY-06", "admin_level": 5, "osm_id": 3264494, "countrylevel_id": "iso2:CY-06", "osm_data": {"localname": "Girne", "official_name": "Girne kazası - Επαρχία Κερύνειας", "alltags": {"name:ar": "غرنة", "name:el": "Κερύνεια", "name:en": "Kyrenia/Girne", "name:fr": "Kyrenia", "name:ru": "Кирения", "name:tr": "Girne", "alt_name": "Girne", "int_name": "Kyrenia", "alt_name:tr": "Keryneia", "official_name": "Girne kazası - Επαρχία Κερύνειας", "official_name:el": "Επαρχία Κερύνειας", "official_name:en": "Kyrenia District", "official_name:fr": "District de Kyrenia", "official_name:tr": "Girne kazası"}}, "center_lat": 35.3, "center_lon": 33.24, "area_m2": 682723083, "timezone": "Asia/Famagusta", "population": 32586, "wikidata_id": "Q59146", "wikipedia_id": "en:Kyrenia District"}}