{"type": "Feature", "geometry": {"type": "MultiPolygon", "coordinates": [[[[28.513, 45.719], [28.511, 45.711], [28.504, 45.699], [28.498, 45.694], [28.491, 45.689], [28.484, 45.685], [28.482, 45.682], [28.481, 45.678], [28.482, 45.672], [28.486, 45.66], [28.477, 45.659], [28.446, 45.654], [28.437, 45.652], [28.441, 45.639], [28.438, 45.635], [28.438, 45.633], [28.444, 45.613], [28.439, 45.612], [28.437, 45.61], [28.436, 45.605], [28.436, 45.6], [28.433, 45.591], [28.431, 45.58], [28.431, 45.578], [28.438, 45.573], [28.435, 45.569], [28.436, 45.567], [28.441, 45.566], [28.441, 45.564], [28.45, 45.564], [28.454, 45.566], [28.463, 45.583], [28.519, 45.592], [28.539, 45.596], [28.544, 45.58], [28.518, 45.576], [28.491, 45.571], [28.504, 45.535], [28.515, 45.5], [28.443, 45.488], [28.433, 45.486], [28.42, 45.485], [28.42, 45.495], [28.419, 45.504], [28.42, 45.508], [28.421, 45.513], [28.412, 45.515], [28.4, 45.519], [28.392, 45.521], [28.389, 45.522], [28.365, 45.529], [28.349, 45.534], [28.33, 45.54], [28.308, 45.546], [28.305, 45.547], [28.296, 45.578], [28.294, 45.585], [28.291, 45.591], [28.292, 45.594], [28.297, 45.599], [28.299, 45.6], [28.329, 45.604], [28.325, 45.619], [28.305, 45.681], [28.318, 45.683], [28.316, 45.69], [28.311, 45.708], [28.303, 45.733], [28.307, 45.731], [28.303, 45.743], [28.302, 45.744], [28.312, 45.746], [28.325, 45.748], [28.328, 45.74], [28.338, 45.734], [28.342, 45.722], [28.347, 45.72], [28.353, 45.722], [28.374, 45.725], [28.383, 45.725], [28.383, 45.718], [28.384, 45.715], [28.393, 45.715], [28.405, 45.715], [28.405, 45.725], [28.412, 45.726], [28.418, 45.727], [28.42, 45.716], [28.431, 45.715], [28.454, 45.716], [28.467, 45.716], [28.497, 45.718], [28.513, 45.719]]], [[[28.407, 45.882], [28.409, 45.879], [28.412, 45.878], [28.414, 45.876], [28.419, 45.877], [28.413, 45.881], [28.41, 45.883], [28.435, 45.889], [28.465, 45.896], [28.48, 45.899], [28.484, 45.891], [28.491, 45.893], [28.496, 45.874], [28.477, 45.87], [28.477, 45.865], [28.454, 45.86], [28.449, 45.866], [28.438, 45.861], [28.44, 45.857], [28.429, 45.854], [28.426, 45.859], [28.422, 45.861], [28.42, 45.863], [28.412, 45.861], [28.394, 45.856], [28.386, 45.855], [28.381, 45.869], [28.395, 45.87], [28.393, 45.879], [28.407, 45.882]]], [[[28.515, 46.347], [28.527, 46.344], [28.537, 46.341], [28.547, 46.337], [28.569, 46.372], [28.574, 46.392], [28.56, 46.412], [28.547, 46.429], [28.525, 46.429], [28.523, 46.432], [28.524, 46.435], [28.527, 46.437], [28.527, 46.442], [28.531, 46.449], [28.533, 46.455], [28.533, 46.465], [28.544, 46.465], [28.55, 46.462], [28.551, 46.467], [28.567, 46.468], [28.591, 46.471], [28.593, 46.471], [28.602, 46.471], [28.604, 46.471], [28.635, 46.459], [28.652, 46.453], [28.664, 46.448], [28.666, 46.447], [28.676, 46.444], [28.703, 46.434], [28.734, 46.421], [28.755, 46.412], [28.789, 46.417], [28.802, 46.418], [28.823, 46.422], [28.825, 46.42], [28.832, 46.416], [28.839, 46.41], [28.844, 46.404], [28.848, 46.399], [28.852, 46.392], [28.854, 46.387], [28.86, 46.376], [28.86, 46.374], [28.862, 46.371], [28.866, 46.362], [28.868, 46.357], [28.872, 46.339], [28.858, 46.337], [28.829, 46.332], [28.776, 46.323], [28.764, 46.321], [28.762, 46.321], [28.75, 46.319], [28.748, 46.318], [28.736, 46.317], [28.728, 46.315], [28.736, 46.307], [28.736, 46.302], [28.736, 46.299], [28.736, 46.292], [28.734, 46.279], [28.733, 46.27], [28.788, 46.278], [28.79, 46.278], [28.794, 46.279], [28.829, 46.285], [28.859, 46.29], [28.873, 46.292], [28.889, 46.294], [28.898, 46.295], [28.907, 46.287], [28.916, 46.281], [28.92, 46.277], [28.929, 46.272], [28.948, 46.261], [28.952, 46.259], [28.959, 46.256], [29.002, 46.232], [28.993, 46.224], [28.957, 46.193], [28.922, 46.161], [28.916, 46.152], [28.946, 46.102], [28.868, 46.089], [28.881, 46.052], [28.885, 46.037], [28.901, 45.99], [28.844, 45.982], [28.81, 45.976], [28.803, 45.975], [28.792, 46.01], [28.775, 46.059], [28.704, 46.048], [28.716, 46.013], [28.733, 45.964], [28.682, 45.956], [28.674, 45.954], [28.607, 45.943], [28.601, 45.946], [28.601, 45.955], [28.599, 45.96], [28.595, 45.963], [28.571, 45.963], [28.57, 45.96], [28.571, 45.955], [28.532, 45.952], [28.52, 45.968], [28.518, 45.971], [28.572, 45.971], [28.573, 45.977], [28.565, 45.978], [28.557, 45.979], [28.557, 45.984], [28.562, 45.984], [28.56, 45.996], [28.57, 45.997], [28.569, 46.004], [28.568, 46.005], [28.547, 46.001], [28.532, 46.002], [28.531, 46.003], [28.516, 46.001], [28.515, 46.005], [28.512, 46.011], [28.499, 46.033], [28.513, 46.035], [28.516, 46.029], [28.535, 46.032], [28.533, 46.04], [28.547, 46.044], [28.56, 46.047], [28.564, 46.051], [28.552, 46.06], [28.551, 46.07], [28.552, 46.078], [28.526, 46.074], [28.512, 46.073], [28.494, 46.084], [28.495, 46.085], [28.485, 46.091], [28.51, 46.096], [28.5, 46.102], [28.503, 46.105], [28.505, 46.109], [28.506, 46.114], [28.504, 46.128], [28.503, 46.133], [28.493, 46.15], [28.481, 46.168], [28.474, 46.179], [28.484, 46.187], [28.485, 46.188], [28.49, 46.191], [28.495, 46.193], [28.502, 46.194], [28.515, 46.195], [28.54, 46.198], [28.555, 46.198], [28.551, 46.222], [28.55, 46.231], [28.55, 46.239], [28.55, 46.248], [28.553, 46.268], [28.556, 46.288], [28.556, 46.291], [28.551, 46.291], [28.543, 46.29], [28.519, 46.293], [28.509, 46.293], [28.509, 46.3], [28.507, 46.306], [28.507, 46.307], [28.506, 46.311], [28.507, 46.313], [28.505, 46.318], [28.506, 46.319], [28.509, 46.326], [28.513, 46.333], [28.513, 46.338], [28.514, 46.339], [28.515, 46.347]], [[28.569, 46.01], [28.572, 46.003], [28.575, 46.004], [28.573, 46.011], [28.569, 46.01]]], [[[28.769, 45.885], [28.786, 45.833], [28.697, 45.818], [28.605, 45.803], [28.604, 45.805], [28.576, 45.804], [28.575, 45.812], [28.576, 45.824], [28.569, 45.824], [28.567, 45.823], [28.567, 45.821], [28.544, 45.818], [28.539, 45.834], [28.535, 45.843], [28.534, 45.849], [28.561, 45.854], [28.577, 45.857], [28.577, 45.845], [28.578, 45.834], [28.582, 45.835], [28.582, 45.845], [28.585, 45.849], [28.593, 45.847], [28.593, 45.854], [28.596, 45.857], [28.651, 45.866], [28.692, 45.872], [28.769, 45.885]]]]}, "properties": {"name": "Gagauzia", "iso2": "MD-GA", "admin_level": 4, "osm_id": 1699032, "countrylevel_id": "iso2:MD-GA", "osm_data": {"localname": "Găgăuzia / Gagauziya / Гагаузия", "official_name": "UTA Găgăuzia", "alltags": {"name:af": "Gagausië", "name:ar": "غاغاوزيا", "name:az": "Qaqauziya", "name:be": "Гагаузія", "name:bg": "Гагаузия", "name:ca": "Gagaúsia", "name:ce": "Гагаузи", "name:cs": "Gagauzsko", "name:cv": "Гагаузи", "name:el": "Γκαγκαουζία", "name:en": "Gagauzia", "name:eo": "Gagaŭzio", "name:es": "Gagauzia", "name:et": "Gagauusia", "name:fa": "گاگائوزیا", "name:fi": "Gagauzia", "name:fr": "Gagaouzie", "name:he": "גגאוזיה", "name:id": "Gagauzia", "name:is": "Gagásía", "name:it": "Gagauzia", "name:ja": "ガガウズ自治区", "name:ka": "გაგაუზია", "name:kk": "Гәгәузия", "name:ko": "가가우지아", "name:lt": "Gagaūzija", "name:md": "Гэгэузия", "name:mn": "Гагауз нутаг", "name:mo": "Găgăuzia", "name:nl": "Gagaoezië", "name:os": "Гагаузи", "name:pl": "Gagauzja", "name:pt": "Gagaúzia", "name:ro": "Găgăuzia", "name:ru": "Гагаузия", "name:sh": "Gagauzija", "name:sr": "Гагаузија", "name:sv": "Gagauzien", "name:tr": "Gagavuzya", "name:uk": "Гагаузія", "name:zh": "加告茲", "name:azb": "قاقاووزیا", "name:gag": "Gagauz Yeri", "name:hsb": "Gagauska", "name:xmf": "გაგაუზია", "alt_name:gag": "Gagauz Yeri", "official_name": "UTA Găgăuzia", "is_in:continent": "Europe", "is_in:country_code": "MD"}}, "center_lat": 46.08, "center_lon": 28.65, "area_m2": 1846054786, "timezone": "Europe/Chisinau", "population": 134535, "wikidata_id": "Q164819", "wikipedia_id": "en:Gagauzia"}}