{"type": "Feature", "geometry": {"type": "Polygon", "coordinates": [[[117.383, 40.227], [117.372, 40.209], [117.385, 40.177], [117.354, 40.156], [117.338, 40.133], [117.305, 40.138], [117.289, 40.118], [117.233, 40.111], [117.203, 40.081], [117.194, 40.068], [117.159, 40.075], [117.133, 40.063], [117.079, 40.074], [117.008, 40.029], [116.966, 40.036], [116.954, 40.05], [116.875, 40.045], [116.852, 40.051], [116.817, 40.045], [116.814, 40.027], [116.775, 40.034], [116.764, 40.011], [116.769, 39.992], [116.752, 39.966], [116.777, 39.946], [116.779, 39.89], [116.821, 39.877], [116.866, 39.841], [116.897, 39.847], [116.92, 39.834], [116.934, 39.78], [116.896, 39.754], [116.906, 39.73], [116.877, 39.718], [116.9, 39.687], [116.901, 39.677], [116.844, 39.666], [116.846, 39.651], [116.821, 39.637], [116.806, 39.615], [116.768, 39.604], [116.719, 39.623], [116.688, 39.6], [116.615, 39.601], [116.611, 39.613], [116.573, 39.623], [116.561, 39.603], [116.519, 39.596], [116.503, 39.55], [116.467, 39.552], [116.458, 39.526], [116.438, 39.508], [116.413, 39.505], [116.406, 39.481], [116.438, 39.481], [116.447, 39.457], [116.431, 39.445], [116.332, 39.454], [116.3, 39.488], [116.273, 39.49], [116.24, 39.514], [116.234, 39.563], [116.215, 39.578], [116.179, 39.59], [116.132, 39.568], [116.093, 39.574], [116.033, 39.571], [115.971, 39.59], [115.962, 39.563], [115.944, 39.565], [115.918, 39.596], [115.902, 39.566], [115.877, 39.547], [115.822, 39.54], [115.815, 39.509], [115.746, 39.514], [115.731, 39.544], [115.693, 39.576], [115.679, 39.602], [115.612, 39.602], [115.566, 39.59], [115.54, 39.618], [115.507, 39.61], [115.516, 39.639], [115.501, 39.651], [115.472, 39.649], [115.494, 39.689], [115.48, 39.74], [115.433, 39.751], [115.425, 39.774], [115.478, 39.797], [115.508, 39.788], [115.545, 39.793], [115.562, 39.815], [115.509, 39.836], [115.521, 39.874], [115.517, 39.898], [115.474, 39.934], [115.417, 39.954], [115.423, 39.983], [115.448, 40.023], [115.477, 40.038], [115.551, 40.094], [115.585, 40.096], [115.6, 40.119], [115.709, 40.133], [115.729, 40.128], [115.743, 40.152], [115.777, 40.176], [115.801, 40.151], [115.828, 40.144], [115.838, 40.167], [115.866, 40.186], [115.886, 40.227], [115.924, 40.254], [115.958, 40.256], [115.916, 40.324], [115.912, 40.353], [115.857, 40.36], [115.774, 40.441], [115.764, 40.467], [115.776, 40.489], [115.73, 40.503], [115.746, 40.528], [115.783, 40.56], [115.815, 40.558], [115.822, 40.586], [115.882, 40.595], [115.902, 40.616], [115.957, 40.607], [115.977, 40.578], [116.022, 40.598], [116.067, 40.61], [116.129, 40.666], [116.158, 40.661], [116.172, 40.707], [116.228, 40.758], [116.229, 40.781], [116.258, 40.781], [116.268, 40.761], [116.29, 40.756], [116.312, 40.771], [116.348, 40.769], [116.408, 40.777], [116.42, 40.766], [116.459, 40.771], [116.451, 40.798], [116.431, 40.819], [116.4, 40.832], [116.393, 40.849], [116.328, 40.904], [116.333, 40.928], [116.371, 40.938], [116.393, 40.905], [116.407, 40.898], [116.471, 40.901], [116.468, 40.918], [116.442, 40.953], [116.449, 40.98], [116.511, 40.974], [116.53, 40.987], [116.561, 40.992], [116.581, 40.976], [116.609, 40.982], [116.617, 41.019], [116.607, 41.035], [116.625, 41.059], [116.683, 41.044], [116.693, 41.019], [116.677, 40.999], [116.671, 40.97], [116.7, 40.933], [116.708, 40.91], [116.753, 40.889], [116.796, 40.85], [116.85, 40.834], [116.87, 40.82], [116.898, 40.776], [116.919, 40.772], [116.92, 40.744], [116.96, 40.714], [117.025, 40.691], [117.104, 40.706], [117.111, 40.699], [117.201, 40.693], [117.235, 40.675], [117.255, 40.679], [117.28, 40.659], [117.309, 40.656], [117.381, 40.683], [117.414, 40.685], [117.436, 40.675], [117.478, 40.676], [117.508, 40.659], [117.495, 40.635], [117.418, 40.621], [117.415, 40.592], [117.398, 40.572], [117.371, 40.562], [117.34, 40.58], [117.308, 40.577], [117.243, 40.547], [117.255, 40.517], [117.213, 40.513], [117.21, 40.494], [117.23, 40.455], [117.255, 40.441], [117.228, 40.416], [117.22, 40.383], [117.248, 40.357], [117.268, 40.308], [117.289, 40.277], [117.327, 40.284], [117.333, 40.245], [117.346, 40.228], [117.383, 40.227]]]}, "properties": {"name": "Beijing", "iso2": "CN-BJ", "admin_level": 4, "osm_id": 912940, "countrylevel_id": "iso2:CN-BJ", "osm_data": {"localname": "北京市", "official_name": "", "alltags": {"name:af": "Beijing", "name:am": "ቤዪጂንግ", "name:an": "Pequín", "name:ar": "بكين", "name:as": "বেইজিং", "name:ay": "Pekin", "name:az": "Pekin", "name:ba": "Пекин", "name:be": "Пекін", "name:bg": "Пекин", "name:bh": "बीजिंग", "name:bi": "Beijing", "name:bm": "Beijing", "name:bn": "বেইজিং", "name:bo": "པེ་ཅིང་གྲོང་ཁྱེར།", "name:br": "Beijing", "name:bs": "Peking", "name:ca": "Pequín", "name:ce": "Пекин", "name:ch": "Beijing", "name:cs": "Peking", "name:cv": "Пекин", "name:cy": "Beijing", "name:da": "Beijing", "name:dv": "ބީޖިންގ", "name:ee": "Beijing", "name:el": "Πεκίνο", "name:en": "Beijing", "name:eo": "Pekino", "name:es": "Pekín", "name:et": "Peking", "name:eu": "Pekin", "name:fa": "پکن", "name:fi": "Peking", "name:fj": "Beijig", "name:fo": "Beijing", "name:fr": "Pékin", "name:fy": "Peking", "name:ga": "Béising", "name:gd": "Beijing", "name:gl": "Pequín", "name:gn": "Pekĩ", "name:gu": "પેઇચિંગ", "name:gv": "Beijing", "name:ha": "Beijing", "name:he": "בייג'ינג", "name:hi": "बीजिंग", "name:hr": "Peking", "name:ht": "Peken", "name:hu": "Peking", "name:hy": "Պեկին", "name:ia": "Beijing", "name:id": "Beijing", "name:ie": "Beijing", "name:io": "Beijing", "name:is": "Beijing", "name:it": "Pechino", "name:ja": "北京市", "name:jv": "Beijing", "name:ka": "პეკინი", "name:kg": "Beijing (kizunga)", "name:ki": "Beijing", "name:kk": "Бейжің", "name:kl": "Beijing", "name:km": "ប៉េកាំង", "name:kn": "ಬೀಜಿಂಗ್", "name:ko": "베이징시", "name:ku": "Beijing", "name:kv": "Пекин", "name:kw": "Beijing", "name:ky": "Пекин", "name:la": "Pechinum", "name:lb": "Peking", "name:li": "Peking", "name:ln": "Beijíng", "name:lo": "ປັກກິ່ງ", "name:lt": "Pekinas", "name:lv": "Pekina", "name:mg": "Beijing", "name:mi": "Beijing", "name:mk": "Пекинг", "name:ml": "ബെയ്‌ജിങ്ങ്‌", "name:mn": "Бээжин", "name:mr": "पेकिंग", "name:ms": "Beijing", "name:my": "ပေကျင်းမြို့", "name:na": "Beijing", "name:ne": "बेइजिङ", "name:nl": "Peking", "name:nn": "Beijing", "name:no": "Beijing", "name:ny": "Beijing", "name:oc": "Pequin", "name:om": "Beejiingi", "name:or": "ବେଜିଂ", "name:os": "Пекин", "name:pa": "ਬੀਜਿੰਗ", "name:pl": "Pekin", "name:ps": "بیجنګ", "name:pt": "Pequim", "name:qu": "Pikkin", "name:ro": "Beijing", "name:ru": "Пекин", "name:sa": "बीजिङ्ग्", "name:sc": "Beijing", "name:se": "Peking", "name:si": "බෙයිජිං", "name:sk": "Peking", "name:sl": "Peking", "name:sn": "Beijing", "name:so": "Beijing", "name:sq": "Pekini", "name:sr": "Пекинг", "name:su": "Béijing", "name:sv": "Peking", "name:sw": "Beijing", "name:ta": "பெய்ஜிங்", "name:te": "బీజింగ్", "name:tg": "Пекин", "name:th": "ปักกิ่ง", "name:tk": "Pekin", "name:tl": "Beijing", "name:tn": "Beijing", "name:to": "Beijing", "name:tr": "Pekin", "name:ts": "Beyijingi", "name:tt": "Ханбалык", "name:tw": "Beijing", "name:ug": "بېيجىڭ شەھىرى", "name:uk": "Пекін", "name:ur": "بیجنگ", "name:uz": "Pekin", "name:vi": "Bắc Kinh", "name:vo": "Beycing", "name:wa": "Pekin", "name:wo": "Beijing", "name:yi": "בייזשינג", "name:yo": "Beijing", "name:za": "Baekging Si", "name:zh": "北京市", "name:zu": "Beijing", "alt_name": "北京", "int_name": "Beijing", "name:jbo": "beidjin", "name:lzh": "北京市", "name:nan": "Pak-kiaⁿ-chhī", "name:yue": "北京市", "old_name": "北平", "alt_name:cs": "Pej-ťing", "old_name:ja": "北平", "old_name:vi": "Bắc Bình", "old_name:zh": "北平", "name:zh-Hans": "北京市", "name:zh-Hant": "北京市", "name:zh_pinyin": "Běijīng Shì", "is_in:country_code": "CN"}}, "center_lat": 40.19, "center_lon": 116.41, "area_m2": 16428024438, "timezone": "Asia/Shanghai", "population": 21710000, "wikidata_id": "Q956", "wikipedia_id": "zh:北京市"}}