{"type": "Feature", "geometry": {"type": "MultiPolygon", "coordinates": [[[[121.999, 31.154], [121.962, 31.162], [121.936, 31.198], [121.972, 31.209], [121.983, 31.216], [121.991, 31.223], [122.031, 31.215], [122.024, 31.185], [121.999, 31.154]]], [[[121.983, 31.216], [121.942, 31.2], [121.935, 31.213], [121.952, 31.235], [121.991, 31.224], [121.983, 31.216]]], [[[121.878, 31.231], [121.906, 31.245], [121.922, 31.211], [121.898, 31.205], [121.878, 31.231]]], [[[121.999, 31.291], [121.932, 31.292], [121.917, 31.297], [121.848, 31.295], [121.81, 31.32], [121.799, 31.364], [121.818, 31.381], [121.944, 31.336], [122.023, 31.322], [122.104, 31.321], [122.113, 31.308], [122.09, 31.265], [121.999, 31.291]]], [[[121.266, 31.677], [121.259, 31.683], [121.248, 31.699], [121.238, 31.717], [121.245, 31.719], [121.262, 31.713], [121.311, 31.659], [121.291, 31.654], [121.266, 31.677]]], [[[121.783, 31.368], [121.79, 31.312], [121.762, 31.32], [121.725, 31.36], [121.653, 31.398], [121.604, 31.428], [121.565, 31.445], [121.516, 31.494], [121.6, 31.487], [121.676, 31.453], [121.719, 31.426], [121.718, 31.411], [121.765, 31.389], [121.783, 31.368]]], [[[121.267, 30.691], [121.264, 30.737], [121.228, 30.758], [121.213, 30.788], [121.173, 30.776], [121.123, 30.781], [121.126, 30.818], [121.119, 30.85], [121.093, 30.859], [121.038, 30.828], [121.007, 30.837], [121.014, 30.885], [120.989, 30.892], [120.996, 30.937], [120.988, 30.971], [120.997, 30.976], [120.978, 31.019], [120.897, 31.02], [120.891, 31.06], [120.897, 31.086], [120.851, 31.109], [120.876, 31.137], [120.925, 31.144], [120.979, 31.134], [121.014, 31.136], [121.072, 31.167], [121.058, 31.226], [121.058, 31.27], [121.099, 31.276], [121.112, 31.288], [121.139, 31.277], [121.146, 31.302], [121.126, 31.305], [121.126, 31.346], [121.104, 31.353], [121.109, 31.376], [121.143, 31.387], [121.143, 31.446], [121.169, 31.451], [121.203, 31.478], [121.243, 31.479], [121.296, 31.504], [121.332, 31.511], [121.404, 31.475], [121.51, 31.397], [121.536, 31.384], [121.585, 31.371], [121.679, 31.319], [121.719, 31.287], [121.751, 31.253], [121.774, 31.215], [121.811, 31.178], [121.882, 31.129], [121.96, 31.061], [121.961, 31.042], [121.936, 31.014], [121.946, 30.996], [121.985, 30.993], [121.989, 30.969], [122.007, 30.946], [122.013, 30.921], [121.974, 30.921], [121.965, 30.878], [121.888, 30.848], [121.835, 30.845], [121.784, 30.849], [121.66, 30.846], [121.615, 30.837], [121.592, 30.827], [121.51, 30.805], [121.428, 30.77], [121.368, 30.73], [121.331, 30.698], [121.267, 30.691]]], [[[121.389, 31.824], [121.426, 31.772], [121.447, 31.763], [121.495, 31.755], [121.536, 31.738], [121.561, 31.72], [121.644, 31.694], [121.72, 31.667], [121.734, 31.641], [121.77, 31.639], [121.816, 31.637], [121.878, 31.622], [121.908, 31.609], [122.004, 31.526], [122.017, 31.483], [122.001, 31.472], [121.883, 31.442], [121.829, 31.437], [121.707, 31.501], [121.637, 31.52], [121.599, 31.525], [121.539, 31.552], [121.517, 31.567], [121.403, 31.616], [121.386, 31.619], [121.312, 31.668], [121.263, 31.717], [121.251, 31.719], [121.243, 31.719], [121.236, 31.716], [121.208, 31.735], [121.161, 31.788], [121.168, 31.814], [121.207, 31.84], [121.248, 31.851], [121.287, 31.879], [121.329, 31.871], [121.329, 31.857], [121.389, 31.824]]]]}, "properties": {"name": "Shanghai", "iso2": "CN-SH", "admin_level": 4, "osm_id": 913067, "countrylevel_id": "iso2:CN-SH", "osm_data": {"localname": "上海市", "official_name": "", "alltags": {"name:af": "Sjanghai", "name:am": "ሻንግሃይ", "name:an": "Xangai", "name:ar": "شانغهاي", "name:as": "ছাংহাই", "name:ay": "Shanghai", "name:az": "Şanxay", "name:ba": "Шанхай", "name:be": "Шанхай", "name:bg": "Шанхай", "name:bi": "Shanghai", "name:bm": "Shanghai", "name:bn": "সাংহাই", "name:bo": "ཧྲང་ཧའེ་གྲོང་ཁྱེར།", "name:br": "Shanghai", "name:bs": "Šangaj", "name:ca": "Xangai", "name:ce": "Шанхай", "name:cs": "Šanghaj", "name:cv": "Шанхай", "name:cy": "Shanghai", "name:da": "Shanghai", "name:el": "Σαγκάη", "name:en": "Shanghai", "name:eo": "Ŝanhajo", "name:es": "Shanghái", "name:et": "Shanghai", "name:eu": "Shanghai", "name:fa": "شانگهای", "name:fi": "Shanghai", "name:fj": "Shaghai", "name:fo": "Shanghai", "name:fr": "Shanghai", "name:fy": "Shanghai", "name:ga": "Shang-hai", "name:gd": "Shanghai", "name:gl": "Shanghai", "name:gn": "Changái", "name:gv": "Shanghai", "name:ha": "Shanghai", "name:he": "שאנגחאי", "name:hi": "शंघाई", "name:hr": "Šangaj", "name:ht": "Shanghai", "name:hu": "Sanghaj", "name:hy": "Շանհայ", "name:ia": "Shanghai", "name:id": "Shanghai", "name:ie": "Shanghai", "name:io": "Shanghai", "name:is": "Sjanghæ", "name:it": "Shanghai", "name:ja": "上海市", "name:jv": "Shanghai", "name:ka": "შანხაი", "name:kg": "Shanghai", "name:ki": "Shanghai", "name:kk": "Шанхай", "name:kl": "Shanghai", "name:kn": "ಶಾಂಘೈ", "name:ko": "상하이", "name:ku": "Şanghay", "name:kv": "Шанхай", "name:kw": "Shanghai", "name:ky": "Шанхай", "name:la": "Sciamhaevum", "name:lb": "Shanghai", "name:li": "Sjanghai", "name:ln": "Shanghai", "name:lo": "ຊຽງໄຮ້", "name:lt": "Šanchajus", "name:lv": "Šanhaja", "name:mg": "Shanghai", "name:mi": "Hangahai", "name:mk": "Шангај", "name:ml": "ഷാങ്ഹായ്", "name:mn": "Шанхай", "name:mr": "शांघाय", "name:ms": "Shanghai", "name:my": "ရှန်ဟိုင်းမြို့", "name:ne": "शाङ्घाई", "name:nl": "Shanghai", "name:nn": "Shanghai", "name:no": "Shanghai", "name:ny": "Shanghai", "name:oc": "Shanghai", "name:om": "Shaangaayi", "name:os": "Шанхай", "name:pa": "ਸ਼ੰਘਾਈ", "name:pl": "Szanghaj", "name:ps": "شانگهای", "name:pt": "Xangai", "name:qu": "Shanghai", "name:rm": "Schanghai", "name:ro": "Shanghai", "name:ru": "Шанхай", "name:si": "ෂැංහයි", "name:sk": "Šanghaj", "name:sl": "Šanghaj", "name:sq": "Shangai", "name:sr": "Шангај", "name:su": "Shanghai", "name:sv": "Shanghai", "name:sw": "Shanghai", "name:ta": "சாங்காய்", "name:te": "షాంఘై", "name:tg": "Шанхай", "name:th": "เซี่ยงไฮ้", "name:tk": "Şanhaý", "name:tl": "Shanghai", "name:tn": "Shanghai", "name:tr": "Şanghay", "name:tt": "Şanxay", "name:tw": "Shangai", "name:ug": "شاڭخەي شەھىرى", "name:uk": "Шанхай", "name:ur": "شنگھائی", "name:uz": "Shanxay", "name:vi": "Thượng Hải", "name:vo": "Shanghai", "name:wo": "Shanghai", "name:yi": "שאנכיי", "name:za": "Sanghaij", "name:zh": "上海市", "name:zu": "Shanghai", "int_name": "Shanghai", "name:cdo": "Siông-hāi", "name:ceb": "Shanghai", "name:gan": "上海", "name:hak": "Sông-hói", "name:lzh": "上海市", "name:nan": "Siōng-hái-chhī", "name:wuu": "上海市", "name:yue": "上海", "alt_name:ar": "شنغهاي", "alt_name:cs": "Šang-chaj", "name:zh-Hans": "上海市", "name:zh-Hant": "上海市", "is_in:country": "China", "is_in:continent": "Asia", "is_in:country_code": "CN"}}, "center_lat": 31.21, "center_lon": 121.48, "area_m2": 7393100516, "timezone": "Asia/Shanghai", "population": 23390000, "wikidata_id": "Q8686", "wikipedia_id": "zh:上海市"}}