{"type": "Feature", "geometry": {"type": "MultiPolygon", "coordinates": [[[[11.405, 58.197], [11.437, 58.247], [11.479, 58.236], [11.475, 58.213], [11.45, 58.2], [11.405, 58.197]]], [[[11.536, 58.001], [11.514, 58.016], [11.503, 58.048], [11.546, 58.063], [11.587, 58.052], [11.666, 58.057], [11.727, 58.075], [11.752, 58.065], [11.766, 58.035], [11.761, 58.011], [11.724, 57.991], [11.696, 58.011], [11.682, 57.967], [11.634, 57.956], [11.585, 57.932], [11.542, 57.96], [11.536, 58.001]]], [[[11.461, 58.085], [11.467, 58.117], [11.426, 58.121], [11.407, 58.144], [11.417, 58.178], [11.545, 58.211], [11.619, 58.249], [11.668, 58.244], [11.69, 58.269], [11.679, 58.278], [11.687, 58.3], [11.751, 58.3], [11.762, 58.262], [11.809, 58.257], [11.842, 58.232], [11.849, 58.171], [11.823, 58.126], [11.777, 58.131], [11.76, 58.113], [11.696, 58.111], [11.596, 58.129], [11.557, 58.086], [11.53, 58.091], [11.518, 58.1], [11.495, 58.11], [11.498, 58.097], [11.461, 58.085]]], [[[11.462, 58.989], [11.464, 58.933], [11.456, 58.89], [11.5, 58.889], [11.526, 58.877], [11.554, 58.899], [11.591, 58.891], [11.63, 58.908], [11.688, 58.955], [11.686, 58.987], [11.704, 59.011], [11.705, 59.015], [11.731, 59.048], [11.735, 59.05], [11.749, 59.068], [11.75, 59.068], [11.781, 59.099], [11.764, 59.115], [11.778, 59.136], [11.783, 59.206], [11.826, 59.238], [11.905, 59.223], [11.967, 59.236], [12.054, 59.188], [12.096, 59.198], [12.082, 59.257], [12.186, 59.25], [12.236, 59.257], [12.261, 59.195], [12.297, 59.196], [12.336, 59.175], [12.415, 59.191], [12.459, 59.193], [12.461, 59.153], [12.494, 59.126], [12.517, 59.131], [12.582, 59.113], [12.619, 59.142], [12.624, 59.172], [12.656, 59.186], [12.695, 59.171], [12.755, 59.131], [12.772, 59.042], [12.9, 58.814], [13.151, 58.755], [13.179, 58.756], [13.253, 58.725], [13.425, 58.746], [13.338, 58.812], [13.424, 58.959], [13.589, 59.059], [13.958, 59.032], [14.044, 59.029], [14.075, 59.05], [14.142, 59.052], [14.18, 59.041], [14.224, 59.045], [14.232, 59.029], [14.298, 59.012], [14.285, 58.948], [14.393, 58.868], [14.366, 58.844], [14.422, 58.795], [14.471, 58.781], [14.476, 58.737], [14.493, 58.712], [14.527, 58.723], [14.555, 58.705], [14.538, 58.678], [14.627, 58.694], [14.621, 58.737], [14.691, 58.74], [14.698, 58.698], [14.779, 58.646], [14.673, 58.51], [14.52, 58.356], [14.418, 58.191], [14.314, 58.132], [14.206, 58.135], [14.119, 58.121], [14.107, 58.064], [14.065, 58.039], [14.064, 58.024], [13.963, 58.008], [13.948, 58.034], [13.805, 58.055], [13.773, 58.048], [13.774, 58.007], [13.725, 57.991], [13.712, 57.966], [13.725, 57.94], [13.756, 57.941], [13.789, 57.922], [13.791, 57.906], [13.76, 57.891], [13.742, 57.865], [13.738, 57.817], [13.754, 57.773], [13.714, 57.731], [13.727, 57.716], [13.725, 57.669], [13.708, 57.638], [13.664, 57.615], [13.689, 57.558], [13.649, 57.527], [13.604, 57.507], [13.583, 57.476], [13.504, 57.414], [13.468, 57.371], [13.436, 57.369], [13.433, 57.349], [13.386, 57.34], [13.369, 57.321], [13.282, 57.307], [13.289, 57.289], [13.266, 57.255], [13.228, 57.259], [13.199, 57.25], [13.194, 57.227], [13.151, 57.178], [13.1, 57.146], [13.021, 57.158], [13.034, 57.178], [12.974, 57.183], [12.912, 57.181], [12.914, 57.22], [12.954, 57.241], [12.906, 57.27], [12.836, 57.27], [12.809, 57.301], [12.763, 57.273], [12.705, 57.323], [12.655, 57.341], [12.605, 57.347], [12.537, 57.319], [12.505, 57.281], [12.431, 57.269], [12.432, 57.315], [12.397, 57.329], [12.384, 57.347], [12.396, 57.381], [12.419, 57.401], [12.402, 57.436], [12.323, 57.462], [12.344, 57.486], [12.313, 57.517], [12.341, 57.562], [12.277, 57.598], [12.176, 57.567], [12.013, 57.546], [11.996, 57.56], [11.925, 57.563], [11.939, 57.574], [11.905, 57.615], [11.845, 57.65], [11.853, 57.678], [11.77, 57.699], [11.72, 57.698], [11.705, 57.72], [11.815, 57.786], [11.744, 57.797], [11.732, 57.82], [11.684, 57.837], [11.717, 57.889], [11.754, 57.915], [11.757, 57.967], [11.814, 57.992], [11.801, 58.014], [11.82, 58.029], [11.814, 58.077], [11.841, 58.143], [11.866, 58.16], [11.857, 58.195], [11.896, 58.203], [11.875, 58.221], [11.846, 58.269], [11.819, 58.285], [11.826, 58.301], [11.805, 58.321], [11.764, 58.338], [11.726, 58.337], [11.728, 58.319], [11.699, 58.307], [11.679, 58.311], [11.669, 58.289], [11.641, 58.262], [11.587, 58.258], [11.557, 58.235], [11.499, 58.248], [11.507, 58.275], [11.575, 58.33], [11.598, 58.362], [11.636, 58.386], [11.629, 58.399], [11.583, 58.413], [11.562, 58.375], [11.572, 58.358], [11.518, 58.305], [11.468, 58.277], [11.398, 58.325], [11.397, 58.347], [11.354, 58.364], [11.316, 58.368], [11.248, 58.355], [11.26, 58.382], [11.24, 58.392], [11.277, 58.435], [11.313, 58.464], [11.283, 58.494], [11.279, 58.535], [11.257, 58.563], [11.275, 58.586], [11.279, 58.62], [11.261, 58.663], [11.22, 58.691], [11.217, 58.708], [11.17, 58.725], [11.194, 58.757], [11.184, 58.783], [11.214, 58.788], [11.248, 58.811], [11.197, 58.87], [11.189, 58.92], [11.167, 58.943], [11.131, 58.95], [11.117, 58.968], [11.137, 59.034], [11.193, 59.079], [11.296, 59.1], [11.338, 59.113], [11.37, 59.091], [11.407, 59.036], [11.462, 58.989]]]]}, "properties": {"name": "Västra Götaland County", "iso2": "SE-O", "admin_level": 4, "osm_id": 54367, "countrylevel_id": "iso2:SE-O", "osm_data": {"localname": "Västra Götalands län", "official_name": "", "alltags": {"name:ar": "محافظة وسترا يوتالاند", "name:be": "Вестра-Гёталанд", "name:bs": "Kotar Västra Götaland", "name:ca": "Västra Götaland", "name:cs": "Västra Götaland", "name:el": "Κομητεία Βέστρα Γκέταλαντ", "name:en": "Västra Götaland County", "name:es": "Provincia de Västra Götaland", "name:et": "Västra Götalandi lään", "name:eu": "Västra Götalandeko konderria", "name:fa": "شهرستان وسترا یوتلاند", "name:fi": "Länsi-Götanmaan lääni", "name:fr": "Comté de Västra Götaland", "name:gl": "Condado de Västra Götaland", "name:he": "וסטרה ייטלנד", "name:hi": "वेस्त्रा योतालान्द लैन", "name:hr": "Županija Västra Götaland", "name:hu": "Västra Götaland megye", "name:id": "Daerah Västra Götaland", "name:it": "Contea di Västra Götaland", "name:ja": "ヴェストラ・イェータランド県", "name:ko": "베스트라예탈란드 주", "name:kw": "Konteth Västra Götaland", "name:la": "Gothiae Occidentalis Comitatus", "name:lt": "Vestra Jotalandas", "name:lv": "Vesterjētlandes lēne", "name:ms": "Daerah Västra Götaland", "name:os": "Вестрæ-Гёталанд", "name:pl": "Västra Götaland", "name:ru": "Вестра-Гёталанд", "name:sk": "Västra Götaland", "name:tr": "Västra Götaland ili", "name:uk": "Вестра-Йоталанд", "name:ur": "واسترا یوتالاند کاؤنٹی", "name:vo": "Götaläniän Vesüdik", "name:zh": "西约塔兰省", "ref:fips": "SW28", "ref:nuts:1": "SE2", "ref:nuts:2": "SE23", "ref:nuts:3": "SE232", "ref:se:scb": "14"}}, "center_lat": 58.31, "center_lon": 12.83, "area_m2": 28796384792, "timezone": "Europe/Stockholm", "population": 1725881, "wikidata_id": "Q103093", "wikipedia_id": "sv:Västra Götalands län"}}