{"type": "Feature", "geometry": {"type": "Polygon", "coordinates": [[[94.14, 23.834], [94.455, 24.57], [94.714, 24.93], [94.725, 25.134], [94.586, 25.268], [94.682, 25.457], [95.038, 25.74], [95.12, 26.099], [95.073, 26.473], [95.234, 26.682], [95.44, 26.702], [95.713, 26.883], [96.022, 27.18], [96.715, 27.376], [97.076, 27.096], [96.425, 26.984], [96.103, 26.726], [96.043, 26.494], [96.183, 26.05], [95.96, 25.335], [96.076, 25.088], [95.819, 24.943], [95.968, 24.679], [96.178, 24.529], [96.576, 24.468], [96.663, 24.158], [96.505, 24.007], [96.557, 23.856], [96.393, 23.57], [96.084, 23.624], [95.904, 23.37], [95.993, 23.104], [95.961, 22.475], [96, 21.882], [95.524, 21.907], [95.342, 21.576], [95.12, 21.856], [94.409, 21.839], [94.435, 22.035], [94.296, 22.152], [94.281, 22.44], [94.173, 22.689], [94.008, 22.737], [94.027, 23.525], [94.14, 23.834]]]}, "properties": {"name": "Sagaing", "iso2": "MM-01", "admin_level": 4, "osm_id": 5996484, "countrylevel_id": "iso2:MM-01", "osm_data": {"localname": "စစ်ကိုင်းတိုင်း (Sagaing)", "official_name": "", "alltags": {"name:ca": "Divisió de Sagaing", "name:en": "Sagaing", "name:es": "División de Sagaing", "name:et": "Sagaingi piirkond", "name:fa": "ناحیه زاگاین", "name:fi": "Sagaing", "name:fr": "Région de Sagaing", "name:hi": "सगाइंग मण्डल", "name:id": "Region Sagaing", "name:it": "Regione di Sagaing", "name:ja": "ザガイン", "name:ko": "사가잉 관구", "name:lt": "Sagaino regionas", "name:mk": "Сагаин", "name:my": "စစ်ကိုင်းတိုင်း", "name:nl": "Sagaing", "name:no": "Sagaing", "name:pl": "Sikong", "name:pt": "Sagaing", "name:ru": "Сикайн", "name:sv": "Sagaingregionen", "name:th": "เขตสะกาย", "name:uk": "Сікайн", "name:ur": "ساگاینگ علاقہ", "name:vi": "Vùng Sagaing", "name:zh": "實皆省", "alt_name": "Sagaing Region", "int_name": "Sagaing Region", "st_pcode_1": "MMR005", "is_in:country": "Myanmar", "is_in:continent": "Asia", "is_in:country_code": "MM"}}, "center_lat": 24.17, "center_lon": 95.32, "area_m2": 94011761101, "timezone": "Asia/Yangon", "population": 5325347, "wikidata_id": "Q847289", "wikipedia_id": "en:Sagaing Region"}}