{"type": "Feature", "geometry": {"type": "MultiPolygon", "coordinates": [[[[10.489, 60.017], [10.518, 59.999], [10.556, 59.997], [10.61, 59.977], [10.634, 59.953], [10.626, 59.922], [10.642, 59.911], [10.632, 59.887], [10.539, 59.892], [10.506, 59.878], [10.507, 59.858], [10.477, 59.821], [10.497, 59.788], [10.433, 59.777], [10.343, 59.794], [10.356, 59.804], [10.35, 59.839], [10.333, 59.849], [10.372, 59.93], [10.348, 59.951], [10.358, 59.968], [10.422, 59.988], [10.417, 60.008], [10.435, 60.03], [10.478, 60.032], [10.489, 60.017]]], [[[10.765, 59.83], [10.88, 59.811], [10.931, 59.837], [10.907, 59.87], [10.915, 59.912], [10.946, 59.943], [10.926, 59.984], [10.876, 59.985], [10.812, 60.026], [10.82, 60.064], [10.788, 60.068], [10.737, 60.126], [10.68, 60.134], [10.701, 60.152], [10.769, 60.151], [10.777, 60.17], [10.772, 60.215], [10.813, 60.264], [10.872, 60.321], [10.934, 60.347], [10.902, 60.378], [10.903, 60.396], [10.82, 60.427], [10.767, 60.426], [10.72, 60.434], [10.692, 60.492], [10.754, 60.497], [10.834, 60.478], [10.94, 60.475], [10.95, 60.489], [11.067, 60.519], [11.093, 60.517], [11.108, 60.569], [11.154, 60.605], [11.215, 60.564], [11.21, 60.505], [11.242, 60.498], [11.297, 60.469], [11.342, 60.459], [11.418, 60.368], [11.433, 60.34], [11.474, 60.332], [11.52, 60.295], [11.602, 60.267], [11.581, 60.237], [11.584, 60.204], [11.56, 60.182], [11.655, 60.122], [11.778, 60.09], [11.787, 60.052], [11.822, 60.052], [11.819, 60.024], [11.835, 59.998], [11.811, 59.989], [11.793, 59.956], [11.821, 59.931], [11.803, 59.92], [11.836, 59.863], [11.84, 59.841], [11.875, 59.829], [11.927, 59.791], [11.906, 59.781], [11.792, 59.783], [11.756, 59.76], [11.682, 59.74], [11.708, 59.72], [11.669, 59.698], [11.651, 59.672], [11.572, 59.643], [11.532, 59.639], [11.545, 59.618], [11.493, 59.594], [11.477, 59.624], [11.502, 59.635], [11.454, 59.673], [11.42, 59.674], [11.368, 59.698], [11.373, 59.727], [11.327, 59.757], [11.252, 59.769], [11.229, 59.706], [11.23, 59.683], [11.15, 59.686], [11.13, 59.702], [11.032, 59.692], [10.97, 59.705], [10.953, 59.673], [10.984, 59.658], [10.937, 59.645], [10.855, 59.586], [10.847, 59.57], [10.771, 59.552], [10.786, 59.536], [10.779, 59.495], [10.726, 59.472], [10.686, 59.489], [10.684, 59.522], [10.661, 59.53], [10.648, 59.559], [10.653, 59.617], [10.587, 59.72], [10.582, 59.762], [10.62, 59.821], [10.646, 59.844], [10.694, 59.841], [10.704, 59.797], [10.735, 59.802], [10.765, 59.83]]]]}, "properties": {"name": "Akershus", "iso2": "NO-02", "admin_level": 4, "osm_id": 406106, "countrylevel_id": "iso2:NO-02", "osm_data": {"localname": "Akershus", "official_name": "", "alltags": {"name:ar": "آكرشوس", "name:be": "Акерсхус", "name:bg": "Акешхус", "name:ce": "Акерсхус", "name:en": "Akershus", "name:fa": "آکرشوس", "name:fi": "Akershusin lääni", "name:fr": "Comté d'Akershus", "name:he": "אקרסהוס", "name:hu": "Akershus megye", "name:hy": "Աքերսհուս", "name:ia": "Contate Akershus", "name:is": "Akurshús", "name:ja": "アーケシュフース県", "name:ka": "აკერსჰუსი", "name:ko": "아케르스후스주", "name:la": "Aggerhusium", "name:lt": "Akershusas", "name:lv": "Ākešhusa", "name:mk": "Акерсхус", "name:nn": "Akershus fylke", "name:os": "Акерсхус", "name:ru": "Акерсхус", "name:se": "Akershusa fylka", "name:sr": "Акерсхус", "name:sv": "Akershus fylke", "name:uk": "Акерсгус", "name:ur": "آکیشوس", "name:zh": "阿克什胡斯郡", "alt_name": "Akershus fylke"}}, "center_lat": 60.02, "center_lon": 11.16, "area_m2": 4901020204, "timezone": "Europe/Oslo", "population": 624055, "wikidata_id": "Q50615", "wikipedia_id": "no:Akershus"}}