{"type": "Feature", "geometry": {"type": "Polygon", "coordinates": [[[39.569, -3.994], [39.57, -3.978], [39.598, -3.954], [39.627, -3.965], [39.641, -3.96], [39.648, -3.926], [39.689, -3.926], [39.715, -3.953], [39.764, -3.957], [39.726, -4.009], [39.724, -4.025], [39.703, -4.058], [39.672, -4.079], [39.675, -4.094], [39.643, -4.155], [39.628, -4.145], [39.628, -4.111], [39.609, -4.09], [39.597, -4.116], [39.584, -4.112], [39.579, -4.085], [39.581, -4.037], [39.563, -4.022], [39.569, -3.994]]]}, "properties": {"name": "Mombasa", "iso2": "KE-28", "admin_level": 4, "osm_id": 3495554, "countrylevel_id": "iso2:KE-28", "osm_data": {"localname": "Mombasa", "official_name": "", "alltags": {"id": "6634", "name:ar": "مومباسا", "name:eo": "Mombaso", "name:ja": "モンバサ", "name:nl": "Mombassa", "name:pt": "Mombaça", "name:zh": "蒙巴萨", "OBJECTID": "2", "CONSTITUEN": "KISAUNI", "CONST_CODE": "3", "COUNTY_COD": "1", "COUNTY_NAM": "MOMBASA", "Shape_Area": "0.02332510618", "Shape_Leng": "0.88558616055"}}, "center_lat": -4.02, "center_lon": 39.65, "area_m2": 288931887, "timezone": "Africa/Nairobi", "population": 1208333, "wikidata_id": "Q1112885"}}