{"type": "Feature", "geometry": {"type": "Polygon", "coordinates": [[[-8.999, 70.827], [-8.875, 70.934], [-8.507, 70.995], [-8.066, 71.159], [-7.991, 71.019], [-8.489, 70.971], [-8.999, 70.827]]]}, "properties": {"name": "Jan Mayen", "iso2": "NO-22", "admin_level": 4, "osm_id": 1337126, "countrylevel_id": "iso2:NO-22", "osm_data": {"localname": "Jan Mayen", "official_name": "", "alltags": {"name:ar": "جان ماين", "name:be": "Востраў Ян-Маен", "name:bg": "Ян Майен", "name:el": "Γιαν Μαγιέν", "name:eo": "Janmajeno", "name:fa": "یان ماین", "name:fr": "Île Jan Mayen", "name:he": "יאן מאיין", "name:hi": "यान मायेन", "name:hu": "Jan Mayen-sziget", "name:ja": "ヤンマイエン島", "name:ka": "იან-მაიენი", "name:ko": "얀마옌 섬", "name:lt": "Jan Majenas", "name:lv": "Jana Majena sala", "name:mr": "यान मायेन", "name:no": "Jan Mayen", "name:os": "Ян-Майен", "name:ro": "Insula Jan Mayen", "name:ru": "Ян-Майен", "name:sr": "Јан Мајен", "name:th": "ยานไมเอน", "name:uk": "Ян-Маєн", "name:ur": "جان ماین", "name:zh": "揚馬延島"}}, "center_lat": 71.02, "center_lon": -8.39, "area_m2": 375305751, "timezone": "Atlantic/Jan_Mayen", "population": 18, "wikidata_id": "Q14056", "wikipedia_id": "no:Jan Mayen"}}