{"type": "Feature", "geometry": {"type": "Polygon", "coordinates": [[[-5.784, -16], [-5.786, -15.996], [-5.787, -15.998], [-5.79, -15.997], [-5.789, -15.994], [-5.786, -15.992], [-5.784, -15.99], [-5.782, -15.989], [-5.78, -15.985], [-5.776, -15.983], [-5.777, -15.981], [-5.776, -15.979], [-5.776, -15.977], [-5.772, -15.975], [-5.771, -15.973], [-5.767, -15.97], [-5.767, -15.967], [-5.765, -15.967], [-5.766, -15.963], [-5.765, -15.96], [-5.761, -15.955], [-5.76, -15.952], [-5.76, -15.95], [-5.757, -15.948], [-5.755, -15.947], [-5.749, -15.944], [-5.745, -15.941], [-5.743, -15.94], [-5.742, -15.941], [-5.738, -15.939], [-5.737, -15.936], [-5.734, -15.935], [-5.732, -15.932], [-5.729, -15.929], [-5.725, -15.928], [-5.721, -15.924], [-5.718, -15.923], [-5.718, -15.919], [-5.716, -15.92], [-5.711, -15.918], [-5.711, -15.914], [-5.706, -15.911], [-5.706, -15.908], [-5.705, -15.906], [-5.698, -15.904], [-5.697, -15.904], [-5.696, -15.908], [-5.691, -15.912], [-5.689, -15.912], [-5.687, -15.913], [-5.683, -15.914], [-5.682, -15.913], [-5.678, -15.913], [-5.675, -15.915], [-5.673, -15.916], [-5.668, -15.913], [-5.666, -15.911], [-5.662, -15.91], [-5.66, -15.911], [-5.657, -15.911], [-5.653, -15.917], [-5.652, -15.92], [-5.655, -15.923], [-5.654, -15.925], [-5.651, -15.928], [-5.649, -15.93], [-5.651, -15.932], [-5.652, -15.935], [-5.649, -15.94], [-5.646, -15.941], [-5.642, -15.94], [-5.64, -15.943], [-5.641, -15.945], [-5.639, -15.948], [-5.636, -15.948], [-5.634, -15.95], [-5.635, -15.951], [-5.638, -15.952], [-5.639, -15.953], [-5.639, -15.956], [-5.641, -15.959], [-5.639, -15.963], [-5.64, -15.963], [-5.639, -15.968], [-5.636, -15.972], [-5.637, -15.974], [-5.64, -15.974], [-5.643, -15.975], [-5.645, -15.974], [-5.651, -15.977], [-5.65, -15.979], [-5.651, -15.984], [-5.653, -15.984], [-5.654, -15.986], [-5.657, -15.987], [-5.658, -15.989], [-5.664, -15.989], [-5.666, -15.989], [-5.667, -15.992], [-5.669, -15.991], [-5.673, -15.993], [-5.671, -15.996], [-5.673, -15.998], [-5.672, -16], [-5.676, -16.002], [-5.678, -16], [-5.685, -16.002], [-5.688, -16.006], [-5.691, -16.007], [-5.693, -16.005], [-5.696, -16.005], [-5.699, -16.003], [-5.7, -16.003], [-5.702, -16.002], [-5.704, -16.003], [-5.709, -16.003], [-5.715, -16.006], [-5.713, -16.007], [-5.715, -16.009], [-5.717, -16.009], [-5.722, -16.011], [-5.722, -16.013], [-5.728, -16.014], [-5.733, -16.018], [-5.736, -16.019], [-5.74, -16.024], [-5.746, -16.027], [-5.749, -16.024], [-5.752, -16.022], [-5.753, -16.02], [-5.757, -16.016], [-5.759, -16.011], [-5.758, -16.009], [-5.762, -16.008], [-5.763, -16.005], [-5.766, -16.005], [-5.769, -16.006], [-5.77, -16.003], [-5.775, -16.005], [-5.776, -16.001], [-5.779, -16.001], [-5.782, -15.998], [-5.784, -16]]]}, "properties": {"name": "Saint Helena", "iso2": "SH-HL", "admin_level": 3, "osm_id": 155987, "countrylevel_id": "iso2:SH-HL", "osm_data": {"localname": "Saint Helena", "official_name": "", "alltags": {"name:ar": "سانت هيلانة", "name:br": "Santa Helena", "name:el": "Αγία Ελένη", "name:en": "Saint Helena", "name:eo": "Sankta-Heleno", "name:es": "Santa Elena", "name:fa": "سنت هلن", "name:fr": "Sainte-Hélène", "name:hr": "Sveta Helena", "name:it": "Sant'Elena", "name:la": "Sancta Helena", "name:lt": "Šventoji Elena", "name:mk": "Света Елена", "name:nl": "Sint-Helena", "name:pt": "Santa Helena", "name:ro": "Sfânta Elena", "name:ru": "Остров Святой Елены", "name:sk": "Svätá Helena", "name:ur": "سینٹ ہلینا", "is_in:country": "Saint Helena, Ascension and Tristan da Cunha", "Schalansky_ref": "42"}}, "center_lat": -15.97, "center_lon": -5.71, "area_m2": 123542693, "timezone": "Atlantic/St_Helena", "population": 4255, "wikidata_id": "Q34497", "wikipedia_id": "en:Saint Helena"}}