{"type": "Feature", "geometry": {"type": "Polygon", "coordinates": [[[4.795, 52.227], [5.335, 52.29], [5.405, 52.25], [5.486, 51.984], [5.027, 51.859], [4.804, 52.014], [4.795, 52.227]]]}, "properties": {"name": "Utrecht", "iso2": "NL-UT", "admin_level": 4, "osm_id": 47667, "countrylevel_id": "iso2:NL-UT", "osm_data": {"localname": "Utrecht", "official_name": "", "alltags": {"name:ar": "مقاطعة أوترخت", "name:ca": "Província d'Utrecht", "name:en": "Utrecht", "name:es": "Utrecht", "name:fr": "Utrecht", "name:nl": "Utrecht", "name:ru": "Утрехт", "population": "1295618", "description": "Utrecht", "is_in:country": "The Netherlands", "note:ISO3166-2": "Utrecht is a subset (type Province) of the Kingdom of the Netherlands (ISO3166-1 country code NL)", "is_in:continent": "Europe", "population:date": "2018-01-01", "ref:provinciecode": "26", "is_in:country_code": "NL"}}, "center_lat": 52.08, "center_lon": 5.16, "area_m2": 1557106926, "timezone": "Europe/Amsterdam", "population": 1253672, "wikidata_id": "Q776", "wikipedia_id": "nl:Utrecht (provincie)"}}