{"type": "Feature", "geometry": {"type": "Polygon", "coordinates": [[[18.814, 45.909], [18.822, 45.915], [18.89, 45.922], [19.303, 45.992], [19.598, 45.648], [19.373, 45.486], [19.032, 45.487], [18.93, 45.543], [18.895, 45.752], [18.874, 45.785], [18.848, 45.807], [18.848, 45.814], [18.855, 45.829], [18.814, 45.909]]]}, "properties": {"name": "West Backa Administrative District", "iso2": "RS-05", "admin_level": 6, "osm_id": 1639908, "countrylevel_id": "iso2:RS-05", "osm_data": {"localname": "Западнобачки управни округ", "official_name": "", "alltags": {"name:en": "West Backa Administrative District", "name:hr": "Zapadnobački upravni okrug", "name:hu": "Nyugat-bácskai körzet", "name:ru": "Западно-Бачский административный округ", "name:sr": "Западнобачки управни округ", "website": "http://www.zapadnobacki.okrug.gov.rs/", "name:sr-Latn": "Zapadnobački upravni okrug"}}, "center_lat": 45.72, "center_lon": 19.2, "area_m2": 2484838167, "timezone": "Europe/Belgrade", "population": 188087, "wikidata_id": "Q735169", "wikipedia_id": "en:West Bačka District"}}