{"type": "Feature", "geometry": {"type": "Polygon", "coordinates": [[[139.688, 36.2], [140.185, 36.398], [140.264, 36.933], [140.467, 36.792], [140.793, 36.859], [140.559, 36.29], [140.657, 35.995], [140.852, 35.745], [140.511, 35.959], [140.157, 35.843], [139.776, 36.091], [139.688, 36.2]]]}, "properties": {"name": "Ibaraki Prefecture", "iso2": "JP-08", "admin_level": 4, "osm_id": 2682940, "countrylevel_id": "iso2:JP-08", "osm_data": {"localname": "茨城県", "official_name": "", "alltags": {"name:ar": "إيباراكي", "name:cs": "prefektura Ibaraki", "name:en": "Ibaraki Prefecture", "name:es": "Prefectura de Ibaraki", "name:fr": "Préfecture d'Ibaraki", "name:it": "Prefettura di Ibaraki", "name:ja": "茨城県", "name:ko": "이바라키현", "name:pl": "Prefektura Ibaraki", "name:ru": "Ибараки", "name:uk": "Префектура Ібаракі", "note:ja": "国土数値情報（行政区画）平成24年国土交通省", "name:ja_rm": "Ibaraki-ken", "name:ja_kana": "いばらきけん", "is_in:country": "Japan", "is_in:continent": "Asia", "sorting_name:cs": "Ibaraki", "is_in:country_code": "JP"}}, "center_lat": 36.31, "center_lon": 140.32, "area_m2": 6109655850, "timezone": "Asia/Tokyo", "population": 2868041, "wikidata_id": "Q83273", "wikipedia_id": "ja:茨城県"}}