{"type": "Feature", "geometry": {"type": "Polygon", "coordinates": [[[139.796, 35.523], [139.525, 35.643], [139.131, 35.672], [138.944, 35.855], [139.38, 35.766], [139.893, 35.783], [139.872, 35.637], [139.796, 35.523]]]}, "properties": {"name": "Tokyo", "iso2": "JP-13", "admin_level": 4, "osm_id": 1543125, "countrylevel_id": "iso2:JP-13", "osm_data": {"localname": "東京都", "official_name": "", "alltags": {"name:cs": "Tokio", "name:en": "Tokyo", "name:eo": "Tokio", "name:es": "Tokio", "name:fi": "Tokio", "name:fr": "Tokyo", "name:ia": "Tokyo", "name:io": "Tokyo", "name:it": "Tokyo", "name:ja": "東京都", "name:ko": "도쿄도", "name:mi": "Tōkio", "name:pl": "Tokio", "name:pt": "Tóquio", "name:ru": "Токио", "name:uk": "Токіо", "name:zh": "東京都", "name:szl": "Tokjo", "name:ja-Hira": "とうきょうと", "name:ja-Latn": "Tōkyō-to", "is_in:country": "Japan", "is_in:continent": "Asia", "official_name:it": "Metropoli di Tokyo", "is_in:country_code": "JP"}}, "center_lat": 35.07, "center_lon": 139.56, "area_m2": 2197616962, "timezone": "Asia/Tokyo", "population": 13942856, "wikidata_id": "Q1490", "wikipedia_id": "ja:東京都"}}