{"type": "Feature", "geometry": {"type": "Polygon", "coordinates": [[[138.729, 35.909], [138.944, 35.855], [139.131, 35.672], [138.916, 35.401], [138.532, 35.223], [138.258, 35.316], [138.219, 35.645], [138.188, 35.8], [138.37, 35.971], [138.729, 35.909]]]}, "properties": {"name": "Yamanashi Prefecture", "iso2": "JP-19", "admin_level": 4, "osm_id": 3578391, "countrylevel_id": "iso2:JP-19", "osm_data": {"localname": "山梨県", "official_name": "", "alltags": {"name:cs": "prefektura Jamanaši", "name:en": "Yamanashi Prefecture", "name:es": "Prefectura de Yamanashi", "name:fr": "Préfecture de Yamanashi", "name:it": "Prefettura di Yamanashi", "name:ja": "山梨県", "name:ko": "야마나시현", "name:pl": "Prefektura Yamanashi", "name:ru": "Яманаси", "name:uk": "Префектура Яманасі", "name:zh": "山梨县", "name:ja_rm": "Yamanashi-ken", "name:ja_kana": "やまなしけん", "is_in:country": "Japan", "is_in:continent": "Asia", "sorting_name:cs": "Jamanaši", "is_in:country_code": "JP"}}, "center_lat": 35.62, "center_lon": 138.61, "area_m2": 4479451586, "timezone": "Asia/Tokyo", "population": 812056, "wikidata_id": "Q132720", "wikipedia_id": "ja:山梨県"}}