{"type": "Feature", "geometry": {"type": "Polygon", "coordinates": [[[137.052, 36.959], [136.879, 36.906], [136.792, 36.299], [136.754, 36.086], [136.344, 36.173], [136.244, 36.295], [136.673, 36.706], [136.767, 37.002], [136.757, 37.365], [137.275, 37.533], [137.234, 37.298], [136.884, 37.164], [137.052, 36.959]]]}, "properties": {"name": "Ishikawa Prefecture", "iso2": "JP-17", "admin_level": 4, "osm_id": 3794726, "countrylevel_id": "iso2:JP-17", "osm_data": {"localname": "石川県", "official_name": "", "alltags": {"name:ar": "إيشيكاوا", "name:cs": "prefektura Išikawa", "name:en": "Ishikawa Prefecture", "name:es": "Prefectura de Ishikawa", "name:fr": "Préfecture d'Ishikawa", "name:it": "Prefettura di Ishikawa", "name:ja": "石川県", "name:ko": "이시카와현", "name:pl": "Prefektura Ishikawa", "name:ru": "Исикава", "name:uk": "Префектура Ісікава", "name:zh": "石川县", "name:ja_rm": "Ishikawa-ken", "is_in:country": "Japan", "is_in:continent": "Asia", "sorting_name:cs": "Išikawa", "is_in:country_code": "JP"}}, "center_lat": 36.77, "center_lon": 136.77, "area_m2": 4193637169, "timezone": "Asia/Tokyo", "population": 1137181, "wikidata_id": "Q131281"}}