{"type": "Feature", "geometry": {"type": "Polygon", "coordinates": [[[139.872, 35.637], [139.893, 35.783], [139.776, 36.091], [140.157, 35.843], [140.511, 35.959], [140.852, 35.745], [140.449, 35.524], [140.394, 35.202], [140.116, 35.112], [139.845, 34.903], [139.814, 35.306], [140.084, 35.597], [139.872, 35.637]]]}, "properties": {"name": "Chiba Prefecture", "iso2": "JP-12", "admin_level": 4, "osm_id": 2679957, "countrylevel_id": "iso2:JP-12", "osm_data": {"localname": "千葉県", "official_name": "", "alltags": {"name:cs": "prefektura Čiba", "name:en": "Chiba Prefecture", "name:es": "Prefectura de Chiba", "name:fr": "Préfecture de Chiba", "name:it": "Prefettura di Chiba", "name:ja": "千葉県", "name:ko": "지바현", "name:pl": "Prefektura Chiba", "name:ru": "Тиба", "name:uk": "Префектура Чіба", "note:ja": "国土数値情報（行政区画）平成24年国土交通省", "website": "http://www.pref.chiba.lg.jp/", "name:ja_rm": "Chiba-ken", "name:ja_kana": "ちばけん", "is_in:country": "Japan", "is_in:continent": "Asia", "sorting_name:cs": "Čiba", "is_in:country_code": "JP"}}, "center_lat": 35.52, "center_lon": 140.2, "area_m2": 5168594946, "timezone": "Asia/Tokyo", "population": 6279026, "wikidata_id": "Q80011", "wikipedia_id": "ja:千葉県"}}