{"type": "Feature", "geometry": {"type": "Polygon", "coordinates": [[[135.407, 34.697], [135.371, 35.045], [135.649, 34.926], [135.729, 34.778], [135.651, 34.383], [135.093, 34.312], [135.374, 34.476], [135.407, 34.697]]]}, "properties": {"name": "Osaka Prefecture", "iso2": "JP-27", "admin_level": 4, "osm_id": 341906, "countrylevel_id": "iso2:JP-27", "osm_data": {"localname": "大阪府", "official_name": "", "alltags": {"name:ar": "أوساكا", "name:cs": "prefektura Ósaka", "name:en": "Osaka Prefecture", "name:es": "Prefectura de Osaka", "name:fi": "Osakan prefektuuri", "name:fr": "Préfecture d'Osaka", "name:it": "Prefettura di Osaka", "name:ja": "大阪府", "name:ko": "오사카부", "name:pl": "Prefektura Osaka", "name:ru": "Осака", "name:uk": "Префектура Осака", "name:zh": "大阪府", "name:ja_rm": "Ōsaka-fu", "name:ja_kana": "おおさかふ", "is_in:country": "Japan", "is_in:continent": "Asia", "sorting_name:cs": "Ósaka", "is_in:country_code": "JP"}}, "center_lat": 34.62, "center_lon": 135.51, "area_m2": 1919117275, "timezone": "Asia/Tokyo", "population": 8823453, "wikidata_id": "Q122723", "wikipedia_id": "ja:大阪府"}}