{"type": "Feature", "geometry": {"type": "Polygon", "coordinates": [[[133.599, 34.044], [133.68, 34.013], [133.661, 33.882], [133.284, 33.832], [133.015, 33.481], [132.811, 33.466], [132.655, 32.925], [132.485, 32.981], [132.539, 33.235], [132.364, 33.48], [132.697, 33.757], [132.914, 34.063], [133.141, 33.925], [133.599, 34.044]]]}, "properties": {"name": "Ehime Prefecture", "iso2": "JP-38", "admin_level": 4, "osm_id": 3795063, "countrylevel_id": "iso2:JP-38", "osm_data": {"localname": "愛媛県", "official_name": "", "alltags": {"name:cs": "prefektura Ehime", "name:en": "Ehime Prefecture", "name:es": "Prefectura de Ehime", "name:fr": "Préfecture d'Ehime", "name:it": "Prefettura di Ehime", "name:ja": "愛媛県", "name:ko": "에히메현", "name:pl": "Prefektura Ehime", "name:ru": "Эхимэ", "name:uk": "Префектура Ехіме", "name:ja-Hira": "えひめけん", "name:ja-Latn": "Ehime-ken", "name:ja_kana": "エヒメケン", "is_in:country": "Japan", "is_in:continent": "Asia", "sorting_name:cs": "Ehime", "is_in:country_code": "JP"}}, "center_lat": 33.63, "center_lon": 132.86, "area_m2": 5683863831, "timezone": "Asia/Tokyo", "population": 1338811, "wikidata_id": "Q123376", "wikipedia_id": "ja:愛媛県"}}