{"type": "Feature", "geometry": {"type": "Polygon", "coordinates": [[[132.655, 32.925], [132.811, 33.466], [133.015, 33.481], [133.284, 33.832], [133.661, 33.882], [133.96, 33.835], [134.306, 33.549], [134.182, 33.25], [133.937, 33.485], [133.598, 33.519], [133.262, 33.369], [132.931, 32.781], [132.655, 32.925]]]}, "properties": {"name": "Kochi Prefecture", "iso2": "JP-39", "admin_level": 4, "osm_id": 3795031, "countrylevel_id": "iso2:JP-39", "osm_data": {"localname": "高知県", "official_name": "", "alltags": {"name:ar": "كوتشي", "name:cs": "prefektura Kóči", "name:en": "Kochi Prefecture", "name:eo": "Koĉo", "name:es": "Prefectura de Kōchi", "name:fr": "Préfecture de Kōchi", "name:it": "Prefettura di Kōchi", "name:ja": "高知県", "name:ko": "고치현", "name:pl": "Prefektura Kōchi", "name:ru": "Коти", "name:uk": "Префектура Кочі", "name:ja-Hira": "こうちけん", "name:ja-Latn": "Kōchi-ken", "name:ja_kana": "コウチケン", "is_in:country": "Japan", "is_in:continent": "Asia", "sorting_name:cs": "Kóči", "is_in:country_code": "JP"}}, "center_lat": 33.42, "center_lon": 133.37, "area_m2": 7118308739, "timezone": "Asia/Tokyo", "population": 697674, "wikidata_id": "Q134093", "wikipedia_id": "ja:高知県"}}