{"type": "Feature", "geometry": {"type": "Polygon", "coordinates": [[[133.136, 35.074], [133.311, 35.268], [133.273, 35.554], [134.169, 35.534], [134.37, 35.614], [134.403, 35.241], [133.597, 35.345], [133.269, 35.058], [133.136, 35.074]]]}, "properties": {"name": "Tottori Prefecture", "iso2": "JP-31", "admin_level": 4, "osm_id": 3285636, "countrylevel_id": "iso2:JP-31", "osm_data": {"localname": "鳥取県", "official_name": "", "alltags": {"name:ar": "توتوري", "name:cs": "prefektura Tottori", "name:en": "Tottori Prefecture", "name:eo": "Totoro", "name:es": "Prefectura de Tottori", "name:fr": "Préfecture de Tottori", "name:it": "Prefettura di Tottori", "name:ja": "鳥取県", "name:ko": "돗토리현", "name:pl": "Prefektura Tottori", "name:ru": "Тоттори", "name:uk": "Префектура Тотторі", "name:ja-Hira": "とっとりけん", "name:ja-Latn": "Tottori-ken", "name:ja_kana": "トットリケン", "is_in:country": "Japan", "is_in:continent": "Asia", "sorting_name:cs": "Tottori", "is_in:country_code": "JP"}}, "center_lat": 35.36, "center_lon": 133.85, "area_m2": 3514619203, "timezone": "Asia/Tokyo", "population": 555663, "wikidata_id": "Q133935", "wikipedia_id": "ja:鳥取県"}}