{"type": "Feature", "geometry": {"type": "Polygon", "coordinates": [[[133.136, 35.074], [133.269, 35.058], [133.447, 34.48], [132.638, 34.203], [132.496, 34.348], [132.246, 34.211], [132.069, 34.468], [132.161, 34.688], [132.538, 34.795], [132.861, 35.095], [133.136, 35.074]]]}, "properties": {"name": "Hiroshima Prefecture", "iso2": "JP-34", "admin_level": 4, "osm_id": 3218753, "countrylevel_id": "iso2:JP-34", "osm_data": {"localname": "広島県", "official_name": "", "alltags": {"name:cs": "prefektura Hirošima", "name:en": "Hiroshima Prefecture", "name:eo": "Hiroŝimo", "name:es": "Prefectura de Hiroshima", "name:fr": "Préfecture de Hiroshima", "name:it": "Prefettura di Hiroshima", "name:ja": "広島県", "name:ko": "히로시마현", "name:pl": "Prefektura Hiroszima", "name:ru": "Хиросима", "name:uk": "Префектура Хіросіма", "name:zh": "广岛县", "name:ja-Hira": "ひろしまけん", "name:ja-Latn": "Hiroshima-ken", "name:ja_kana": "ヒロシマケン", "wikipedia:en": "Hiroshima_Prefecture", "is_in:country": "Japan", "is_in:continent": "Asia", "sorting_name:cs": "Hirošima", "is_in:country_code": "JP"}}, "center_lat": 34.61, "center_lon": 132.79, "area_m2": 8495382260, "timezone": "Asia/Tokyo", "population": 2811410, "wikidata_id": "Q617375", "wikipedia_id": "ja:広島県"}}