{"type": "Feature", "geometry": {"type": "Polygon", "coordinates": [[[133.269, 35.058], [133.597, 35.345], [134.403, 35.241], [134.254, 34.939], [134.322, 34.722], [133.88, 34.457], [133.447, 34.48], [133.269, 35.058]]]}, "properties": {"name": "Okayama Prefecture", "iso2": "JP-33", "admin_level": 4, "osm_id": 3794962, "countrylevel_id": "iso2:JP-33", "osm_data": {"localname": "岡山県", "official_name": "", "alltags": {"name:cs": "prefektura Okajama", "name:en": "Okayama Prefecture", "name:es": "Prefectura de Okayama", "name:fr": "Préfecture d'Okayama", "name:it": "Prefettura di Okayama", "name:ja": "岡山県", "name:ko": "오카야마현", "name:pl": "Prefektura Okayama", "name:ru": "Окаяма", "name:uk": "Префектура Окаяма", "name:zh": "冈山县", "name:ja_rm": "Okayama-ken", "name:ja-Hira": "おかやまけん", "is_in:country": "Japan", "is_in:continent": "Asia", "sorting_name:cs": "Okajama", "is_in:country_code": "JP"}}, "center_lat": 34.9, "center_lon": 133.81, "area_m2": 7128376441, "timezone": "Asia/Tokyo", "population": 1891346, "wikidata_id": "Q132936", "wikipedia_id": "ja:岡山県"}}