{"type": "Feature", "geometry": {"type": "Polygon", "coordinates": [[[130.414, 33.002], [130.668, 33.157], [130.84, 33.104], [131.161, 33.141], [131.33, 32.833], [131.052, 32.588], [131.112, 32.33], [130.975, 32.121], [130.721, 32.101], [130.361, 32.168], [130.573, 32.442], [130.58, 32.841], [130.414, 33.002]]]}, "properties": {"name": "Kumamoto Prefecture", "iso2": "JP-43", "admin_level": 4, "osm_id": 1842185, "countrylevel_id": "iso2:JP-43", "osm_data": {"localname": "熊本県", "official_name": "", "alltags": {"name:cs": "prefektura Kumamoto", "name:en": "Kumamoto Prefecture", "name:eo": "Kumamoto", "name:es": "Prefectura de Kumamoto", "name:fr": "Préfecture de Kumamoto", "name:it": "Prefettura di Kumamoto", "name:ja": "熊本県", "name:ko": "구마모토현", "name:pl": "Prefektura Kumamoto", "name:ru": "Кумамото", "name:uk": "Префектура Кумамото", "name:zh": "熊本县", "name:ja-Hira": "くまもとけん", "name:ja-Latn": "Kumamoto-ken", "name:ja_kana": "クマモトケン", "is_in:country": "Japan", "name:zh_pinyin": "Xióngběn Xiàn", "is_in:continent": "Asia", "sorting_name:cs": "Kumamoto", "is_in:country_code": "JP"}}, "center_lat": 32.62, "center_lon": 130.75, "area_m2": 7425777947, "timezone": "Asia/Tokyo", "population": 1746740, "wikidata_id": "Q130308", "wikipedia_id": "ja:熊本県"}}