{"type": "Feature", "geometry": {"type": "Polygon", "coordinates": [[[130.721, 32.101], [130.975, 32.121], [131.112, 32.33], [131.052, 32.588], [131.33, 32.833], [131.886, 32.746], [131.708, 32.586], [131.472, 31.945], [131.372, 31.518], [131.16, 31.462], [131.188, 31.625], [130.877, 31.816], [130.721, 32.101]]]}, "properties": {"name": "Miyazaki Prefecture", "iso2": "JP-45", "admin_level": 4, "osm_id": 1842184, "countrylevel_id": "iso2:JP-45", "osm_data": {"localname": "宮崎県", "official_name": "", "alltags": {"name:ar": "ميازاكي", "name:cs": "prefektura Mijazaki", "name:en": "Miyazaki Prefecture", "name:eo": "Mijazako", "name:es": "Prefectura de Miyazaki", "name:fr": "Préfecture de Miyazaki", "name:it": "Prefettura di Miyazaki", "name:ja": "宮崎県", "name:ko": "미야자키현", "name:pl": "Prefektura Miyazaki", "name:ru": "Миядзаки", "name:uk": "Префектура Міядзакі", "name:zh": "宫崎县", "name:ja-Hira": "みやざきけん", "name:ja-Latn": "Miyazaki-ken", "is_in:country": "Japan", "name:zh_pinyin": "Gōngqí Xiàn", "is_in:continent": "Asia", "sorting_name:cs": "Mijazaki", "is_in:country_code": "JP"}}, "center_lat": 32.2, "center_lon": 131.3, "area_m2": 7755078453, "timezone": "Asia/Tokyo", "population": 1071723, "wikidata_id": "Q130300", "wikipedia_id": "ja:宮崎県"}}