{"type": "Feature", "geometry": {"type": "Polygon", "coordinates": [[[130.361, 32.168], [130.721, 32.101], [130.877, 31.816], [131.188, 31.625], [131.16, 31.462], [131.065, 31.227], [130.716, 31.042], [130.658, 31.22], [130.229, 31.268], [130.329, 31.629], [130.166, 31.795], [130.176, 32.106], [130.361, 32.168]]]}, "properties": {"name": "Kagoshima Prefecture", "iso2": "JP-46", "admin_level": 4, "osm_id": 1842186, "countrylevel_id": "iso2:JP-46", "osm_data": {"localname": "鹿児島県", "official_name": "", "alltags": {"phone": "+81 99 286 2111", "name:ar": "كاغوشيما", "name:cs": "prefektura Kagošima", "name:en": "Kagoshima Prefecture", "name:eo": "Kagoŝimo", "name:es": "Prefectura de Kagoshima", "name:fr": "Préfecture de Kagoshima", "name:it": "Prefettura di Kagoshima", "name:ja": "鹿児島県", "name:ko": "가고시마현", "name:pl": "Prefektura Kagoshima", "name:ru": "Кагосима", "name:uk": "Префектура Каґошіма", "name:zh": "鹿儿岛县", "website": "http://www.pref.kagoshima.jp/", "population": "1613969", "name:ja-Hira": "かごしまけん", "name:ja-Latn": "Kagoshima-ken", "name:ja_kana": "カゴシマケン", "is_in:country": "Japan", "name:zh_pinyin": "Lùérdáo Xiàn", "is_in:continent": "Asia", "sorting_name:cs": "Kagošima", "is_in:country_code": "JP"}}, "center_lat": 31.03, "center_lon": 130.43, "area_m2": 9206562049, "timezone": "Asia/Tokyo", "population": 1601711, "wikidata_id": "Q15701", "wikipedia_id": "ja:鹿児島県"}}