{"type": "Feature", "geometry": {"type": "Polygon", "coordinates": [[[104.64, 20.653], [104.846, 20.652], [105.087, 20.577], [105.386, 20.379], [105.542, 20.364], [106.025, 19.967], [105.859, 19.712], [105.805, 19.287], [105.404, 19.449], [105.156, 19.708], [105.169, 19.914], [104.907, 19.998], [104.914, 20.156], [104.63, 20.23], [104.64, 20.653]]]}, "properties": {"name": "Thanh Hoa", "iso2": "VN-21", "admin_level": 4, "osm_id": 1898590, "countrylevel_id": "iso2:VN-21", "osm_data": {"localname": "Thanh Hóa", "official_name": "Tỉnh Thanh Hóa", "alltags": {"name:en": "Thanh Hoa", "name:ja": "タインホア", "name:ko": "타인호아성", "name:ru": "Тханьхоа́", "name:vi": "Thanh Hóa", "name:zh": "清化省", "alt_name": "Thanh Hoá", "population": "3412600", "alt_name:vi": "Thanh Hoá", "official_name": "Tỉnh Thanh Hóa", "official_name:en": "Thanh Hoa Province", "official_name:vi": "Tỉnh Thanh Hóa", "is_in:country_code": "VN"}}, "center_lat": 20.05, "center_lon": 105.32, "area_m2": 11145987790, "timezone": "Asia/Bangkok", "wikidata_id": "Q36512", "wikipedia_id": "vi:Thanh Hóa"}}