{"type": "Feature", "geometry": {"type": "Polygon", "coordinates": [[[108.628, 14.544], [108.924, 14.698], [109.082, 14.578], [109.299, 13.842], [109.234, 13.67], [108.962, 13.518], [108.85, 13.569], [108.828, 13.79], [108.678, 14.148], [108.628, 14.544]]]}, "properties": {"name": "Bình Định Province", "iso2": "VN-31", "admin_level": 4, "osm_id": 1889794, "countrylevel_id": "iso2:VN-31", "osm_data": {"localname": "Bình Định", "official_name": "", "alltags": {"name:ar": "محافظة بنه دنه", "name:bg": "Бин Дин", "name:en": "Bình Định Province", "name:es": "Bình Định", "name:fa": "استان بین دین", "name:fi": "Bình Định", "name:fr": "Province de Bình Định", "name:id": "Provinsi Binh Dinh", "name:it": "Provincia di Binh Dinh", "name:ja": "ビンディン", "name:ko": "빈딘성", "name:nl": "Bình Định", "name:pl": "Prowincja Bình Định", "name:pt": "Binh Dinh", "name:ru": "Биньдинь", "name:sr": "Бињ Дињ", "name:sv": "Binh Dinh", "name:sw": "Mkoa wa Bình Định", "name:tg": "Вилояти Бин Дин", "name:uk": "Біньдінь", "name:ur": "بنہ دینہ صوبہ", "name:zh": "平定省", "alt_name": "Tỉnh Bình Định", "population": "1497300", "is_in:country_code": "VN"}}, "center_lat": 14.12, "center_lon": 108.95, "area_m2": 6103170488, "timezone": "Asia/Ho_Chi_Minh", "population": 1485943, "wikidata_id": "Q36693", "wikipedia_id": "vi:Bình Định"}}