{"type": "Feature", "geometry": {"type": "Polygon", "coordinates": [[[106.001, 21], [106.127, 20.984], [106.27, 20.685], [106.121, 20.617], [106.003, 20.704], [106.001, 21]]]}, "properties": {"name": "Hung Yen Province", "iso2": "VN-66", "admin_level": 4, "osm_id": 1901032, "countrylevel_id": "iso2:VN-66", "osm_data": {"localname": "Tỉnh Hưng Yên", "official_name": "", "alltags": {"name:ar": "محافظة هونغ اين", "name:bg": "Хунг Йен", "name:en": "Hung Yen Province", "name:es": "Hưng Yên", "name:fa": "استان هونگ ین", "name:fi": "Hưng Yên", "name:fr": "Province de Hưng Yên", "name:id": "Provinsi Hung Yen", "name:it": "Provincia di Hung Yen", "name:ja": "フンイエン", "name:ko": "흥옌성", "name:mn": "Хыниэнь", "name:nl": "Hưng Yên", "name:pl": "Prowincja Hưng Yên", "name:pt": "Hung Yen", "name:ru": "Хынгйен", "name:sr": "Хинг Јен", "name:sv": "Hung Yen", "name:sw": "Mkoa wa Hưng Yên", "name:th": "จังหวัดฮึงเอียน", "name:uk": "Хинг'єн", "name:ur": "ہونگ ین صوبہ", "name:zh": "興安省", "population": "1150400", "is_in:country_code": "VN"}}, "center_lat": 20.81, "center_lon": 106.06, "area_m2": 933423925, "timezone": "Asia/Bangkok", "wikidata_id": "Q36235", "wikipedia_id": "vi:Hưng Yên"}}