{"type": "Feature", "geometry": {"type": "Polygon", "coordinates": [[[106.81, 10.386], [106.733, 10.496], [106.55, 10.659], [106.533, 10.901], [106.357, 10.992], [106.447, 11.135], [106.69, 10.88], [106.84, 10.899], [106.754, 10.723], [107.008, 10.613], [107.01, 10.516], [106.81, 10.386]]]}, "properties": {"name": "Ho Chi Minh City", "iso2": "VN-SG", "admin_level": 4, "osm_id": 1973756, "countrylevel_id": "iso2:VN-SG", "osm_data": {"localname": "Thành phố Hồ Chí Minh", "official_name": "", "alltags": {"name:cs": "Ho Či Minovo Město", "name:en": "Ho Chi Minh City", "name:fr": "Ho-Chi-Minh-Ville", "name:ja": "ホーチミン市", "name:ko": "호찌민시", "name:ms": "Kota Ho Chi Minh", "name:nl": "Ho Chi Minhstad", "name:zh": "胡志明市", "old_name": "Sài Gòn", "population": "7521100", "wikivoyage": "en:Ho Chi Minh City", "old_name:cs": "Saigon", "old_name:de": "Saigon", "old_name:en": "Saigon", "old_name:ja": "サイゴン", "old_name:ko": "사이공", "old_name:la": "Saigonia", "old_name:vi": "Sài Gòn", "old_name:zh": "西贡", "name:vi-hani": "城舖胡志明", "old_name:vi-hani": "柴棍", "old_name:zh-Hant": "西貢", "is_in:country_code": "VN"}}, "center_lat": 10.75, "center_lon": 106.7, "area_m2": 2043482822, "timezone": "Asia/Ho_Chi_Minh", "population": 10380000, "wikidata_id": "Q1854", "wikipedia_id": "vi:Thành phố Hồ Chí Minh"}}