{"type": "Feature", "geometry": {"type": "Polygon", "coordinates": [[[41.698, 19.797], [41.84, 20.182], [42.009, 20.291], [42.032, 20.625], [42.274, 20.342], [42.92, 20.802], [43.385, 20.833], [43.667, 20.976], [44.048, 20.585], [43.921, 20.123], [44.124, 19.845], [44.517, 19.512], [44.351, 19.209], [44.397, 18.914], [44.054, 18.69], [43.664, 18.261], [43.618, 17.426], [43.321, 17.533], [43.047, 17.806], [42.787, 17.944], [42.687, 17.68], [42.408, 17.901], [42.167, 17.912], [41.912, 18.077], [41.771, 18.314], [41.814, 18.47], [41.728, 18.744], [41.472, 18.783], [41.389, 19.154], [41.791, 19.221], [41.891, 19.427], [41.868, 19.72], [41.698, 19.797]]]}, "properties": {"name": "'Asir Region", "iso2": "SA-14", "admin_level": 4, "osm_id": 3678598, "countrylevel_id": "iso2:SA-14", "osm_data": {"localname": "منطقة عسير", "official_name": "", "alltags": {"name:ar": "منطقة عسير", "name:cs": "Asír", "name:en": "'Asir Region", "name:es": "Provincia de Asir", "name:fr": "Asir", "name:ru": "Асир"}}, "center_lat": 19.27, "center_lon": 42.99, "area_m2": 77650902970, "timezone": "Asia/Riyadh", "population": 2211875, "wikidata_id": "Q779855"}}