{"type": "Feature", "geometry": {"type": "MultiPolygon", "coordinates": [[[[120.557, 14.82], [120.558, 14.82], [120.557, 14.818], [120.557, 14.82]]], [[[121.419, 15.217], [121.331, 15.133], [121.34, 14.89], [121.096, 14.768], [120.906, 14.701], [120.691, 14.782], [120.69, 14.783], [120.567, 14.842], [120.603, 14.462], [120.389, 14.462], [120.296, 14.802], [120.055, 14.894], [120.016, 15.262], [119.891, 15.802], [120.102, 15.818], [120.234, 15.612], [120.384, 15.759], [120.612, 15.816], [120.894, 15.913], [120.876, 16.088], [121.173, 16.057], [121.267, 15.758], [121.496, 15.946], [121.884, 16.253], [122.082, 16.514], [122.244, 16.507], [122.205, 16.243], [121.76, 16.077], [121.555, 15.9], [121.616, 15.654], [121.373, 15.321], [121.419, 15.217]]]]}, "properties": {"name": "Central Luzon", "iso2": "PH-03", "admin_level": 3, "osm_id": 1552195, "countrylevel_id": "iso2:PH-03", "osm_data": {"localname": "Central Luzon", "official_name": "", "alltags": {"name:en": "Central Luzon", "name:es": "Luzón Central", "name:ja": "中部ルソン", "name:tl": "Gitnang Luzon", "name:ilo": "Tengnga a Luzon", "name:pag": "Pegley na Luzon", "name:pam": "Kalibudtarang Luzon"}}, "center_lat": 15.39, "center_lon": 120.82, "area_m2": 21033258125, "timezone": "Asia/Manila", "population": 11218177, "wikidata_id": "Q13617", "wikipedia_id": "en:Central Luzon"}}