{"type": "Feature", "geometry": {"type": "Polygon", "coordinates": [[[123.547, 8.625], [123.546, 8.623], [123.548, 8.51], [123.554, 8.229], [123.653, 8.019], [123.675, 7.953], [123.596, 7.835], [123.46, 7.812], [123.406, 7.358], [123.098, 7.706], [123.097, 7.706], [123.004, 7.48], [122.807, 7.491], [122.719, 7.784], [122.547, 7.734], [122.355, 7.467], [122.158, 6.908], [121.938, 6.965], [121.905, 7.15], [122.014, 7.279], [122.252, 7.986], [122.464, 8.073], [122.907, 8.144], [123.064, 8.515], [123.27, 8.512], [123.546, 8.625], [123.547, 8.625]]]}, "properties": {"name": "Zamboanga Peninsula", "iso2": "PH-09", "admin_level": 3, "osm_id": 3777290, "countrylevel_id": "iso2:PH-09", "osm_data": {"localname": "Zamboanga Peninsula", "official_name": "", "alltags": {"name:en": "Zamboanga Peninsula", "name:es": "Península de Zamboanga", "name:ja": "サンボアンガ半島", "name:tl": "Tangway ng Zamboanga", "name:cbk": "Península de Zamboanga", "name:ceb": "Lawis sa Zamboanga"}}, "center_lat": 7.82, "center_lon": 122.84, "area_m2": 14658275438, "timezone": "Asia/Manila", "population": 3629783, "wikidata_id": "Q13682"}}