{"type": "Feature", "geometry": {"type": "Polygon", "coordinates": [[[120.691, 14.782], [120.693, 14.787], [120.699, 14.813], [120.697, 14.833], [120.703, 14.837], [120.725, 14.893], [120.753, 14.926], [120.846, 14.953], [120.953, 15.127], [120.875, 15.179], [121.082, 15.27], [121.316, 15.169], [121.331, 15.133], [121.34, 14.89], [121.096, 14.768], [120.906, 14.701], [120.691, 14.782]]]}, "properties": {"name": "Bulacan", "iso2": "PH-BUL", "admin_level": 4, "osm_id": 1504656, "countrylevel_id": "iso2:PH-BUL", "osm_data": {"localname": "Bulacan", "official_name": "", "alltags": {"int_ref": "PH-BUL", "name:en": "Bulacan", "name:eo": "Bulakano", "name:hu": "Bulacan", "name:ja": "ブラカン", "name:ru": "Булакан", "name:tl": "Bulakan", "name:pam": "Bulacan", "official_name:en": "Province of Bulacan", "official_name:tl": "Lalawigan ng Bulakan", "official_name:pam": "Lalawigan ning Bulacan"}}, "center_lat": 14.99, "center_lon": 121.05, "area_m2": 2632978934, "timezone": "Asia/Manila", "population": 3292071, "wikidata_id": "Q13755", "wikipedia_id": "en:Bulacan"}}