{"type": "Feature", "geometry": {"type": "Polygon", "coordinates": [[[4.982, 51.035], [5.238, 51.261], [5.566, 51.221], [5.847, 51.141], [5.688, 50.812], [5.103, 50.709], [5.17, 50.914], [4.982, 51.035]]]}, "properties": {"name": "Limburg", "iso2": "BE-VLI", "admin_level": 6, "osm_id": 53142, "countrylevel_id": "iso2:BE-VLI", "osm_data": {"localname": "Limburg", "official_name": "Provincie Limburg", "alltags": {"name:ar": "ليمبورخ", "name:ca": "Limburg", "name:en": "Limburg", "name:eo": "Limburgo", "name:es": "Limburgo", "name:fr": "Limbourg", "name:fy": "Limburch", "name:nl": "Limburg", "name:pl": "Limburgia", "name:ru": "Лимбург", "name:sk": "Limbursko", "ref:INS": "70000", "alt_name": "Belgisch Limburg", "alt_name:de": "Belgisch Limburg", "alt_name:fr": "Limbourg belge", "alt_name:nl": "Belgisch Limburg", "alt_name:pl": "Limburgia belgijska", "border_type": "province", "wikipedia:de": "Limburg (Belgien)", "wikipedia:fr": "Province de Limbourg (Belgique)", "official_name": "Provincie Limburg", "official_name:nl": "Provincie Limburg"}}, "center_lat": 50.99, "center_lon": 5.43, "area_m2": 2423694033, "timezone": "Europe/Brussels", "population": 870880, "wikidata_id": "Q1095", "wikipedia_id": "nl:Limburg (Belgische provincie)"}}