{"type": "Feature", "geometry": {"type": "Polygon", "coordinates": [[[4.983, 50.642], [5.019, 50.751], [5.103, 50.709], [5.688, 50.812], [5.682, 50.758], [5.892, 50.755], [6.021, 50.754], [6.405, 50.323], [6.138, 50.13], [6.025, 50.183], [5.512, 50.425], [5.394, 50.379], [4.983, 50.642]]]}, "properties": {"name": "Liège", "iso2": "BE-WLG", "admin_level": 6, "osm_id": 1407192, "countrylevel_id": "iso2:BE-WLG", "osm_data": {"localname": "Liège", "official_name": "", "alltags": {"name:ar": "لييج", "name:bg": "Льеж", "name:ca": "Província de Lieja", "name:cs": "Lutych", "name:el": "Λιέγη", "name:eo": "Lieĝo", "name:es": "Lieja", "name:eu": "Lieja", "name:fa": "لیژ", "name:fr": "Liège", "name:fy": "Luik", "name:gl": "Liexa", "name:he": "לייז'", "name:it": "Liegi", "name:ja": "リエージュ", "name:kk": "Льеж", "name:ko": "리에주", "name:la": "Leodium", "name:lb": "Léck", "name:li": "Luuk", "name:lt": "Lježas", "name:lv": "Lježa", "name:mr": "लीज", "name:nl": "Luik", "name:oc": "Lièja", "name:ru": "Льеж", "name:sk": "Lutyšsko", "name:sr": "Лијеж", "name:th": "ลีแยฌ", "name:uk": "Льєж", "name:wa": "Lîdje", "name:zh": "列日", "ref:INS": "60000", "name:ast": "Liex", "name:nds": "Lüttich", "name:pnb": "لیج", "name:vls": "Luuk", "alt_name:la": "Legia", "old_name:fr": "Liége", "old_name:la": "Leodicum"}}, "center_lat": 50.52, "center_lon": 5.74, "area_m2": 3853326648, "timezone": "Europe/Brussels", "population": 1105326, "wikidata_id": "Q1127", "wikipedia_id": "fr:Province de Liège"}}