{"type": "Feature", "geometry": {"type": "Polygon", "coordinates": [[[5.394, 50.379], [5.512, 50.425], [6.025, 50.183], [5.84, 49.989], [5.783, 49.876], [5.887, 49.709], [5.865, 49.572], [5.819, 49.546], [5.471, 49.497], [5.394, 49.617], [4.969, 49.802], [5.117, 49.921], [5.394, 50.379]]]}, "properties": {"name": "Luxembourg", "iso2": "BE-WLX", "admin_level": 6, "osm_id": 1412581, "countrylevel_id": "iso2:BE-WLX", "osm_data": {"localname": "Luxembourg", "official_name": "", "alltags": {"name:ca": "Luxemburg", "name:en": "Luxembourg", "name:es": "Luxemburgo", "name:fr": "Luxembourg", "name:lb": "Lëtzebuerg", "name:lt": "Liuksemburgas", "name:nl": "Luxemburg", "name:pl": "Luksemburg", "name:ru": "Люксембург", "name:wa": "Lussimbork", "ref:INS": "80000", "website": "http://www.province.luxembourg.be/", "border_type": "departement"}}, "center_lat": 49.96, "center_lon": 5.51, "area_m2": 4453329825, "timezone": "Europe/Brussels", "population": 283227, "wikidata_id": "Q1126", "wikipedia_id": "fr:Province de Luxembourg"}}