{"type": "Feature", "geometry": {"type": "Polygon", "coordinates": [[[5.499, 44.116], [5.675, 44.191], [5.957, 44.398], [6.293, 44.481], [6.633, 44.447], [6.948, 44.655], [6.887, 44.363], [6.689, 44.17], [6.848, 43.954], [6.634, 43.79], [6.213, 43.799], [5.758, 43.731], [5.499, 44.116]]]}, "properties": {"name": "Alpes-de-Haute-Provence", "iso2": "FR-04", "admin_level": 6, "osm_id": 7380, "countrylevel_id": "iso2:FR-04", "osm_data": {"localname": "Alpes-de-Haute-Provence", "official_name": "", "alltags": {"name:br": "Alpoù-Provañs-Uhel", "name:ca": "Alps de l'Alta Provença", "name:el": "Αλπ-ντε-Ωτ-Προβάνς", "name:es": "Alpes de Alta Provenza", "name:fr": "Alpes-de-Haute-Provence", "name:oc": "Aups de Provença Auta", "name:ru": "Альпы Верхнего Прованса", "ref:NUTS": "FR821", "ref:INSEE": "04", "border_type": "departement"}}, "center_lat": 44.11, "center_lon": 6.24, "area_m2": 6994842485, "timezone": "Europe/Paris", "population": 163915, "wikidata_id": "Q3131", "wikipedia_id": "fr:Alpes-de-Haute-Provence"}}