{"type": "Feature", "geometry": {"type": "Polygon", "coordinates": [[[6.931, 43.48], [6.634, 43.79], [6.848, 43.954], [6.689, 44.17], [6.887, 44.363], [7.357, 44.117], [7.713, 44.061], [7.53, 43.784], [7.439, 43.749], [7.412, 43.734], [7.419, 43.725], [7.377, 43.72], [7.376, 43.72], [7.366, 43.721], [7.365, 43.722], [6.931, 43.48]]]}, "properties": {"name": "Maritime Alps", "iso2": "FR-06", "admin_level": 6, "osm_id": 7385, "countrylevel_id": "iso2:FR-06", "osm_data": {"localname": "Alpes-Maritimes", "official_name": "", "alltags": {"name:ar": "الألب البحرية", "name:be": "Альпы Прыморскія", "name:bg": "Алп Маритим", "name:br": "Alpoù-an-Arvor", "name:ca": "Alps Marítims", "name:en": "Maritime Alps", "name:es": "Alpes Marítimos", "name:eu": "Itsas Alpeak", "name:fa": "آلپ-ماریتیم", "name:fr": "Alpes-Maritimes", "name:gl": "Alpes Marítimos", "name:he": "האלפים הימיים", "name:hy": "Ծովափնյա Ալպեր", "name:it": "Alpi Marittime", "name:ja": "アルプ＝マリティーム県", "name:ka": "ზღვისპირა ალპები", "name:kk": "Альпі-Маритим", "name:ko": "알프마리팀", "name:la": "Alpes Maritimae", "name:lt": "Pajūrio Alpės", "name:lv": "Piejūras Alpi", "name:mr": "आल्प-मरितीम", "name:oc": "Aups Maritims", "name:pl": "Alpy Nadmorskie", "name:pt": "Alpes Marítimos", "name:ru": "Приморские Альпы", "name:sr": "Приморски Алпи", "name:tg": "Алп Приморские", "name:th": "จังหวัดอาลป์-มารีตีม", "name:uk": "Приморські Альпи", "name:zh": "滨海阿尔卑斯省", "name:frp": "Arpes-Marenes", "name:lij": "Alpi do Mâ", "name:pms": "Alp Marìtime", "ref:NUTS": "FR823", "ref:INSEE": "06", "alt_name:de": "Meeralpen", "border_type": "departement"}}, "center_lat": 43.94, "center_lon": 7.12, "area_m2": 4295532269, "timezone": "Europe/Paris", "population": 1083310, "wikidata_id": "Q3139", "wikipedia_id": "fr:Alpes-Maritimes"}}