{"type": "Feature", "geometry": {"type": "Polygon", "coordinates": [[[-3.661, 48.656], [-3.586, 48.769], [-3.083, 48.813], [-2.633, 48.538], [-2.328, 48.674], [-2.123, 48.603], [-2.05, 48.625], [-2.049, 48.625], [-2.048, 48.624], [-2.047, 48.625], [-2.046, 48.625], [-2.006, 48.568], [-1.946, 48.54], [-1.571, 48.626], [-1.482, 48.487], [-1.07, 48.509], [-1.023, 47.994], [-1.239, 47.81], [-1.246, 47.777], [-2.097, 47.631], [-2.457, 47.448], [-2.781, 47.622], [-3.089, 47.565], [-3.341, 47.709], [-3.452, 47.696], [-3.53, 47.774], [-3.518, 47.803], [-3.524, 47.811], [-3.535, 47.813], [-3.533, 47.819], [-3.533, 47.82], [-3.538, 47.816], [-3.536, 47.813], [-3.524, 47.81], [-3.523, 47.801], [-3.54, 47.763], [-3.837, 47.797], [-3.96, 47.897], [-4.193, 47.795], [-4.367, 47.795], [-4.387, 47.926], [-4.502, 48.002], [-4.697, 48.026], [-4.573, 48.082], [-4.572, 48.081], [-4.529, 48.087], [-4.527, 48.086], [-4.457, 48.097], [-4.445, 48.097], [-4.306, 48.196], [-4.462, 48.239], [-4.554, 48.211], [-4.553, 48.295], [-4.383, 48.275], [-4.308, 48.297], [-4.26, 48.28], [-4.229, 48.297], [-4.231, 48.314], [-4.231, 48.313], [-4.244, 48.311], [-4.244, 48.31], [-4.609, 48.338], [-4.75, 48.544], [-4.036, 48.712], [-3.661, 48.656]]]}, "properties": {"name": "Brittany", "iso2": "FR-BRE", "admin_level": 4, "osm_id": 102740, "countrylevel_id": "iso2:FR-BRE", "osm_data": {"localname": "Bretagne", "official_name": "", "alltags": {"name:ar": "بريتاني", "name:be": "Брэтань", "name:br": "Breizh", "name:ca": "Bretanya", "name:cs": "Bretaň", "name:en": "Brittany", "name:eo": "Bretonio", "name:es": "Bretaña", "name:eu": "Bretainia", "name:fr": "Bretagne", "name:ga": "An Bhriotáin", "name:is": "Bretanía", "name:it": "Bretagna", "name:la": "Britannia Minor", "name:lt": "Bretanė", "name:oc": "Bretanha", "name:pt": "Bretanha", "name:ro": "Bretania", "name:ru": "Бретань", "name:sk": "Bretónsko", "name:uk": "Бретань", "website": "https://www.bretagne.bzh/", "name:ast": "Bretaña", "ref:NUTS": "FR52", "ref:INSEE": "53", "population": "3217767", "old_name:de": "Kleinbritannien", "name:fr-x-gallo": "Bertègn"}}, "center_lat": 48.18, "center_lon": -2.84, "area_m2": 27435361787, "timezone": "Europe/Paris", "population": 3318904, "wikidata_id": "Q12130", "wikipedia_id": "fr:Région Bretagne"}}