{"type": "Feature", "geometry": {"type": "Polygon", "coordinates": [[[8.574, 42.382], [8.727, 42.562], [9.106, 42.724], [9.341, 42.729], [9.532, 42.549], [9.556, 42.143], [9.556, 42.142], [9.402, 41.859], [9.216, 41.368], [8.794, 41.556], [8.782, 41.924], [8.574, 42.382]]]}, "properties": {"name": "Corsica", "iso2": "FR-COR", "admin_level": 4, "osm_id": 76910, "countrylevel_id": "iso2:FR-COR", "osm_data": {"localname": "Corse", "official_name": "", "alltags": {"name:ar": "كورسيكا", "name:be": "Корсіка", "name:br": "Korsika", "name:ca": "Còrsega", "name:co": "Corsica", "name:cs": "Korsika", "name:el": "Κορσική", "name:en": "Corsica", "name:eo": "Korsiko", "name:es": "Córcega", "name:eu": "Korsika", "name:fi": "Korsika", "name:fr": "Corse", "name:hr": "Korzika", "name:hu": "Korzika", "name:is": "Korsíka", "name:it": "Corsica", "name:ja": "コルシカ島", "name:kn": "ಕೋರ್ಸಿಕ", "name:ku": "Korsîka", "name:la": "Corsica", "name:lv": "Korsika", "name:nl": "Corsica", "name:oc": "Corsega", "name:pl": "Korsyka", "name:pt": "Córsega", "name:ro": "Corsica", "name:ru": "Корсика", "name:sk": "Korzika", "name:sl": "Korzika", "name:uk": "Корсика", "website": "https://www.corse.fr/", "alt_name": "Collectivité territoriale de Corse", "ref:NUTS": "FR83", "ref:INSEE": "94", "population": "314486"}}, "center_lat": 42.15, "center_lon": 9.11, "area_m2": 8727595709, "timezone": "Europe/Paris", "population": 334938, "wikidata_id": "Q14112", "wikipedia_id": "fr:Corse"}}