{"type": "Feature", "geometry": {"type": "Polygon", "coordinates": [[[-1.117, 49.345], [-0.227, 49.286], [0.296, 49.43], [0.363, 49.441], [0.069, 49.525], [0.206, 49.714], [0.572, 49.849], [1.107, 49.937], [1.38, 50.065], [1.784, 49.758], [1.714, 49.409], [1.704, 49.232], [1.608, 49.079], [1.501, 48.941], [1.328, 48.76], [0.816, 48.671], [0.968, 48.524], [0.798, 48.195], [0.214, 48.474], [-0.055, 48.382], [-0.272, 48.507], [-0.86, 48.502], [-1.07, 48.509], [-1.482, 48.487], [-1.571, 48.626], [-1.608, 49.197], [-1.808, 49.372], [-1.859, 49.649], [-1.289, 49.693], [-1.117, 49.345]]]}, "properties": {"name": "Normandy", "iso2": "FR-NOR", "admin_level": 4, "osm_id": 3793170, "countrylevel_id": "iso2:FR-NOR", "osm_data": {"localname": "Normandie", "official_name": "", "alltags": {"name:ar": "نورماندي", "name:be": "Нармандыя", "name:br": "Normandi", "name:ca": "Normandia", "name:cs": "Normandie", "name:en": "Normandy", "name:eo": "Normandio", "name:es": "Normandía", "name:et": "Normandia", "name:eu": "Normandia", "name:fr": "Normandie", "name:he": "נורמנדי", "name:hu": "Normandia", "name:is": "Normandí", "name:it": "Normandia", "name:ja": "ノルマンディー", "name:la": "Normannia", "name:nl": "Normandië", "name:oc": "Normandia", "name:pl": "Normandia", "name:pt": "Normandia", "name:ro": "Normandia", "name:ru": "Нормандия", "name:sk": "Normandia", "name:uk": "Нормандія", "ref:NUTS": "FR25", "ref:INSEE": "28", "population": "3568476", "start_date": "2016-01-01"}}, "center_lat": 49.12, "center_lon": 0.11, "area_m2": 30103342267, "timezone": "Europe/Paris", "population": 3330478, "wikidata_id": "Q18677875", "wikipedia_id": "fr:Normandie (région administrative)"}}