{"type": "Feature", "geometry": {"type": "Polygon", "coordinates": [[[-1.132, 46.305], [-0.75, 46.304], [-0.603, 46.361], [-0.658, 46.7], [-0.892, 46.976], [-0.242, 47.106], [-0.102, 47.065], [0.054, 47.163], [0.692, 46.974], [0.867, 46.749], [1.177, 46.384], [1.416, 46.347], [1.544, 46.419], [2.168, 46.424], [2.281, 46.42], [2.566, 46.143], [2.492, 45.738], [2.508, 45.479], [2.19, 45.202], [2.063, 44.977], [1.824, 44.928], [1.448, 45.019], [1.316, 44.741], [1.075, 44.577], [1.064, 44.379], [0.742, 44.065], [0.076, 43.983], [-0.19, 43.928], [-0.243, 43.585], [-0.097, 43.582], [-0.018, 43.27], [-0.293, 42.993], [-0.313, 42.849], [-0.723, 42.918], [-1.354, 43.028], [-1.379, 43.25], [-1.73, 43.296], [-1.785, 43.35], [-1.524, 43.53], [-1.44, 43.697], [-1.254, 44.467], [-1.152, 45.484], [-0.708, 45.327], [-0.801, 45.474], [-1.238, 45.708], [-1.082, 45.898], [-1.132, 46.305]]]}, "properties": {"name": "New Aquitaine", "iso2": "FR-NAQ", "admin_level": 4, "osm_id": 3792880, "countrylevel_id": "iso2:FR-NAQ", "osm_data": {"localname": "Nouvelle-Aquitaine", "official_name": "", "alltags": {"name:ar": "آكيتين الجديدة", "name:ca": "Nova Aquitània", "name:cs": "Nová Akvitánie", "name:el": "Νέα Ακουιτανία", "name:en": "New Aquitaine", "name:eo": "Nova Akvitanio", "name:es": "Nueva Aquitania", "name:eu": "Akitania Berria", "name:fr": "Nouvelle-Aquitaine", "name:is": "Nýja-Akvitanía", "name:it": "Nuova Aquitania", "name:ja": "ヌーヴェル＝アキテーヌ地域圏", "name:nl": "Nieuw-Aquitanië", "name:oc": "Aquitània Nòva", "name:pl": "Nowa Akwitania", "old_name": "Aquitaine-Limousin-Poitou-Charentes", "ref:NUTS": "FR61", "ref:INSEE": "75", "start_date": "2016-01-01", "old_name:ar": "آكيتن-ليموزين-بواتو-شارانت", "old_name:eo": "Akvitanio-Limoĝio-Puatuo-Ĉarentoj", "old_name:es": "Aquitania-Lemosín-Poitou-Charentes", "old_name:fr": "Aquitaine-Limousin-Poitou-Charentes"}}, "center_lat": 45.21, "center_lon": 0.21, "area_m2": 84742112326, "timezone": "Europe/Paris", "population": 5956978, "wikidata_id": "Q18678082", "wikipedia_id": "fr:Nouvelle-Aquitaine"}}