{"type": "Feature", "geometry": {"type": "Polygon", "coordinates": [[[3.175, 42.435], [2.945, 42.48], [2.481, 42.341], [2.257, 42.439], [2.012, 42.353], [1.73, 42.492], [1.726, 42.503], [1.739, 42.555], [1.787, 42.574], [1.603, 42.626], [1.469, 42.606], [1.442, 42.604], [1.357, 42.72], [0.858, 42.826], [0.66, 42.691], [0.474, 42.7], [0.002, 42.686], [-0.313, 42.849], [-0.293, 42.993], [-0.018, 43.27], [-0.097, 43.582], [-0.243, 43.585], [-0.19, 43.928], [0.076, 43.983], [0.742, 44.065], [1.064, 44.379], [1.075, 44.577], [1.316, 44.741], [1.448, 45.019], [1.824, 44.928], [2.063, 44.977], [2.207, 44.616], [2.487, 44.657], [2.63, 44.873], [2.851, 44.871], [2.982, 44.645], [3.142, 44.903], [3.362, 44.971], [3.438, 44.858], [3.862, 44.744], [3.998, 44.46], [4.257, 44.265], [4.649, 44.27], [4.74, 43.925], [4.603, 43.686], [4.23, 43.46], [4.101, 43.554], [3.908, 43.518], [3.509, 43.272], [3.24, 43.213], [3.044, 42.838], [3.052, 42.544], [3.175, 42.435]]]}, "properties": {"name": "Occitania", "iso2": "FR-OCC", "admin_level": 4, "osm_id": 3792883, "countrylevel_id": "iso2:FR-OCC", "osm_data": {"localname": "Occitanie", "official_name": "", "alltags": {"name:ar": "أوسيتاني", "name:br": "Okitania", "name:ca": "Occitània", "name:cs": "Okcitánie", "name:da": "Occitanien", "name:el": "Οξιτανία", "name:en": "Occitania", "name:eo": "Okcitanio", "name:es": "Occitania", "name:fa": "اکسیتنی", "name:fr": "Occitanie", "name:it": "Occitania", "name:ja": "オクシタニー", "name:lt": "Oksitanija", "name:nl": "Occitanië", "name:no": "Oksitania", "name:oc": "Occitania", "name:pl": "Oksytania", "name:pt": "Occitânia", "name:ro": "Occitania", "name:ru": "Окситания", "name:sv": "Occitanien", "name:ur": "اوکیتانی", "alt_name": "Occitanie Pyrénées-Méditerranée", "ref:NUTS": "FR62", "ref:INSEE": "76", "start_date": "2016-01-01", "alt_name:ar": "الأوكيتانية", "is_in:country": "France"}}, "center_lat": 43.7, "center_lon": 2.14, "area_m2": 73386066114, "timezone": "Europe/Paris", "population": 5845102, "wikidata_id": "Q18678265"}}