{"type": "Feature", "geometry": {"type": "Polygon", "coordinates": [[[-149.249, -17.736], [-149.578, -17.741], [-149.621, -17.562], [-149.341, -17.544], [-149.249, -17.736]]]}, "properties": {"name": "French Polynesia", "iso2": "FR-PF", "admin_level": 3, "osm_id": 3412620, "countrylevel_id": "iso2:FR-PF", "osm_data": {"localname": "Polynésie Française", "official_name": "", "alltags": {"name:af": "Franse Polynesië", "name:ak": "Frɛnkye Pɔlenehyia", "name:am": "የፈረንሳይ ፖሊኔዢያ", "name:an": "Polinesia Franzesa", "name:ar": "بولونيزيا الفرنسية", "name:az": "Fransa Polineziyası", "name:be": "Французская Палінезія", "name:bg": "Френска Полинезия", "name:bm": "Faransi ka polinezi", "name:bn": "ফরাসী পলিনেশিয়া", "name:br": "Polinezia Frañs", "name:bs": "Francuska Polinezija", "name:ca": "Polinèsia Francesa", "name:cs": "Francouzská Polynésie", "name:cy": "Polynesia Ffrengig", "name:da": "Fransk Polynesien", "name:dv": "ފަރަންސޭސި ޕޮލިނޭޝިއާ", "name:dz": "ཕྲཱནས྄་ཀྱི་པོ་ལི་ནི་ཤི་ཡ", "name:ee": "Frentsi Pɔlinesia nutome", "name:el": "Γαλλική Πολυνησία", "name:en": "French Polynesia", "name:eo": "Franca Polinezio", "name:es": "Polinesia Francesa", "name:et": "Prantsuse Polüneesia", "name:eu": "Frantziar Polinesia", "name:fa": "پلی‌نزی فرانسه", "name:ff": "Polinesii Farayse", "name:fi": "Ranskan Polynesia", "name:fo": "Franska Polynesia", "name:fr": "Polynésie française", "name:fy": "Frânsk Polyneezje", "name:ga": "Polainéis na Fraince", "name:gd": "French Polynesia", "name:gl": "Polinesia francesa", "name:gu": "ફ્રેંચ પોલિનેશિયા", "name:ha": "Folinesiya Ta Faransa", "name:he": "פולינזיה הצרפתית", "name:hi": "फ्रेंच पोलीनेशिया", "name:hr": "Francuska Polinezija", "name:hu": "Francia Polinézia", "name:ia": "Polynesia francese", "name:id": "Polinesia Perancis", "name:io": "Franca Polinezia", "name:is": "Franska Pólýnesía", "name:it": "Polinesia francese", "name:ja": "フランス領ポリネシア", "name:jv": "Polinesia Perancis", "name:ka": "ფრანგული პოლინეზია", "name:ki": "Polinesia ya Ufaransa", "name:kk": "Франция Полинезиясы", "name:km": "ហ្វ្រេន​ប៉ូលី​ណេស៊ី", "name:kn": "ಫ್ರೆಂಚ್ ಪೋಲಿನೇಶಿಯಾ", "name:ko": "프랑스령 폴리네시아", "name:ks": "فرٛانسی پولِنیشِیا", "name:ku": "Polînezyaya Fransî", "name:kw": "Polynesi Frynkek", "name:la": "Polynesia Francica", "name:lb": "Franséisch-Polynesien", "name:lg": "Polinesiya enfalansa", "name:ln": "Polinezi ya Falánsɛ", "name:lo": "ເຟັນຣໂພລິນີເຊຍ", "name:lt": "Prancūzijos Polinezija", "name:lv": "Franču Polinēzija", "name:mg": "Polynezia frantsay", "name:mi": "Porinīhia Wīwī", "name:mk": "Француска Полинезија", "name:ml": "ഫ്രഞ്ച് പോളിനേഷ്യ", "name:mn": "Францын Полинез", "name:mr": "फ्रेंच पॉलिनेशिया", "name:ms": "Polinesia Perancis", "name:mt": "Polinesja Franċiża", "name:my": "ပြင်သစ် ပေါ်လီနေးရှား", "name:nb": "Fransk Polynesia", "name:ne": "फ्रान्सेली पोलिनेसिया", "name:nl": "Frans-Polynesië", "name:nn": "Fransk Polynesia", "name:oc": "Polinesia Francesa", "name:or": "ଫ୍ରେଞ୍ଚ ପଲିନେସିଆ", "name:os": "Францы Полинези", "name:pl": "Polinezja Francuska", "name:pt": "Polinésia Francesa", "name:qu": "Phransis Pulinisya", "name:rm": "Polinesia Franzosa", "name:rn": "Polineziya y'Abafaransa", "name:ro": "Polinezia Franceză", "name:ru": "Французская Полинезия", "name:se": "Frankriikka Polynesia", "name:sg": "Polinezïi tî farânzi", "name:sh": "Francuska Polinezija", "name:si": "ප්‍රංශ පොලිනීසියාව", "name:sk": "Francúzska Polynézia", "name:sl": "Francoska Polinezija", "name:sr": "Француска Полинезија", "name:sv": "Franska Polynesien", "name:sw": "Polynesia ya Kifaransa", "name:ta": "பிரெஞ்சு பொலினீசியா", "name:te": "ఫ్రెంచ్ పోలినిషియా", "name:th": "เฟรนช์โปลินีเซีย", "name:ti": "የፈረንሳይ ፖሊኔዢያ", "name:to": "Polinisia fakafalanisē", "name:tr": "Fransız Polinezyası", "name:tt": "Француз Полинезиясе", "name:ty": "Pōrīnetia Farāni", "name:ug": "Fransiyige Qarashliq Polinéziye", "name:uk": "Французька Полінезія", "name:ur": "فرانسیسی پولینیشیا", "name:vi": "Polynésie thuộc Pháp", "name:wo": "Polineesi gu Faraas", "name:yo": "Orílẹ́ède Firenṣi Polinesia", "name:zh": "法属波利尼西亚", "name:zu": "i-French Polynesia", "currency": "XPF", "int_name": "French Polynesia", "maritime": "yes", "name:ast": "Polinesia Francesa", "name:bpy": "ফ্যাঞ্চ পলিনেসিয়া", "name:chr": "ᎠᏂᎦᎸᏣ ᏆᎵᏂᏏᎠ", "name:frp": "Polinèsie francêsa", "name:fur": "Polinesie francês", "name:kab": "Pulunizi tafransist", "name:ksh": "Franzüüsesch Pollineesije", "name:lij": "Polinesia Françeise", "name:nan": "Hoat-kok Polynésie", "name:pam": "French Polynesia", "name:smg": "Prancūzėjės Polinezėjė", "ref:INSEE": "987", "population": "268270", "border_type": "territorial", "description": "France, collectivités d'outre-mer, territoires régis par l’article 74 de la Constitution", "is_in:ocean": "Pacific", "name:be-tarask": "Француская Палінэзія", "is_in:continent": "Oceania"}, "iso1": "PF"}, "center_lat": -15.38, "center_lon": -145.34, "area_m2": 3900649769, "timezone": "Pacific/Tahiti", "population": 275918, "wikidata_id": "Q30971", "wikipedia_id": "fr:Polynésie française"}}