{"type": "Feature", "geometry": {"type": "Polygon", "coordinates": [[[4.23, 43.46], [4.603, 43.686], [4.74, 43.925], [4.649, 44.27], [4.651, 44.329], [5.061, 44.308], [5.499, 44.116], [5.675, 44.191], [5.494, 44.338], [5.801, 44.707], [6.128, 44.862], [6.261, 45.127], [6.63, 45.109], [6.75, 44.907], [7.065, 44.714], [6.948, 44.655], [6.887, 44.363], [7.357, 44.117], [7.713, 44.061], [7.53, 43.784], [7.439, 43.749], [7.412, 43.734], [7.419, 43.725], [7.377, 43.72], [7.376, 43.72], [7.366, 43.721], [7.365, 43.722], [6.931, 43.48], [6.734, 43.407], [6.681, 43.2], [6.126, 43.078], [5.672, 43.18], [5.452, 43.203], [5.341, 43.345], [4.757, 43.35], [4.23, 43.46]]]}, "properties": {"name": "Provence-Alpes-Côte d'Azur", "iso2": "FR-PAC", "admin_level": 4, "osm_id": 8654, "countrylevel_id": "iso2:FR-PAC", "osm_data": {"localname": "Provence-Alpes-Côte d'Azur", "official_name": "", "alltags": {"name:ar": "بروفنس ألب كوت دازور", "name:be": "Праванс-Альпы-Лазурны бераг", "name:br": "Provañs-Alpoù-Aod an Azur", "name:ca": "Provença-Alps-Costa Blava", "name:el": "Προβηγκία-Άλπεις-Κυανή Ακτή", "name:en": "Provence-Alpes-Côte d'Azur", "name:eo": "Provenco-Alpoj-Bordo Lazura", "name:es": "Provenza-Alpes-Costa Azul", "name:eu": "Provence-Alpes-Côte d'Azur", "name:it": "Provenza-Alpi-Costa Azzurra", "name:lt": "Provansas-Alpės-Žydrasis Krantas", "name:oc": "Provença-Aups-Còsta d'Azur", "name:pl": "Prowansja-Alpy-Lazurowe Wybrzeże", "name:pt": "Provença-Alpes-Costa Azul", "name:ro": "Provenţa-Alpi-Coasta de Azur", "name:ru": "Прованс-Альпы-Лазурный Берег", "name:sl": "Provansa-Alpe-Azurna obala", "name:uk": "Прованс-Альпи-Лазурний берег", "website": "http://www.regionpaca.fr/", "name:ast": "Provenza-Alpes-Costa Azul", "ref:NUTS": "FR82", "ref:INSEE": "93", "population": "4916069", "border_type": "region"}}, "center_lat": 43.96, "center_lon": 6.06, "area_m2": 31844225003, "timezone": "Europe/Paris", "population": 5030890, "wikidata_id": "Q15104", "wikipedia_id": "fr:Provence-Alpes-Côte d'Azur"}}