{"type": "Feature", "geometry": {"type": "Polygon", "coordinates": [[[27.4, 39.371], [27.441, 39.403], [27.471, 39.407], [27.509, 39.391], [27.566, 39.346], [27.589, 39.348], [27.649, 39.329], [27.685, 39.339], [27.721, 39.362], [27.747, 39.362], [27.769, 39.321], [27.802, 39.307], [27.844, 39.333], [27.859, 39.329], [27.896, 39.346], [27.909, 39.364], [27.934, 39.337], [27.942, 39.303], [27.935, 39.268], [27.956, 39.245], [28.007, 39.229], [28.019, 39.212], [28.071, 39.198], [28.092, 39.127], [28.143, 39.106], [28.154, 39.082], [28.194, 39.072], [28.267, 39.076], [28.314, 39.085], [28.362, 39.126], [28.402, 39.127], [28.45, 39.14], [28.535, 39.131], [28.584, 39.139], [28.602, 39.175], [28.632, 39.168], [28.626, 39.132], [28.609, 39.11], [28.666, 39.102], [28.711, 39.08], [28.757, 39.074], [28.783, 39.078], [28.794, 39.057], [28.826, 39.081], [28.907, 39.071], [28.936, 39.053], [28.94, 39.018], [28.924, 38.997], [28.913, 38.958], [28.938, 38.954], [28.952, 38.915], [28.969, 38.909], [28.987, 38.868], [29.023, 38.862], [29.101, 38.87], [29.136, 38.865], [29.043, 38.748], [28.997, 38.721], [28.937, 38.705], [28.872, 38.699], [28.838, 38.649], [28.822, 38.591], [28.827, 38.579], [28.804, 38.539], [28.809, 38.502], [28.826, 38.469], [28.822, 38.445], [28.754, 38.368], [28.797, 38.329], [28.834, 38.309], [28.87, 38.233], [28.812, 38.195], [28.785, 38.183], [28.731, 38.174], [28.73, 38.131], [28.68, 38.094], [28.639, 38.091], [28.594, 38.095], [28.563, 38.106], [28.528, 38.104], [28.492, 38.122], [28.461, 38.142], [28.446, 38.165], [28.455, 38.187], [28.481, 38.199], [28.49, 38.244], [28.462, 38.282], [28.431, 38.295], [28.36, 38.301], [28.294, 38.327], [28.278, 38.389], [28.246, 38.397], [28.194, 38.398], [28.162, 38.405], [28.029, 38.399], [27.951, 38.412], [27.907, 38.405], [27.849, 38.373], [27.855, 38.331], [27.831, 38.329], [27.726, 38.338], [27.716, 38.366], [27.728, 38.389], [27.707, 38.414], [27.7, 38.45], [27.678, 38.459], [27.615, 38.5], [27.592, 38.471], [27.547, 38.46], [27.515, 38.484], [27.483, 38.523], [27.434, 38.557], [27.367, 38.566], [27.354, 38.535], [27.305, 38.543], [27.25, 38.574], [27.225, 38.573], [27.236, 38.608], [27.236, 38.648], [27.228, 38.694], [27.214, 38.723], [27.164, 38.735], [27.142, 38.755], [27.118, 38.79], [27.223, 38.843], [27.235, 38.907], [27.268, 38.908], [27.278, 38.923], [27.313, 38.927], [27.335, 38.919], [27.346, 38.951], [27.394, 38.943], [27.402, 38.923], [27.455, 38.93], [27.472, 38.95], [27.472, 38.99], [27.549, 39.039], [27.524, 39.07], [27.518, 39.096], [27.495, 39.117], [27.494, 39.139], [27.449, 39.152], [27.449, 39.186], [27.48, 39.2], [27.47, 39.222], [27.48, 39.268], [27.462, 39.291], [27.413, 39.328], [27.4, 39.371]]]}, "properties": {"name": "Manisa", "iso2": "TR-45", "admin_level": 4, "osm_id": 223168, "countrylevel_id": "iso2:TR-45", "osm_data": {"localname": "Manisa", "official_name": "", "alltags": {"name:ar": "مانيسا", "name:az": "Manisa ili", "name:be": "Правінцыя Маніса", "name:bg": "Маниса", "name:br": "Manisa", "name:bs": "Manisa", "name:ca": "Província de Manisa", "name:cs": "Manisa", "name:cv": "Маниса", "name:el": "Επαρχία Μανίσας", "name:en": "Manisa", "name:eo": "Provinco Manisa", "name:es": "Provincia de Manisa", "name:et": "Manisa provints", "name:eu": "Manisa probintzia", "name:fa": "استان مانیسا", "name:fi": "Manisan maakunta", "name:fr": "Manisa", "name:hu": "Manisa", "name:hy": "Մանիսայի նահանգ", "name:id": "Provinsi Manisa", "name:it": "Provincia di Manisa", "name:ja": "マニサ県", "name:ka": "მანისის პროვინცია", "name:ko": "마니사 주", "name:la": "Manisa", "name:lv": "Manisas ils", "name:mk": "Маниса", "name:mr": "मनिसा प्रांत", "name:ms": "Wilayah Manisa", "name:nl": "Manisa", "name:nn": "Provinsen Manisa", "name:no": "Manisa", "name:os": "Маниса", "name:pl": "Manisa", "name:pt": "Manisa", "name:ro": "Provincia Manisa", "name:ru": "Маниса", "name:sl": "Manisa", "name:sr": "Маниса", "name:sv": "Manisa", "name:sw": "Mkoa wa Manisa", "name:tg": "Вилояти Маниса", "name:tk": "Manisa", "name:tl": "Manisa Province", "name:tr": "Manisa", "name:ug": "مانىسا ۋىلايىتى", "name:uk": "Маніса", "name:ur": "صوبہ مانیسا", "name:zh": "马尼萨省", "network": "TR-provinces", "ref:NUTS": "TR331"}}, "center_lat": 38.76, "center_lon": 28.13, "area_m2": 13053945981, "timezone": "Europe/Istanbul", "population": 1429643, "wikidata_id": "Q130553", "wikipedia_id": "en:Manisa Province"}}