{"type": "Feature", "geometry": {"type": "Polygon", "coordinates": [[[36.712, 36.827], [36.72, 36.857], [36.755, 36.876], [36.785, 36.907], [36.815, 36.92], [36.862, 36.892], [36.883, 36.896], [36.88, 36.927], [36.927, 36.956], [36.952, 37], [36.951, 37.014], [36.994, 37.035], [37.017, 36.996], [37.064, 36.996], [37.049, 36.972], [37.089, 36.904], [37.153, 36.891], [37.165, 36.883], [37.257, 36.877], [37.298, 36.86], [37.308, 36.846], [37.303, 36.782], [37.316, 36.76], [37.352, 36.743], [37.359, 36.725], [37.389, 36.73], [37.391, 36.799], [37.411, 36.824], [37.446, 36.821], [37.465, 36.786], [37.532, 36.739], [37.551, 36.735], [37.581, 36.709], [37.499, 36.676], [37.471, 36.635], [37.444, 36.633], [37.425, 36.644], [37.284, 36.67], [37.278, 36.664], [37.217, 36.675], [37.163, 36.657], [37.142, 36.677], [37.106, 36.672], [37.086, 36.635], [37.058, 36.655], [37.021, 36.666], [37.016, 36.696], [37.04, 36.703], [37.037, 36.736], [36.997, 36.74], [36.998, 36.766], [36.971, 36.764], [36.924, 36.786], [36.885, 36.779], [36.793, 36.797], [36.752, 36.819], [36.712, 36.827]]]}, "properties": {"name": "Kilis", "iso2": "TR-79", "admin_level": 4, "osm_id": 223140, "countrylevel_id": "iso2:TR-79", "osm_data": {"localname": "Kilis", "official_name": "", "alltags": {"name:ar": "كلس", "name:en": "Kilis", "name:fa": "کیلیس", "name:ru": "Килис", "name:tr": "Kilis", "name:ug": "كىلىس", "name:uk": "Кіліс", "name:ur": "کیلیس", "network": "TR-provinces", "name:azb": "کیلیس", "name:ckb": "کلیس", "name:lrc": "کیلیس", "name:pnb": "کیلس", "ref:NUTS": "TRC13", "alt_name:ar": "كلز;كيليس", "wikipedia:ar": "كلس (محافظة)", "wikipedia:tr": "Kilis (il)"}}, "center_lat": 36.8, "center_lon": 37.13, "area_m2": 1401037411, "timezone": "Europe/Istanbul", "population": 142541, "wikidata_id": "Q128978"}}