{"type": "Feature", "geometry": {"type": "Polygon", "coordinates": [[[126.98, 39.041], [127, 39.077], [126.99, 39.108], [127.008, 39.134], [127.038, 39.12], [127.068, 39.136], [127.068, 39.194], [127.038, 39.191], [127.029, 39.212], [127.044, 39.231], [127.024, 39.252], [127.034, 39.272], [127.075, 39.291], [127.097, 39.292], [127.089, 39.322], [127.106, 39.344], [127.096, 39.375], [127.115, 39.389], [127.18, 39.366], [127.199, 39.379], [127.251, 39.38], [127.286, 39.411], [127.349, 39.41], [127.377, 39.419], [127.431, 39.412], [127.436, 39.385], [127.393, 39.386], [127.378, 39.361], [127.426, 39.353], [127.441, 39.368], [127.474, 39.352], [127.469, 39.336], [127.438, 39.335], [127.406, 39.321], [127.368, 39.273], [127.364, 39.25], [127.376, 39.211], [127.445, 39.164], [127.498, 39.162], [127.527, 39.145], [127.548, 39.152], [127.584, 39.146], [127.606, 39.157], [127.644, 39.117], [127.669, 39.103], [127.694, 39.115], [127.719, 39.11], [127.75, 39.129], [127.796, 39.06], [127.855, 38.994], [127.873, 38.965], [127.903, 38.951], [127.929, 38.924], [127.951, 38.913], [128.008, 38.857], [128.084, 38.845], [128.126, 38.819], [128.142, 38.791], [128.184, 38.756], [128.192, 38.721], [128.215, 38.735], [128.253, 38.733], [128.277, 38.742], [128.355, 38.675], [128.363, 38.639], [128.359, 38.615], [128.311, 38.594], [128.306, 38.57], [128.314, 38.514], [128.283, 38.437], [128.272, 38.433], [128.205, 38.375], [128.176, 38.364], [128.158, 38.343], [128.117, 38.338], [128.067, 38.308], [127.986, 38.321], [127.953, 38.316], [127.882, 38.331], [127.875, 38.317], [127.821, 38.307], [127.769, 38.335], [127.742, 38.341], [127.691, 38.325], [127.618, 38.325], [127.574, 38.334], [127.506, 38.301], [127.476, 38.315], [127.451, 38.313], [127.385, 38.337], [127.363, 38.327], [127.306, 38.317], [127.223, 38.328], [127.11, 38.296], [127.096, 38.281], [127.069, 38.264], [127.042, 38.259], [127, 38.216], [126.976, 38.199], [126.965, 38.169], [126.949, 38.158], [126.925, 38.203], [126.897, 38.205], [126.868, 38.23], [126.864, 38.248], [126.881, 38.263], [126.87, 38.293], [126.891, 38.325], [126.876, 38.344], [126.849, 38.327], [126.823, 38.35], [126.804, 38.345], [126.788, 38.378], [126.756, 38.405], [126.741, 38.428], [126.72, 38.441], [126.72, 38.481], [126.693, 38.518], [126.724, 38.541], [126.717, 38.584], [126.695, 38.597], [126.67, 38.631], [126.707, 38.636], [126.722, 38.65], [126.789, 38.671], [126.822, 38.709], [126.818, 38.73], [126.842, 38.758], [126.873, 38.766], [126.868, 38.807], [126.885, 38.832], [126.868, 38.869], [126.91, 38.911], [126.957, 38.894], [126.988, 38.905], [127.002, 38.938], [127.028, 38.959], [127.01, 38.983], [127.001, 39.021], [126.98, 39.041]]]}, "properties": {"name": "Kangwon-do", "iso2": "KP-07", "admin_level": 4, "osm_id": 356535, "countrylevel_id": "iso2:KP-07", "osm_data": {"localname": "강원도", "official_name": "", "alltags": {"name:bg": "Кануън", "name:ca": "Kangwon", "name:cs": "Kangwon (Severní Korea)", "name:da": "Kangwon", "name:el": "Γκάνγουον-ντο", "name:en": "Kangwon-do", "name:eo": "Kangŭon (Nord-Koreio)", "name:es": "Provincia de Kangwon", "name:eu": "Kangwon", "name:fa": "استان کانگوون", "name:fi": "Gangwon (Pohjois-Korea)", "name:fr": "Kangwon", "name:hu": "Kangvon (Észak-Korea)", "name:hy": "Կանգվանդո (Հյուսիսային Կորեա)", "name:id": "Kangwon-do (Korea Utara)", "name:it": "Kangwon", "name:ja": "江原道 (北)", "name:ko": "강원도 (북)", "name:lt": "Kangvono provincija (Šiaurės Korėja)", "name:mn": "Умар Солонгосын Канвонь", "name:ms": "Kangwŏn", "name:nl": "Kangwŏn-do", "name:no": "Kangwon", "name:pl": "Kangwŏn", "name:pt": "Kangwon", "name:ro": "Provincia Kangwon", "name:ru": "Канвондо (КНДР)", "name:sv": "Kangwon", "name:th": "จังหวัดคังว็อน (ประเทศเกาหลีเหนือ)", "name:tl": "Lalawigan ng Kangwon (Hilagang Korea)", "name:tr": "Kangvon ili", "name:uk": "Канвон (провінція, КНДР)", "name:ur": "کانگوون صوبہ (شمالی کوریا)", "name:vi": "Kangwon (Bắc Triều Tiên)", "name:zh": "江原道 (朝鮮)", "is_in:country": "North Korea", "is_in:continent": "Asia", "is_in:country_code": "KP"}}, "center_lat": 38.72, "center_lon": 127.46, "area_m2": 11107033872, "timezone": "Asia/Pyongyang", "wikidata_id": "Q41416", "wikipedia_id": "en:Kangwon Province (North Korea)"}}