{"type": "Feature", "geometry": {"type": "MultiPolygon", "coordinates": [[[[125.257, 38.788], [125.312, 38.791], [125.305, 38.816], [125.281, 38.838], [125.284, 38.876], [125.318, 38.888], [125.358, 38.936], [125.386, 38.935], [125.416, 38.922], [125.443, 38.86], [125.471, 38.845], [125.491, 38.814], [125.462, 38.811], [125.476, 38.771], [125.498, 38.778], [125.537, 38.748], [125.593, 38.742], [125.62, 38.73], [125.611, 38.687], [125.631, 38.667], [125.614, 38.65], [125.595, 38.656], [125.569, 38.695], [125.535, 38.711], [125.438, 38.727], [125.401, 38.712], [125.34, 38.703], [125.301, 38.683], [125.258, 38.684], [125.247, 38.67], [125.253, 38.64], [125.192, 38.625], [125.186, 38.63], [125.183, 38.636], [125.182, 38.637], [125.183, 38.637], [125.173, 38.667], [125.191, 38.684], [125.244, 38.753], [125.257, 38.788]]], [[[124.833, 38.554], [124.874, 38.543], [124.895, 38.51], [124.856, 38.506], [124.824, 38.52], [124.787, 38.525], [124.818, 38.555], [124.833, 38.554]]]]}, "properties": {"name": "Nampo", "iso2": "KP-14", "admin_level": 4, "osm_id": 5453650, "countrylevel_id": "iso2:KP-14", "osm_data": {"localname": "남포시", "official_name": "남포특급시", "alltags": {"name:cs": "Nampcho", "name:en": "Nampo", "name:eo": "Nampo", "name:es": "Namp'o", "name:ja": "南浦市", "name:ko": "남포시", "name:pt": "Nampo", "name:ru": "Нампхо", "name:zh": "南浦市", "name:ko-Latn": "Namp'o", "name:ko_hanja": "南浦市", "official_name": "남포특급시", "official_name:ko": "남포특급시", "official_name:zh": "南浦特别市", "official_name:ko-Latn": "Namp'o T'ŭkkŭpsi", "official_name:ko_hanja": "南浦特級市"}}, "center_lat": 38.76, "center_lon": 125.35, "area_m2": 553286109, "timezone": "Asia/Pyongyang", "population": 310864, "wikidata_id": "Q109386", "wikipedia_id": "ko:남포특별시"}}