{"type": "Feature", "geometry": {"type": "Polygon", "coordinates": [[[130.446, 42.547], [130.48, 42.565], [130.462, 42.604], [130.485, 42.62], [130.513, 42.616], [130.51, 42.584], [130.53, 42.539], [130.55, 42.523], [130.549, 42.497], [130.584, 42.474], [130.561, 42.457], [130.579, 42.43], [130.616, 42.43], [130.637, 42.418], [130.67, 42.378], [130.647, 42.35], [130.655, 42.325], [130.697, 42.293], [130.633, 42.273], [130.588, 42.312], [130.527, 42.322], [130.513, 42.337], [130.466, 42.336], [130.465, 42.318], [130.404, 42.311], [130.381, 42.294], [130.395, 42.276], [130.361, 42.251], [130.349, 42.218], [130.316, 42.208], [130.313, 42.234], [130.297, 42.24], [130.276, 42.217], [130.247, 42.203], [130.222, 42.176], [130.199, 42.174], [130.181, 42.188], [130.157, 42.184], [130.153, 42.157], [130.078, 42.189], [130.079, 42.207], [130.044, 42.235], [130.059, 42.28], [130.08, 42.283], [130.109, 42.306], [130.136, 42.283], [130.176, 42.273], [130.202, 42.286], [130.221, 42.279], [130.264, 42.301], [130.268, 42.328], [130.285, 42.332], [130.299, 42.357], [130.29, 42.378], [130.311, 42.413], [130.374, 42.413], [130.42, 42.434], [130.421, 42.46], [130.434, 42.471], [130.439, 42.515], [130.43, 42.537], [130.446, 42.547]]]}, "properties": {"name": "Rason", "iso2": "KP-13", "admin_level": 4, "osm_id": 6648083, "countrylevel_id": "iso2:KP-13", "osm_data": {"localname": "라선시", "official_name": "라선특별시", "alltags": {"name:ar": "راسون", "name:el": "Ράσον", "name:en": "Rason", "name:es": "Rasŏn", "name:fr": "Rasŏn", "name:ja": "羅先市", "name:ko": "라선시", "name:lt": "Rasonas", "name:ru": "Насон", "name:uk": "Насон", "name:vi": "La Thiên", "name:zh": "罗先市", "int_name": "Rason", "population": "196954", "alt_name:ru": "Расон", "old_name:ru": "Унги", "name:ko-Latn": "Rasŏn", "name:zh-Hant": "羅先市", "name:ko_hanja": "羅先市", "official_name": "라선특별시", "population:date": "2008", "official_name:ja": "羅先特別市", "official_name:ko": "라선특별시", "official_name:zh": "罗先特别市", "official_name:ko-Latn": "Rasŏn T'ŭkpyŏlsi", "official_name:zh-Hant": "羅先特別市", "official_name:ko_hanja": "羅先特別市"}}, "center_lat": 42.35, "center_lon": 130.39, "area_m2": 850322228, "timezone": "Asia/Pyongyang", "population": 196954, "wikidata_id": "Q221734", "wikipedia_id": "en:Rason"}}