{"type": "Feature", "geometry": {"type": "MultiPolygon", "coordinates": [[[[-63.133, 18.054], [-63.135, 18.054], [-63.139, 18.053], [-63.139, 18.055], [-63.142, 18.058], [-63.146, 18.06], [-63.152, 18.061], [-63.153, 18.062], [-63.152, 18.065], [-63.148, 18.067], [-63.147, 18.069], [-63.148, 18.072], [-63.142, 18.074], [-63.139, 18.073], [-63.129, 18.069], [-63.125, 18.068], [-63.122, 18.07], [-63.121, 18.072], [-63.117, 18.074], [-63.115, 18.074], [-63.114, 18.071], [-63.116, 18.07], [-63.117, 18.068], [-63.114, 18.064], [-63.106, 18.06], [-63.104, 18.06], [-63.099, 18.06], [-63.096, 18.062], [-63.093, 18.059], [-63.094, 18.058], [-63.098, 18.057], [-63.102, 18.057], [-63.106, 18.058], [-63.108, 18.057], [-63.109, 18.059], [-63.113, 18.061], [-63.118, 18.064], [-63.12, 18.067], [-63.126, 18.064], [-63.128, 18.06], [-63.13, 18.059], [-63.133, 18.059], [-63.133, 18.054]]], [[[-62.99, 18.113], [-62.988, 18.115], [-62.988, 18.119], [-62.983, 18.121], [-62.981, 18.124], [-62.977, 18.125], [-62.973, 18.124], [-62.974, 18.122], [-62.972, 18.12], [-62.973, 18.118], [-62.983, 18.116], [-62.984, 18.116], [-62.987, 18.114], [-62.99, 18.113]]], [[[-63.019, 18.057], [-63.023, 18.058], [-63.027, 18.055], [-63.03, 18.055], [-63.037, 18.058], [-63.04, 18.056], [-63.048, 18.061], [-63.052, 18.064], [-63.059, 18.063], [-63.063, 18.064], [-63.064, 18.061], [-63.068, 18.057], [-63.073, 18.057], [-63.075, 18.055], [-63.076, 18.05], [-63.077, 18.049], [-63.083, 18.048], [-63.088, 18.047], [-63.091, 18.049], [-63.093, 18.048], [-63.095, 18.049], [-63.095, 18.052], [-63.093, 18.051], [-63.091, 18.052], [-63.089, 18.058], [-63.088, 18.059], [-63.089, 18.064], [-63.091, 18.061], [-63.093, 18.06], [-63.096, 18.063], [-63.09, 18.065], [-63.088, 18.066], [-63.086, 18.069], [-63.087, 18.07], [-63.083, 18.074], [-63.081, 18.078], [-63.081, 18.08], [-63.083, 18.081], [-63.085, 18.084], [-63.085, 18.087], [-63.082, 18.088], [-63.081, 18.091], [-63.076, 18.093], [-63.074, 18.095], [-63.074, 18.099], [-63.072, 18.1], [-63.072, 18.102], [-63.068, 18.102], [-63.067, 18.1], [-63.062, 18.1], [-63.059, 18.1], [-63.057, 18.102], [-63.054, 18.106], [-63.052, 18.113], [-63.053, 18.116], [-63.052, 18.118], [-63.051, 18.119], [-63.046, 18.116], [-63.044, 18.117], [-63.042, 18.114], [-63.039, 18.115], [-63.04, 18.119], [-63.038, 18.123], [-63.032, 18.123], [-63.027, 18.124], [-63.025, 18.124], [-63.021, 18.122], [-63.021, 18.12], [-63.02, 18.114], [-63.02, 18.112], [-63.018, 18.111], [-63.017, 18.109], [-63.019, 18.107], [-63.022, 18.109], [-63.025, 18.106], [-63.025, 18.104], [-63.022, 18.102], [-63.023, 18.098], [-63.024, 18.096], [-63.023, 18.092], [-63.019, 18.086], [-63.012, 18.082], [-63.014, 18.079], [-63.017, 18.078], [-63.02, 18.075], [-63.02, 18.072], [-63.017, 18.068], [-63.016, 18.067], [-63.012, 18.067], [-63.012, 18.063], [-63.014, 18.062], [-63.013, 18.06], [-63.011, 18.057], [-63.01, 18.055], [-63.011, 18.054], [-63.013, 18.056], [-63.018, 18.057], [-63.019, 18.057]]], [[[-63.017, 18.106], [-63.016, 18.108], [-63.014, 18.106], [-63.017, 18.106]]]]}, "properties": {"name": "Saint Martin (France)", "iso2": "FR-MF", "admin_level": 3, "osm_id": 1891583, "countrylevel_id": "iso2:FR-MF", "osm_data": {"localname": "Saint-Martin (France)", "official_name": "Collectivité de Saint-Martin", "alltags": {"flag": "http://upload.wikimedia.org/wikipedia/commons/c/c3/Flag_of_France.svg", "name:af": "Sint Maartin (Frankryk)", "name:an": "Sant Martín (Francia)", "name:ar": "سانت مارتن (فرنسا)", "name:az": "Sen-Marten (Fransa)", "name:be": "Сен-Мартэн (Францыя)", "name:bg": "Сен Мартен (Франция)", "name:br": "Sant-Martin (Bro-C'hall)", "name:bs": "Sveti Martin (Francuska)", "name:ca": "Sant Martí (Antilles Franceses)", "name:cs": "Svatý Martin (francouzská část)", "name:cy": "Saint Martin (Ffrainc)", "name:da": "Saint-Martin (Frankrig)", "name:el": "Άγιος Μαρτίνος (Γαλλία)", "name:en": "Saint Martin (France)", "name:eo": "Sankta Marteno (Francio)", "name:es": "San Martín (Francia)", "name:et": "Saint-Martini (Prantsusmaa)", "name:eu": "San Martin (Frantzia)", "name:fa": "سن مارتن (فرانسه)", "name:fi": "Saint-Martin (Faransi)", "name:fr": "Saint-Martin (France)", "name:fy": "Saint-Martin (Frankryk)", "name:gl": "San Martiño (Francia)", "name:he": "סנט מארטן (צרפת)", "name:hi": "सन्त मार्टिन (फ़्रान्स)", "name:hr": "Sveti Martin (Francuska)", "name:hu": "Szent Márton (Franciaország)", "name:hy": "Սեն Մարտեն (Ֆրանսիա)", "name:id": "Saint Martin (Prancis)", "name:is": "Saint Martin (Frakkland)", "name:it": "Saint-Martin (Francia)", "name:ja": "サン・マルタン (フランス)", "name:ka": "სენ-მარტენი (საფრანგეთი)", "name:kn": "ಸೇಂಟ್ ಮಾರ್ಟಿನ್ (ಫ್ರಾನ್ಸ್)", "name:ko": "세인트 마틴 (프랑스)", "name:la": "Sancti Martini (Gallia)", "name:li": "Sint Maarten (Frans)", "name:lt": "San Martenas (Prancūzija)", "name:lv": "Senmartēna (Francija)", "name:mk": "Свети Мартин (Франција)", "name:mr": "सेंट मार्टिन (फ्रान्स)", "name:ms": "Saint Martin (Perancis)", "name:mt": "Saint Martin (Franza)", "name:nb": "Saint Martin (Frankrike)", "name:ne": "सेन्ट मार्टिन (फ्रान्स)", "name:nl": "Sint Maarten (Frankrijk)", "name:nn": "Saint Martin (Frankrike)", "name:no": "Saint Martin (Frankrike)", "name:oc": "Sant Martin (França)", "name:os": "Сен-Мартен (Франц)", "name:pl": "Saint-Martin (Francja)", "name:pt": "São Martinho (França)", "name:ro": "Sfântul Martin (Franța)", "name:ru": "Сен-Мартен (Франция)", "name:sh": "Saint-Martin (Francuska)", "name:sk": "Svätý Martin (Francúzsko)", "name:sr": "Свети Мартин (Француска)", "name:su": "Saint Martin (Perancis)", "name:sv": "Saint Martin (Frankrike)", "name:sw": "Saint Martin (Ufaransa)", "name:ta": "செயிண்ட் மார்டின் (பிரான்சு)", "name:tl": "San Martin (Pransiya)", "name:tr": "Saint Martin (Fransa)", "name:uk": "Сен-Мартен (Франція)", "name:ur": "سینٹ مارٹن (فرانس)", "name:vi": "Saint-Martin (Pháp)", "name:yo": "Saint Martin (Fránsì)", "name:zh": "圣马丁 (法国)", "currency": "EUR", "int_name": "Saint Martin (French part)", "name:ast": "San Martín (Francia)", "name:azb": "سنت مارتین فرانسه", "name:cdo": "Saint-Martin (Huák-guók)", "name:frr": "Saint-Martin (Frånkrik)", "name:gag": "Sent Martin (Franțiya)", "name:gcf": "Sen Mawten (Frans)", "name:hak": "Saint-Martin (Fap-koet)", "name:jam": "Sah Mahtah (Frans)", "name:lfn": "San Marten (Frans)", "name:lmo": "San Martin (Francia)", "name:nan": "Saint-Martin (Hoat-kok)", "name:pms": "San Martin (Fransa)", "name:pnb": "سینٹ مارٹن (فرانس)", "name:sco": "Saunt Martin (Fraunce)", "name:war": "Saint Martin (Fransya)", "name:yue": "聖馬丁 (法國)", "ref:INSEE": "978", "border_type": "territorial", "description": "France, collectivités d'outre-mer, territoires régis par l’article 74 de la Constitution", "capital_city": "Marigot", "name:zh-Hans": "圣马丁 (法国)", "name:zh-Hant": "圣马丁 (法國)", "admin_type:FR": "collectivité d'outre-mer", "official_name": "Collectivité de Saint-Martin", "description:de": "Frankreich, Gebietskörperschaft", "description:en": "France, overseas collectivity", "description:nl": "Frankrijk, overzeese gemeenschap", "name:be-tarask": "Сэн-Мартэн (Францыя)", "official_name:ca": "Col·lectivitat de Saint-Martin", "official_name:cs": "Společenství Svatý Martin", "official_name:de": "Kollektivität Saint-Martin", "official_name:en": "Collectivity of Saint Martin", "official_name:eo": "Kolektivo Sankt-Marteno", "official_name:es": "Colectividad de San Martín", "official_name:et": "Saint-Martini territoriaalühendus", "official_name:fr": "Collectivité de Saint-Martin", "official_name:hi": "सेंट मार्टिन की सामूहिकता", "official_name:it": "Collettività di Saint-Martin", "official_name:la": "Collectivitas Sancti Martini", "official_name:oc": "Collectivitat de Sant Martin", "official_name:ru": "Сообщество Сен-Мартен", "official_name:tr": "Saint-Martin Kolektivitesi", "official_name:yo": "Ìkólẹ̀jọ Saint-Martin", "official_name:frr": "Cymuned Saint Martin", "official_name:sco": "Collectivity o Saunt Martin"}, "iso1": "MF"}, "center_lat": 18.08, "center_lon": -63.06, "area_m2": 48386575, "timezone": "America/Marigot", "population": 35684, "wikidata_id": "Q126125", "wikipedia_id": "fr:Saint-Martin (Antilles françaises)"}}