{"type": "Feature", "geometry": {"type": "MultiPolygon", "coordinates": [[[[-129.056, 52.734], [-129.197, 53.021], [-128.925, 53.288], [-128.638, 53.157], [-128.523, 52.899], [-128.594, 52.627], [-129.056, 52.734]]], [[[-130.549, 53.569], [-130.399, 53.618], [-129.906, 53.392], [-129.962, 53.17], [-130.549, 53.569]]], [[[-130.061, 53.613], [-130.128, 53.889], [-129.44, 53.427], [-129.564, 53.218], [-130.061, 53.613]]], [[[-132.978, 53.597], [-133.154, 53.914], [-133.016, 54.176], [-132.564, 54.039], [-131.793, 54.072], [-131.973, 53.276], [-132.247, 53.147], [-132.557, 53.171], [-132.978, 53.597]]], [[[-125.859, 49.101], [-126.123, 49.423], [-126.323, 49.375], [-126.565, 49.576], [-126.654, 49.871], [-127.141, 49.858], [-127.787, 50.223], [-128.303, 50.609], [-128.414, 50.768], [-128.068, 50.87], [-127.486, 50.766], [-127.122, 50.589], [-126.569, 50.487], [-125.58, 50.368], [-125.184, 49.915], [-124.86, 49.701], [-124.794, 49.465], [-123.981, 49.239], [-123.37, 48.588], [-123.589, 48.311], [-124.715, 48.593], [-125.859, 49.101]]], [[[-132.108, 52.734], [-132.533, 53.046], [-131.912, 53.238], [-131.963, 53.016], [-131.793, 52.715], [-132.108, 52.734]]], [[[-139.054, 59.995], [-136.555, 60], [-134.407, 60], [-132.561, 60], [-129.638, 60], [-126.4, 60.001], [-123.811, 60.001], [-121.88, 60.001], [-120.001, 60], [-120.001, 58.058], [-120.001, 56.135], [-120.001, 54.736], [-120.001, 53.799], [-119.671, 53.367], [-119.253, 53.19], [-118.729, 53.112], [-118.415, 52.768], [-118.216, 52.372], [-117.558, 52.127], [-117.336, 52.142], [-116.903, 51.704], [-116.683, 51.812], [-116.27, 51.313], [-115.651, 50.999], [-115.647, 50.875], [-114.792, 50.337], [-114.652, 49.993], [-114.732, 49.575], [-114.591, 49.397], [-114.175, 49.164], [-114.068, 48.999], [-115.056, 49], [-115.109, 49], [-115.465, 49], [-115.519, 49.001], [-115.578, 49.001], [-115.634, 49.001], [-116.049, 49.001], [-116.397, 49], [-116.439, 49], [-117.032, 48.999], [-118.498, 49], [-118.503, 49], [-118.504, 49], [-118.761, 49], [-118.777, 49], [-118.787, 49], [-118.794, 49], [-118.803, 49], [-119.701, 49], [-119.736, 49], [-119.757, 49], [-119.789, 49], [-119.843, 49], [-120.348, 49], [-120.403, 49], [-120.597, 49], [-120.645, 49], [-122.757, 49.002], [-122.758, 49.002], [-123.035, 49.002], [-123.091, 49.002], [-123.265, 49.589], [-123.538, 49.384], [-123.87, 49.468], [-124.838, 50.052], [-124.633, 50.293], [-125.347, 50.478], [-125.704, 50.422], [-126.132, 50.483], [-126.11, 50.755], [-126.867, 50.944], [-127.058, 50.818], [-127.407, 50.926], [-127.779, 51.178], [-127.634, 51.43], [-127.877, 51.67], [-127.888, 51.886], [-127.607, 52.118], [-127.153, 52.317], [-127.262, 52.473], [-127.876, 52.198], [-128.248, 52.53], [-128.127, 52.829], [-128.498, 52.883], [-128.611, 53.164], [-128.889, 53.312], [-128.873, 53.814], [-129.234, 53.631], [-129.339, 53.382], [-130.072, 53.892], [-130.131, 54.149], [-130.484, 54.374], [-130.35, 54.695], [-130.05, 54.959], [-130.166, 55.08], [-129.944, 55.288], [-130.11, 55.566], [-130.109, 55.798], [-130.007, 55.912], [-130.104, 56.123], [-130.782, 56.367], [-131.087, 56.406], [-132.124, 56.874], [-132.045, 57.045], [-132.554, 57.497], [-133.377, 58.431], [-133.841, 58.729], [-134.258, 58.861], [-134.483, 59.132], [-134.96, 59.281], [-135.029, 59.564], [-135.479, 59.798], [-136.193, 59.64], [-136.584, 59.166], [-136.829, 59.16], [-137.452, 58.908], [-137.607, 59.244], [-139.054, 59.995]]]]}, "properties": {"name": "British Columbia", "iso2": "CA-BC", "admin_level": 4, "osm_id": 390867, "countrylevel_id": "iso2:CA-BC", "osm_data": {"localname": "British Columbia", "official_name": "", "alltags": {"ref": "BC", "name": "British Columbia", "name:af": "Brits-Columbië", "name:am": "ብሪቲሽ ኮለምቢያ", "name:ar": "كولومبيا البريطانية", "name:az": "Britaniya Kolumbiyası", "name:be": "Брытанская Калумбія", "name:bg": "Британска Колумбия", "name:br": "Kolombia Vreizhveuriat", "name:bs": "Britanska Kolumbija", "name:ca": "Colúmbia Britànica", "name:cs": "Britská Kolumbie", "name:da": "Britisk Columbia", "name:de": "Britisch-Kolumbien", "name:el": "Βρετανική Κολομβία", "name:en": "British Columbia", "name:eo": "Brita Kolumbio", "name:es": "Columbia Británica", "name:et": "Briti Columbia", "name:eu": "Columbia Britainiarra", "name:fa": "بریتیش کلمبیا", "name:fi": "Brittiläinen Kolumbia", "name:fr": "Colombie-Britannique", "name:fy": "Britsk-Kolumbia", "name:ga": "An Cholóim Bhriotanach", "name:gd": "Columbia Bhreatannach", "name:gl": "Columbia Británica", "name:gn": "Kolumbia Vyretañagua", "name:gv": "Yn Cholombey Ghoaldagh", "name:he": "קולומביה הבריטית", "name:hi": "ब्रिटिश कोलम्बिया", "name:hr": "Britanska Kolumbija", "name:hu": "Brit Columbia", "name:hy": "Բրիտանական Կոլումբիա", "name:ia": "Columbia Britannic", "name:ie": "British Colombia", "name:is": "Breska Kólumbía", "name:it": "Columbia Britannica", "name:ja": "ブリティッシュコロンビア州", "name:ka": "ბრიტანეთის კოლუმბია", "name:kl": "Britisk Columbia", "name:kn": "ಬ್ರಿಟಿಷ್‌‌ ಕೊಲಂಬಿಯಾ", "name:ko": "브리티시컬럼비아 주", "name:kw": "Kolombi Bredennek", "name:la": "Columbia Britannica", "name:lt": "Britų Kolumbija", "name:lv": "Britu Kolumbija", "name:mk": "Британска Колумбија", "name:mn": "Бритиш Коламбиа", "name:mr": "ब्रिटिश कोलंबिया", "name:nl": "Brits-Columbia", "name:nn": "Britisk Columbia", "name:no": "Britisk Columbia", "name:oc": "Colómbia Britanica", "name:os": "Британийы Колумби", "name:pa": "ਬ੍ਰਿਟਿਸ਼ ਕੋਲੰਬੀਆ", "name:pl": "Kolumbia Brytyjska", "name:pt": "Colúmbia Britânica", "name:qu": "British Columbia pruwinsya", "name:ro": "Columbia Britanică", "name:ru": "Британская Колумбия", "name:sc": "Colùmbia Britànnica", "name:sk": "Britská Kolumbia", "name:sl": "Britanska Kolumbija", "name:sq": "Kolumbia Britanike", "name:sr": "Британска Колумбија", "name:sw": "British Kolumbia", "name:ta": "பிரிட்டிசு கொலம்பியா", "name:th": "รัฐบริติชโคลัมเบีย", "name:tr": "Britanya Kolumbiyası", "name:ug": "Britani Kolumbiye", "name:uk": "Британська Колумбія", "name:ur": "برٹش کولمبیا", "name:uz": "Britaniya Kolumbiyasi", "name:yi": "בריטישע קאלומביע", "name:zh": "不列颠哥伦比亚省", "boundary": "administrative", "name:ckb": "بریتیش کۆڵۆمبیا", "state_code": "BC", "admin_level": "4", "alt_name:cs": "Provincie Britská Kolumbie", "alt_name:vi": "Columbia thuộc Anh", "border_type": "provincial", "is_in:country": "Canada", "is_in:continent": "North America", "is_in:country_code": "CA"}}, "center_lat": 54.76, "center_lon": -124.76, "area_m2": 945718604353, "timezone": "America/Vancouver", "population": 4841078, "wikidata_id": "Q1974", "wikipedia_id": "en:British Columbia"}}