{"type": "Feature", "geometry": {"type": "MultiPolygon", "coordinates": [[[[-64.468, 45.732], [-64.046, 45.987], [-63.375, 45.8], [-62.709, 45.763], [-62.502, 45.651], [-61.935, 45.888], [-61.915, 45.683], [-61.528, 45.693], [-61.233, 45.487], [-61.854, 45.036], [-62.874, 44.733], [-63.42, 44.643], [-63.636, 44.467], [-64.303, 44.511], [-64.295, 44.306], [-65.494, 43.49], [-65.728, 43.49], [-65.847, 43.773], [-66.133, 43.799], [-66.214, 44.098], [-66.109, 44.354], [-65.742, 44.711], [-64.885, 45.129], [-64.475, 45.24], [-64.391, 45.369], [-64.914, 45.43], [-64.468, 45.732]]], [[[-61.172, 45.566], [-61.428, 45.662], [-61.552, 46.04], [-61.105, 46.448], [-60.894, 46.784], [-60.615, 47.033], [-60.303, 46.851], [-60.458, 46.431], [-60.389, 46.202], [-60.136, 46.262], [-59.844, 46.178], [-59.833, 45.956], [-60.118, 45.885], [-60.27, 45.705], [-60.69, 45.58], [-61.172, 45.566]]]]}, "properties": {"name": "Nova Scotia", "iso2": "CA-NS", "admin_level": 4, "osm_id": 390558, "countrylevel_id": "iso2:CA-NS", "osm_data": {"localname": "Nova Scotia", "official_name": "", "alltags": {"ref": "NS", "name": "Nova Scotia", "name:ar": "نوفا سكوشا", "name:az": "Yeni Şotlandiya", "name:be": "Правінцыя Новая Шатландыя", "name:bg": "Нова Скотия", "name:br": "Skos Nevez", "name:bs": "Nova Škotska", "name:ca": "Nova Escòcia", "name:cs": "Nové Skotsko", "name:de": "Neuschottland", "name:el": "Νέα Σκωτία", "name:en": "Nova Scotia", "name:eo": "Nov-Skotio", "name:es": "Nueva Escocia", "name:eu": "Eskozia Berria", "name:fa": "نوا اسکوشیا", "name:fr": "Nouvelle-Écosse", "name:fy": "Nij-Skotlân", "name:ga": "Albain Nua", "name:gd": "Alba Nuadh", "name:gl": "Nova Escocia", "name:gv": "Nalbin Noa", "name:he": "נובה סקוטיה", "name:hr": "Nova Škotska", "name:hu": "Új-Skócia", "name:hy": "Նոր Շոտլանդիա", "name:io": "Nova Skotia", "name:it": "Nuova Scozia", "name:ja": "ノバスコシア州", "name:ka": "ახალი შოტლანდია", "name:ko": "노바스코샤 주", "name:kw": "Alban Nowydh", "name:lt": "Naujoji Škotija", "name:lv": "Jaunskotija", "name:mk": "Нова Шкотска", "name:mn": "Нова Скоша", "name:mr": "नोव्हा स्कॉशिया", "name:oc": "Nòva Escòcia", "name:os": "Ног Шотланди", "name:pa": "ਨੋਵਾ ਸਕੋਸ਼ਾ", "name:pl": "Nowa Szkocja", "name:pt": "Nova Escócia", "name:qu": "Nova Scotia pruwinsya", "name:ro": "Noua Scoție", "name:ru": "Новая Шотландия", "name:sk": "Nové Škótsko", "name:sl": "Nova Škotska", "name:sq": "Skocia e Re", "name:sr": "Нова Шкотска", "name:ta": "நோவா ஸ்கோசியா", "name:th": "รัฐโนวาสโกเชีย", "name:tr": "Yeni İskoçya", "name:ug": "Nowa Skotiye Ölkisi", "name:uk": "Нова Шотландія", "name:ur": "نووا سکوشیا", "name:uz": "Yangi Shotlandiya", "name:yi": "נאווע סקאשע", "name:zh": "新斯科舍省", "boundary": "administrative", "name:ckb": "نۆڤا سکۆشا", "population": "913462", "admin_level": "4", "border_type": "province", "province_code": "NS"}}, "center_lat": 45.15, "center_lon": -63.33, "area_m2": 55430949250, "timezone": "Atlantic Standard Time UTC -4", "population": 957600, "wikidata_id": "Q1952", "wikipedia_id": "en:Nova Scotia"}}