{"type": "Feature", "geometry": {"type": "Polygon", "coordinates": [[[-69.051, 47.3], [-68.569, 47.427], [-68.383, 47.553], [-68.382, 47.916], [-68.123, 48], [-67.598, 48], [-67.364, 47.856], [-66.949, 47.953], [-66.369, 48.07], [-65.839, 47.911], [-65.687, 47.691], [-65.181, 47.819], [-64.72, 47.757], [-65.143, 47.039], [-64.536, 46.356], [-63.772, 46.105], [-64.046, 45.987], [-64.468, 45.732], [-64.691, 45.688], [-65.912, 45.193], [-66.467, 45.066], [-66.886, 45.041], [-67.282, 45.192], [-67.476, 45.275], [-67.5, 45.491], [-67.806, 45.681], [-67.812, 45.687], [-67.781, 45.943], [-67.79, 47.067], [-68.224, 47.345], [-68.905, 47.18], [-69.051, 47.3]]]}, "properties": {"name": "New Brunswick", "iso2": "CA-NB", "admin_level": 4, "osm_id": 68942, "countrylevel_id": "iso2:CA-NB", "osm_data": {"localname": "New Brunswick", "official_name": "", "alltags": {"ref": "NB", "name": "New Brunswick", "name:af": "Nieu-Brunswyk", "name:ar": "نيو برانزويك", "name:az": "Nyu-Brunsvik", "name:bg": "Ню Брънзуик", "name:br": "Brunswick Nevez", "name:bs": "Novi Brunswick", "name:ca": "Nova Brunsvic", "name:cs": "Nový Brunšvik", "name:de": "Neubraunschweig", "name:el": "Νέα Βρουνσβίκη", "name:en": "New Brunswick", "name:eo": "Nov-Brunsviko", "name:es": "Nuevo Brunswick", "name:eu": "Brunswick Berria", "name:fa": "نیوبرانزویک", "name:fr": "Nouveau-Brunswick", "name:fy": "Nij-Brunswyk", "name:gd": "Brunswick Nuadh", "name:gl": "Nova Brunswick", "name:he": "ניו ברנזוויק", "name:hr": "Novi Brunswick", "name:it": "Nuovo Brunswick", "name:ja": "ニューブランズウィック州", "name:ka": "ნიუ-ბრანსუიკი", "name:ko": "뉴브런즈윅", "name:kw": "Brunswick Nowydh", "name:la": "Novum Brunsvicum", "name:lt": "Naujasis Bransvikas", "name:lv": "Ņūbransvika", "name:mn": "Нью-Брансвик", "name:mr": "न्यू ब्रुन्सविक", "name:oc": "Nòu Brunswick", "name:pl": "Nowy Brunszwik", "name:pt": "Novo Brunsvique", "name:ro": "Noul Brunswick", "name:ru": "Нью-Брансуик", "name:sh": "Novi Brunswick", "name:sl": "Novi Brunswick", "name:sr": "Њу Брансвик", "name:th": "รัฐนิวบรันสวิก", "name:uk": "Нью-Брансвік", "name:zh": "新伯倫瑞克", "boundary": "administrative", "name:arc": "ܢܝܘ ܒܪܘܢܙܘܝܩ", "name:ckb": "نیو برەنزویک", "admin_level": "4", "border_type": "provincial", "is_in:country": "Canada", "province_code": "NB", "is_in:continent": "North America", "is_in:country_code": "CA"}}, "center_lat": 46.62, "center_lon": -66.38, "area_m2": 72978485003, "timezone": "America/Moncton", "population": 760868, "wikidata_id": "Q1965", "wikipedia_id": "en:New Brunswick"}}