{"type": "Feature", "geometry": {"type": "MultiPolygon", "coordinates": [[[[-118.125, 76.003], [-117.792, 75.836], [-118.286, 75.582], [-119.377, 75.6], [-118.125, 76.003]]], [[[-110.003, 78.695], [-110.003, 78.32], [-111.46, 78.272], [-113.101, 78.432], [-110.413, 78.767], [-110.003, 78.695]]], [[[-114.248, 78.016], [-113.554, 77.83], [-114.216, 77.706], [-115.042, 77.92], [-114.248, 78.016]]], [[[-120.937, 75.954], [-121.854, 76.051], [-122.593, 76.353], [-121.411, 76.482], [-121.216, 76.669], [-120.349, 76.816], [-119.202, 77.319], [-118.082, 77.361], [-116.993, 77.299], [-116.749, 77.525], [-115.471, 77.365], [-116.087, 77.196], [-115.762, 76.965], [-116.052, 76.625], [-117.035, 76.548], [-116.936, 76.348], [-118.532, 76.338], [-119.729, 75.884], [-120.937, 75.954]]], [[[-110.003, 78.117], [-110.003, 77.921], [-110.054, 77.569], [-110.882, 77.407], [-112.025, 77.328], [-113.18, 77.525], [-113.315, 77.847], [-111.805, 78.059], [-110.003, 78.117]]], [[[-110.002, 75.547], [-110.002, 74.843], [-111.68, 74.5], [-113.38, 74.418], [-114.437, 74.698], [-112.849, 74.983], [-111.693, 74.991], [-111.012, 75.176], [-114.452, 75.062], [-115.697, 74.972], [-117.666, 75.252], [-117.142, 75.487], [-116.674, 76.071], [-115.602, 76.433], [-114.171, 76.474], [-113.694, 76.204], [-112.447, 76.191], [-111.763, 75.953], [-111.241, 75.543], [-110.002, 75.547]]], [[[-123.75, 71.522], [-123.979, 71.673], [-125.151, 71.925], [-125.822, 71.977], [-125.679, 72.242], [-125.042, 72.563], [-125.129, 72.861], [-123.77, 73.781], [-124.46, 74.113], [-124.611, 74.366], [-122.3, 74.477], [-121.558, 74.56], [-120.116, 74.279], [-118.781, 74.209], [-118.113, 74.282], [-117.112, 74.158], [-115.311, 73.533], [-115.802, 73.341], [-116.473, 73.258], [-119.122, 72.645], [-119.31, 72.38], [-120.442, 71.943], [-120.469, 71.567], [-123.1, 71.079], [-123.75, 71.522]]], [[[-120.683, 69.557], [-120.683, 68], [-118.399, 67.302], [-116.327, 66.669], [-114.549, 66.126], [-112.501, 65.5], [-110.668, 65.5], [-109.334, 64.834], [-106.153, 64.573], [-103.615, 64.366], [-102.001, 64.234], [-102.001, 62.138], [-102, 59.999], [-102.008, 59.999], [-103.423, 60], [-106.066, 59.998], [-108.554, 59.999], [-110.006, 59.999], [-112.866, 59.999], [-114.832, 59.998], [-117.724, 60], [-120.001, 60], [-121.88, 60.001], [-123.811, 60.001], [-123.989, 60.073], [-124.204, 60.454], [-124.597, 60.647], [-124.576, 60.951], [-125.278, 60.787], [-126.845, 60.812], [-127.135, 61.455], [-127.667, 61.546], [-128.072, 61.75], [-128.598, 62.141], [-129.185, 62.114], [-129.377, 62.547], [-129.785, 62.873], [-129.944, 63.338], [-129.882, 63.506], [-130.37, 63.836], [-130.773, 63.972], [-131.15, 64.417], [-131.871, 64.389], [-132.033, 64.697], [-132.519, 64.962], [-132.562, 65.286], [-132.165, 65.617], [-132.593, 66.03], [-133.617, 65.953], [-133.603, 66.274], [-133.805, 66.835], [-134.079, 66.979], [-136.16, 67], [-136.084, 67.308], [-136.442, 67.655], [-136.448, 68.891], [-135.6, 68.757], [-135.434, 68.992], [-135.869, 69.266], [-135.303, 69.422], [-134.497, 69.523], [-133.089, 69.405], [-132.956, 69.627], [-131.974, 69.713], [-131.421, 69.949], [-130.579, 70.099], [-129.538, 69.993], [-130.562, 69.76], [-130.356, 69.678], [-129.344, 69.836], [-128.82, 69.746], [-128.239, 69.942], [-128.343, 70.123], [-128.021, 70.561], [-127.082, 70.171], [-126.704, 69.743], [-125.928, 69.392], [-125.191, 69.409], [-125.419, 69.644], [-124.503, 69.714], [-124.346, 69.337], [-123.714, 69.334], [-123.169, 69.494], [-122.953, 69.821], [-121.396, 69.773], [-120.683, 69.557]]], [[[-117.004, 69.644], [-117.007, 69.644], [-117.019, 69.644], [-117.025, 69.644], [-117.027, 69.644], [-117.04, 69.643], [-117.04, 69.655], [-117.004, 69.644]]], [[[-110.002, 72.445], [-110.002, 71.012], [-110.002, 70], [-112.502, 70], [-114.566, 70], [-117.119, 70], [-117.147, 69.889], [-116.638, 69.632], [-116.824, 69.643], [-116.827, 69.653], [-116.882, 69.66], [-116.975, 69.68], [-116.987, 69.695], [-117.138, 69.725], [-117.258, 69.79], [-117.362, 70.039], [-115.943, 70.235], [-114.551, 70.319], [-113.291, 70.283], [-112.528, 70.199], [-111.972, 70.385], [-113.249, 70.658], [-113.967, 70.72], [-115.022, 70.604], [-116.042, 70.573], [-116.347, 70.641], [-117.43, 70.619], [-118.175, 70.845], [-118.364, 71.034], [-117.809, 71.169], [-116.243, 71.37], [-116.288, 71.509], [-117.514, 71.383], [-118.182, 71.385], [-118.488, 71.66], [-119.073, 71.666], [-119.054, 71.918], [-118.097, 72.327], [-118.496, 72.509], [-117.318, 72.926], [-114.473, 73.376], [-113.927, 73.127], [-113.233, 72.989], [-112.029, 72.894], [-110.002, 72.445]]]]}, "properties": {"name": "Northwest Territories", "iso2": "CA-NT", "admin_level": 4, "osm_id": 391220, "countrylevel_id": "iso2:CA-NT", "osm_data": {"localname": "Northwest Territories", "official_name": "", "alltags": {"ref": "NT", "name": "Northwest Territories", "name:af": "Noordwestelike gebiede", "name:ar": "الأقاليم الشمالية الغربية", "name:az": "Şimal-Qərb əraziləri", "name:be": "Паўночна-Заходнія тэрыторыі", "name:bg": "Северозападни територии", "name:br": "Tiriadoù ar Gwalarn", "name:bs": "Sjeverozapadne teritorije", "name:ca": "Territoris del Nord-oest", "name:cs": "Severozápadní teritoria", "name:cy": "Tiriogaethau'r Gogledd-orllewin", "name:de": "Nordwest-Territorien", "name:el": "Βορειοδυτικά Εδάφη", "name:en": "Northwest Territories", "name:eo": "Nordokcidentaj Teritorioj", "name:es": "Territorios del Noroeste", "name:et": "Loodealad", "name:eu": "Ipar-mendebaldeko Lurraldeak", "name:fa": "قلمروهای شمال غرب", "name:fi": "Luoteisterritoriot", "name:fr": "Territoires du Nord-Ouest", "name:fy": "Noardwestlike Territoaria", "name:ga": "Críocha an Iarthuaiscirt", "name:gd": "Roinnean an Iar Thuath", "name:gl": "Territorios do Noroeste", "name:gv": "Thallooyn yn Eear Hwoaie", "name:he": "הטריטוריות הצפון-מערביות", "name:hi": "नॉर्थवेस्ट टेरीटरीज़", "name:hr": "Sjeverozapadni teritoriji", "name:hu": "Északnyugati területek", "name:hy": "Հյուսիսարևմտյան տարածքներ", "name:id": "Wilayah Barat Laut", "name:is": "Norðvesturhéruðin", "name:it": "Territori del Nord-Ovest", "name:iu": "ᓄᓇᑦᓯᐊᖅ", "name:ja": "ノースウエスト準州", "name:ka": "ჩრდილო-დასავლეთი ტერიტორიები", "name:ko": "노스웨스트 준주", "name:kw": "Tiredhow an North-West", "name:la": "Territoria septentrio-occidentalia", "name:lb": "Nordwest-Territoiren", "name:lt": "Šiaurės Vakarų teritorijos", "name:lv": "Ziemeļrietumu Teritorijas", "name:mk": "Северозападни Територии", "name:mn": "Баруун Хойд Нутаг Дэвсгэр", "name:mr": "नॉर्थवेस्ट टेरिटोरीज", "name:ms": "Wilayah Barat Laut", "name:nn": "Nordvestterritoria", "name:no": "Nordvestterritoriene", "name:oc": "Territòris del Nòrd Oèst", "name:os": "Цæгат-Ныгуылæн территоритæ", "name:pa": "ਉੱਤਰ-ਪੱਛਮੀ ਰਾਜਖੇਤਰ", "name:pl": "Terytoria Północno-Zachodnie", "name:pt": "Territórios do Noroeste", "name:ro": "Teritoriile de Nordvest", "name:ru": "Северо-Западные территории", "name:sc": "Territòrios de su Norti-Uestu", "name:sk": "Severozápadné teritóriá", "name:sl": "Severozahodni teritoriji", "name:sq": "Territoret Veri-Perëndimore", "name:sr": "Северозападне територије", "name:ta": "வடமேற்கு நிலப்பகுதிகள்", "name:th": "นอร์ทเวสต์เทร์ริทอรีส์", "name:tl": "Hilagang Kanlurang mga Nasasakupan", "name:tr": "Kuzeybatı Toprakları", "name:ug": "Gherbiy Shimal Rayoni", "name:uk": "Північно-західні території", "name:ur": "شمال مغربی علاقہ جات، کینیڈا", "name:uz": "Shimoli-Gʻarbiy hududlar", "name:vi": "Các Lãnh thổ Tây Bắc", "name:yi": "נארדוועסט טעריטאריעס", "name:zh": "西北地区", "boundary": "administrative", "name:ckb": "ناوچەکانی باکووری ڕۆژاوا", "state_code": "NT", "admin_level": "4", "border_type": "provincial", "is_in:country": "Canada", "is_in:continent": "North America", "is_in:country_code": "CA"}}, "center_lat": 66.36, "center_lon": -119.0, "area_m2": 1343135108182, "timezone": "America/Yellowknife", "population": 44718, "wikidata_id": "Q2007", "wikipedia_id": "en:Northwest Territories"}}