{"type": "Feature", "geometry": {"type": "MultiPolygon", "coordinates": [[[[-59.401, 47.918], [-58.979, 48.129], [-58.675, 48.373], [-58.687, 48.686], [-58.338, 49.056], [-58.112, 49.18], [-58.219, 49.42], [-57.965, 49.674], [-57.607, 50.172], [-57.358, 50.705], [-57.113, 50.776], [-56.594, 51.382], [-55.921, 51.615], [-55.614, 51.309], [-55.966, 50.862], [-56.754, 50.023], [-56.625, 49.807], [-56.16, 50.158], [-55.493, 49.932], [-56.033, 49.711], [-55.723, 49.426], [-55.316, 49.505], [-55.249, 49.344], [-54.802, 49.3], [-54.02, 49.469], [-53.474, 49.252], [-53.597, 49.064], [-53.981, 48.901], [-53.59, 48.453], [-53.362, 48.612], [-53.103, 48.41], [-53.939, 48.081], [-53.634, 48.008], [-53.842, 47.747], [-53.613, 47.538], [-53.309, 48.001], [-53.111, 48.036], [-53.187, 47.426], [-52.918, 47.545], [-52.83, 47.276], [-52.95, 46.789], [-53.091, 46.646], [-53.37, 46.727], [-53.618, 46.637], [-53.782, 47.032], [-54.185, 46.842], [-53.911, 47.611], [-54.206, 47.795], [-54.558, 47.366], [-54.828, 47.411], [-55.071, 47.098], [-55.377, 46.877], [-55.969, 46.909], [-55.778, 47.107], [-55.312, 47.27], [-55.272, 47.409], [-54.852, 47.568], [-55.426, 47.675], [-55.431, 47.471], [-55.777, 47.449], [-56.18, 47.646], [-57.015, 47.594], [-57.656, 47.61], [-58.108, 47.699], [-59.166, 47.565], [-59.401, 47.918]]], [[[-64.524, 60.301], [-64.359, 60.047], [-63.945, 59.756], [-63.794, 59.42], [-63.39, 59.278], [-63.392, 59.093], [-62.899, 58.8], [-62.904, 58.601], [-62.647, 58.41], [-62.655, 58.168], [-61.877, 57.845], [-62.184, 57.524], [-61.658, 57.143], [-61.567, 56.955], [-61.67, 56.504], [-61.939, 56.214], [-61.41, 56.223], [-61.071, 55.892], [-60.328, 55.777], [-60.487, 55.66], [-60.208, 55.467], [-60.425, 55.266], [-59.786, 55.138], [-59.027, 55.154], [-58.732, 54.839], [-57.943, 54.751], [-57.379, 54.51], [-57.637, 54.376], [-58.175, 54.363], [-58.232, 54.25], [-59.237, 54.082], [-58.982, 53.965], [-59.573, 53.819], [-59.838, 53.845], [-60.13, 53.623], [-60.061, 53.501], [-59.59, 53.529], [-58.864, 53.931], [-58.333, 54.059], [-58.054, 54.238], [-57.442, 54.191], [-57.118, 53.74], [-56.323, 53.631], [-55.88, 53.374], [-55.75, 53.138], [-55.895, 52.558], [-55.664, 52.451], [-55.794, 52.026], [-56.819, 51.484], [-57.108, 51.415], [-57.108, 51.421], [-57.109, 51.992], [-59.034, 51.997], [-61.807, 51.996], [-63.808, 51.998], [-63.691, 52.13], [-64.038, 52.561], [-63.429, 52.646], [-63.66, 52.811], [-64.124, 52.732], [-64.109, 52.394], [-64.342, 51.986], [-64.278, 51.746], [-64.654, 51.702], [-65.186, 51.776], [-65.687, 52.104], [-66.33, 52.136], [-66.44, 52.629], [-66.261, 52.874], [-66.626, 52.954], [-66.772, 52.696], [-67.317, 52.875], [-67.042, 53.076], [-66.924, 53.419], [-67.219, 53.53], [-67.822, 54.026], [-67.675, 54.159], [-67.727, 54.457], [-67.349, 54.517], [-66.948, 54.822], [-66.603, 54.814], [-66.755, 55.114], [-66.603, 55.269], [-66.26, 55], [-65.85, 54.927], [-65.456, 54.729], [-65.126, 54.961], [-64.557, 54.714], [-64.295, 54.753], [-63.813, 54.651], [-63.821, 54.948], [-63.442, 55.344], [-63.665, 55.423], [-63.774, 55.856], [-64.09, 56.28], [-63.931, 56.534], [-64.145, 56.7], [-63.741, 57.241], [-63.856, 57.334], [-63.65, 57.62], [-64.117, 57.811], [-64.422, 58.187], [-63.95, 58.685], [-64.46, 58.982], [-64.544, 59.31], [-64.898, 59.642], [-64.84, 59.97], [-64.524, 60.301]]]]}, "properties": {"name": "Newfoundland and Labrador", "iso2": "CA-NL", "admin_level": 4, "osm_id": 391196, "countrylevel_id": "iso2:CA-NL", "osm_data": {"localname": "Newfoundland and Labrador", "official_name": "", "alltags": {"ref": "NL", "name": "Newfoundland and Labrador", "name:af": "Newfoundland en Labrador", "name:ar": "نيوفاوندلاند واللابرادور", "name:az": "Nyufaundlend və Labrador", "name:be": "Правінцыя Ньюфаўндленд і Лабрадор", "name:bg": "Нюфаундленд и Лабрадор", "name:br": "Douar-Nevez ha Labrador", "name:bs": "Newfoundland i Labrador", "name:ca": "Terranova i Labrador", "name:cs": "Newfoundland a Labrador", "name:cy": "Newfoundland a Labrador", "name:da": "Newfoundland og Labrador", "name:de": "Neufundland und Labrador", "name:el": "Νέα Γη και Λαμπραντόρ", "name:en": "Newfoundland and Labrador", "name:eo": "Novlando kaj Labradoro", "name:es": "Terranova y Labrador", "name:et": "Newfoundland ja Labrador", "name:eu": "Ternua eta Labrador", "name:fa": "نیوفاندلند و لابرادور", "name:fi": "Newfoundland ja Labrador", "name:fo": "Nýfundland og Labrador", "name:fr": "Terre-Neuve et Labrador", "name:fy": "Nijfûnlân en Labrador", "name:ga": "Talamh an Éisc agus Labradar", "name:gd": "An Talamh Ùr is Labrador", "name:gl": "Terra Nova e Labrador", "name:gv": "Thalloo yn Eeast as Labrador", "name:he": "ניופאונדלנד ולברדור", "name:hr": "Newfoundland i Labrador", "name:hu": "Új-Fundland és Labrador", "name:hy": "Նյուֆաունդլենդ և Լաբրադոր", "name:id": "Newfoundland dan Labrador", "name:ie": "Nov-Fundland e Labrador", "name:io": "Newfoundland e Labrador", "name:is": "Nýfundnaland og Labrador", "name:it": "Terranova e Labrador", "name:ja": "ニューファンドランド・ラブラドール州", "name:ka": "ნიუფაუნდლენდი და ლაბრადორი", "name:kl": "Newfoundland aamma Labrador", "name:ko": "뉴펀들랜드 래브라도 주", "name:ku": "Nîwfawindland û labrador", "name:kw": "Tir Nowydh ha Labrador", "name:la": "Terra Nova et Terra Laboratoria", "name:lb": "Neifundland a Labrador", "name:lt": "Niufaundlandas ir Labradoras", "name:lv": "Ņūfaundlenda un Labradora", "name:mk": "Њуфаундленд и Лабрадор", "name:mn": "Ньюфаундленд ба Лабрадор", "name:mr": "न्यूफाउंडलंड आणि लाब्राडोर", "name:ms": "Newfoundland dan Labrador", "name:nl": "Newfoundland en Labrador", "name:nn": "Newfoundland og Labrador", "name:no": "Newfoundland og Labrador", "name:oc": "Tèrranòva e Labrador", "name:os": "Ньюфаундленд æмæ Лабрадор", "name:pa": "ਨਿਊਫ਼ੰਡਲੈਂਡ ਅਤੇ ਲਾਬਰਾਡੋਰ", "name:pl": "Nowa Fundlandia i Labrador", "name:pt": "Terra Nova e Labrador", "name:qu": "Newfoundland wan Labrador pruwinsya", "name:ro": "Newfoundland și Labrador", "name:ru": "Ньюфаундленд и Лабрадор", "name:sc": "Terranova e Labrador", "name:sk": "Newfoundland a Labrador", "name:sl": "Nova Fundlandija in Labrador", "name:sq": "Toka e Re dhe Labradori", "name:sr": "Њуфаундленд и Лабрадор", "name:sv": "Newfoundland och Labrador", "name:ta": "நியூஃபவுன்லாந்து மற்றும் லாப்ரடோர்", "name:th": "รัฐนิวฟันด์แลนด์และแลบราดอร์", "name:tl": "Newfoundland at Labrador", "name:tr": "Newfoundland ve Labrador", "name:ug": "Néwfundland Ölkisi", "name:uk": "Ньюфаундленд і Лабрадор", "name:ur": "نیو فاؤنڈ لینڈ اور لیبراڈور", "name:uz": "Nyufaundlend va Labrador", "name:vi": "Newfoundland và Labrador", "name:vo": "Newfoundland e Labrador", "name:yi": "נייפונדלאנד און לאבראדאר", "name:yo": "Newfoundland àti Labrador", "name:zh": "紐芬蘭與拉布拉多省", "boundary": "administrative", "name:ckb": "نیوفاوندلاند و لابرادۆر", "state_code": "NL", "admin_level": "4", "border_type": "provincial"}}, "center_lat": 52.89, "center_lon": -60.51, "area_m2": 405350559413, "timezone": "America/Goose_Bay", "population": 528430, "wikidata_id": "Q2003", "wikipedia_id": "en:Newfoundland and Labrador"}}