{"type": "Feature", "geometry": {"type": "Polygon", "coordinates": [[[-62.771, 46.441], [-62.147, 46.484], [-62.108, 46.377], [-62.492, 46.215], [-62.56, 45.966], [-62.852, 45.974], [-62.985, 46.174], [-63.248, 46.129], [-63.617, 46.215], [-63.772, 46.389], [-64.106, 46.449], [-64.41, 46.707], [-64.165, 46.95], [-63.879, 46.639], [-63.312, 46.489], [-62.771, 46.441]]]}, "properties": {"name": "Prince Edward Island", "iso2": "CA-PE", "admin_level": 4, "osm_id": 391115, "countrylevel_id": "iso2:CA-PE", "osm_data": {"localname": "Prince Edward Island", "official_name": "", "alltags": {"ref": "PE", "name": "Prince Edward Island", "name:ca": "Illa del Príncep Eduard", "name:cs": "Ostrov prince Edvarda", "name:de": "Prinz-Edward-Insel", "name:en": "Prince Edward Island", "name:es": "Isla del Príncipe Eduardo", "name:fr": "Île-du-Prince-Édouard", "name:it": "Isola del Principe Edoardo", "name:lt": "Princo Edvardo sala", "name:nl": "Prins Edwardeiland", "name:pt": "Ilha do Príncipe Eduardo", "name:ro": "Insula Prințului Edward", "name:vi": "Đảo Hoàng tử Edward", "boundary": "administrative", "state_code": "PE", "admin_level": "4", "alt_name:cs": "Provincie Ostrov prince Eduarda", "border_type": "provincial", "is_in:country": "Canada", "is_in:continent": "North America", "is_in:country_code": "CA"}}, "center_lat": 46.39, "center_lon": -63.25, "area_m2": 5739182500, "timezone": "America/Halifax", "population": 152784, "wikidata_id": "Q1979", "wikipedia_id": "en:Prince Edward Island"}}