{"type": "Feature", "geometry": {"type": "Polygon", "coordinates": [[[-136.448, 68.891], [-136.442, 67.655], [-136.084, 67.308], [-136.16, 67], [-134.079, 66.979], [-133.805, 66.835], [-133.603, 66.274], [-133.617, 65.953], [-132.593, 66.03], [-132.165, 65.617], [-132.562, 65.286], [-132.519, 64.962], [-132.033, 64.697], [-131.871, 64.389], [-131.15, 64.417], [-130.773, 63.972], [-130.37, 63.836], [-129.882, 63.506], [-129.944, 63.338], [-129.785, 62.873], [-129.377, 62.547], [-129.185, 62.114], [-128.598, 62.141], [-128.072, 61.75], [-127.667, 61.546], [-127.135, 61.455], [-126.845, 60.812], [-125.278, 60.787], [-124.576, 60.951], [-124.597, 60.647], [-124.204, 60.454], [-123.989, 60.073], [-123.811, 60.001], [-126.4, 60.001], [-129.638, 60], [-132.561, 60], [-134.407, 60], [-136.555, 60], [-139.054, 59.995], [-139.075, 60.353], [-139.693, 60.335], [-139.981, 60.182], [-141.002, 60.306], [-141.002, 61.597], [-141.001, 63.022], [-141.001, 64.543], [-141.001, 66.179], [-141.001, 68.219], [-141.001, 68.352], [-141.001, 68.39], [-141.001, 68.498], [-141.001, 68.561], [-141.001, 69.646], [-139.981, 69.613], [-139.155, 69.503], [-137.948, 69.093], [-136.808, 68.862], [-136.448, 68.891]]]}, "properties": {"name": "Yukon", "iso2": "CA-YT", "admin_level": 4, "osm_id": 391455, "countrylevel_id": "iso2:CA-YT", "osm_data": {"localname": "Yukon", "official_name": "", "alltags": {"ref": "YT", "name": "Yukon", "name:ar": "يوكون", "name:be": "Тэрыторыя Юкан", "name:bg": "Юкон", "name:cs": "Yukon", "name:de": "Yukon", "name:el": "Γιούκον", "name:en": "Yukon", "name:eo": "Jukonio", "name:es": "Yukón", "name:fa": "یوکان", "name:gd": "Roinn an Iukon", "name:gl": "Yukón", "name:he": "יוקון", "name:hi": "यूकॉन", "name:hu": "Yukon", "name:hy": "Յուկոն", "name:is": "Júkon", "name:ja": "ユーコン準州", "name:ka": "იუკონი", "name:ko": "유콘 준주", "name:ku": "Îwkon", "name:lt": "Jukonas", "name:lv": "Jukona", "name:mk": "Јукон", "name:mn": "Юкон", "name:mr": "युकॉन", "name:nl": "Yukon", "name:os": "Юкон", "name:pa": "ਯੂਕੋਨ", "name:pl": "Jukon", "name:ru": "Юкон", "name:sk": "Yukon", "name:sl": "Jukon", "name:sr": "Јукон", "name:ta": "யூக்கான்", "name:th": "ยูคอน", "name:ug": "Yukon Rayoni", "name:uk": "Юкон", "name:ur": "يوكون", "name:yi": "יוקאן", "name:zh": "育空地區", "boundary": "administrative", "name:ckb": "یوکۆن", "state_code": "YT", "admin_level": "4", "border_type": "provincial", "timezone:note": "WP also mentions America/Dawson for North Yukon"}}, "center_lat": 63.63, "center_lon": -135.51, "area_m2": 481580956400, "timezone": "America/Whitehorse", "population": 38669, "wikidata_id": "Q2009", "wikipedia_id": "en:Yukon"}}