{"type": "Feature", "geometry": {"type": "Polygon", "coordinates": [[[14.226, 45.154], [14.224, 45.154], [14.223, 45.154], [14.221, 45.154], [14.211, 45.163], [14.196, 45.165], [14.207, 45.217], [14.183, 45.298], [14.204, 45.347], [14.111, 45.482], [14.118, 45.481], [14.503, 45.58], [14.57, 45.673], [14.689, 45.581], [14.787, 45.501], [14.962, 45.511], [15.057, 45.492], [15.227, 45.428], [15.017, 45.124], [14.881, 45.031], [14.466, 45.318], [14.227, 45.154], [14.226, 45.154]]]}, "properties": {"name": "Primorje-Gorski Kotar County", "iso2": "HR-08", "admin_level": 6, "osm_id": 226452, "countrylevel_id": "iso2:HR-08", "osm_data": {"localname": "Primorsko-goranska županija", "official_name": "", "alltags": {"name:en": "Primorje-Gorski Kotar County", "name:fr": "Comitat de Primorje-Gorski Kotar", "name:hu": "Tengermellék-Hegyvidék megye", "name:it": "Regione litoraneo-montana", "name:lt": "Primorjės–Kalnų Kotaro apskritis", "name:ru": "Приморско-Горанская жупания"}}, "center_lat": 45.23, "center_lon": 14.65, "area_m2": 3581749525, "timezone": "Europe/Zagreb", "wikidata_id": "Q58071", "wikipedia_id": "hr:Primorsko-goranska županija"}}