{"type": "Feature", "geometry": {"type": "Polygon", "coordinates": [[[17.885, 45.475], [18.048, 45.635], [17.914, 45.79], [18.411, 45.739], [18.814, 45.909], [18.822, 45.915], [18.89, 45.922], [18.855, 45.829], [18.848, 45.814], [18.848, 45.807], [18.874, 45.785], [18.895, 45.752], [18.93, 45.543], [19.032, 45.487], [19.004, 45.435], [18.642, 45.389], [18.522, 45.232], [18.072, 45.266], [17.885, 45.475]]]}, "properties": {"name": "Osijek-Baranja County", "iso2": "HR-14", "admin_level": 6, "osm_id": 222646, "countrylevel_id": "iso2:HR-14", "osm_data": {"localname": "Osječko-baranjska županija", "official_name": "", "alltags": {"name:en": "Osijek-Baranja County", "name:fr": "Comitat d'Osijek-Baranja", "name:hr": "Osječko-baranjska županija", "name:hu": "Eszék-Baranya megye", "name:lt": "Osijeko–Baranijos apskritis", "name:ru": "Осиецко-Бараньская жупания", "name:sr": "Осјечко-барањска жупанија", "population": "305032", "name:sr-Latn": "Osječko-baranjska županija"}}, "center_lat": 45.56, "center_lon": 18.46, "area_m2": 4154393067, "timezone": "Europe/Zagreb", "population": 305032, "wikidata_id": "Q58159", "wikipedia_id": "hr:Osječko-baranjska županija"}}