{"type": "Feature", "geometry": {"type": "Polygon", "coordinates": [[[23.869, 40.779], [24.118, 41.006], [23.801, 41.143], [23.624, 41.376], [24.06, 41.522], [24.45, 41.522], [24.784, 41.36], [25.18, 41.309], [25.239, 41.245], [25.949, 41.32], [26.193, 41.447], [26.358, 41.711], [26.595, 41.61], [26.635, 41.384], [26.307, 41.172], [26.302, 40.903], [26.036, 40.73], [25.951, 40.842], [25.561, 40.857], [25.13, 40.956], [24.63, 40.859], [24.395, 40.934], [24.067, 40.718], [23.869, 40.779]]]}, "properties": {"name": "East Macedonia and Thrace Region", "iso2": "GR-A", "admin_level": 5, "osm_id": 937937, "countrylevel_id": "iso2:GR-A", "osm_data": {"localname": "Περιφέρεια Ανατολικής Μακεδονίας και Θράκης", "official_name": "", "alltags": {"name:el": "Περιφέρεια Ανατολικής Μακεδονίας και Θράκης", "name:en": "East Macedonia and Thrace Region", "name:fr": "Macédoine-Orientale-et-Thrace", "name:lt": "Rytų Makedonijos ir Trakijos periferija", "name:mk": "Источна Македонија и Тракија", "name:nl": "Oost-Macedonië en Thracië", "name:ru": "периферия Восточная Македония и Фракия", "population": "608182"}}, "center_lat": 41.16, "center_lon": 25.14, "area_m2": 14182309719, "timezone": "Europe/Athens", "population": 601175, "wikidata_id": "Q171314", "wikipedia_id": "el:Περιφέρεια Ανατολικής Μακεδονίας και Θράκης"}}