{"type": "Feature", "geometry": {"type": "Polygon", "coordinates": [[[22.664, 39.975], [22.115, 40.19], [22.106, 40.43], [21.906, 40.681], [21.822, 40.696], [21.789, 40.931], [21.904, 41.069], [21.911, 41.093], [22.215, 41.17], [22.331, 41.121], [22.606, 41.127], [22.667, 41.186], [22.749, 41.171], [22.748, 41.171], [22.749, 41.176], [22.758, 41.245], [22.757, 41.303], [22.78, 41.327], [22.8, 41.341], [22.878, 41.341], [22.927, 41.339], [23.624, 41.376], [23.801, 41.143], [24.118, 41.006], [23.869, 40.779], [23.765, 40.757], [23.757, 40.634], [24.011, 40.389], [24.001, 40.315], [23.919, 39.948], [23.65, 40.225], [23.291, 40.237], [23.005, 40.35], [22.682, 40.53], [22.548, 40.142], [22.664, 39.975]]]}, "properties": {"name": "Central Macedonia Region", "iso2": "GR-B", "admin_level": 5, "osm_id": 937958, "countrylevel_id": "iso2:GR-B", "osm_data": {"localname": "Περιφέρεια Κεντρικής Μακεδονίας", "official_name": "", "alltags": {"name:bg": "Централна Македония", "name:el": "Περιφέρεια Κεντρικής Μακεδονίας", "name:en": "Central Macedonia Region", "name:fr": "Macédoine-Centrale", "name:mk": "Централна Македонија", "name:nl": "Centraal-Macedonië", "name:ru": "периферия Центральная Македония", "name:sq": "Maqedonia Qendrore", "name:tr": "Orta Makedonya", "name:zh": "中马其顿", "population": "1882108"}}, "center_lat": 40.74, "center_lon": 22.96, "area_m2": 18827608876, "timezone": "Europe/Athens", "population": 1875996, "wikidata_id": "Q17152", "wikipedia_id": "el:Περιφέρεια Κεντρικής Μακεδονίας"}}