{"type": "Feature", "geometry": {"type": "Polygon", "coordinates": [[[23.018, 39.003], [22.509, 39.049], [22.407, 39.217], [21.948, 39.029], [21.686, 39.252], [21.396, 39.165], [21.373, 39.174], [21.428, 39.281], [21.182, 39.502], [21.123, 39.67], [21.296, 39.858], [21.864, 39.958], [22.115, 40.19], [22.664, 39.975], [23.092, 39.502], [22.814, 39.239], [23.018, 39.003]]]}, "properties": {"name": "Region of Thessaly", "iso2": "GR-E", "admin_level": 5, "osm_id": 958236, "countrylevel_id": "iso2:GR-E", "osm_data": {"localname": "Περιφέρεια Θεσσαλίας", "official_name": "", "alltags": {"name:el": "Περιφέρεια Θεσσαλίας", "name:en": "Region of Thessaly", "name:fr": "Thessalie", "name:lt": "Tesalijos periferija", "name:mk": "Тесалија", "name:nl": "Thessalië", "name:ru": "периферия Фессалия", "population": "732762", "contact:website": "http://www.pthes.gov.gr/"}}, "center_lat": 39.53, "center_lon": 22.22, "area_m2": 14061507457, "timezone": "Europe/Athens", "wikidata_id": "Q22807284", "wikipedia_id": "el:Περιφέρεια Θεσσαλίας"}}