{"type": "Feature", "geometry": {"type": "MultiPolygon", "coordinates": [[[[22.373, 38.142], [22.264, 37.839], [21.793, 37.789], [21.966, 37.483], [21.682, 37.375], [21.559, 37.547], [21.11, 37.842], [21.452, 38.199], [22.01, 38.314], [22.373, 38.142]]], [[[20.719, 38.844], [21.109, 39.047], [21.373, 39.174], [21.396, 39.165], [21.571, 38.737], [21.897, 38.724], [22, 38.513], [21.855, 38.377], [21.496, 38.291], [21.142, 38.304], [20.87, 38.796], [20.719, 38.844]]]]}, "properties": {"name": "West Greece Region", "iso2": "GR-G", "admin_level": 5, "osm_id": 910919, "countrylevel_id": "iso2:GR-G", "osm_data": {"localname": "Περιφέρεια Δυτικής Ελλάδας", "official_name": "", "alltags": {"name:ar": "غرب اليونان", "name:el": "Περιφέρεια Δυτικής Ελλάδας", "name:en": "West Greece Region", "name:fr": "Grèce-Occidentale", "name:mk": "Западна Грција", "name:nl": "West-Griekenland", "name:ru": "периферия Западная Греция", "population": "679796", "contact:website": "http://www.pde.gov.gr", "official_name:ar": "إقليم غرب اليونان", "official_name:fr": "Périphérie de Grèce-Occidentale", "official_name:mk": "Западна Грција Област"}}, "center_lat": 38.28, "center_lon": 21.57, "area_m2": 11381237210, "timezone": "Europe/Athens", "wikidata_id": "Q170291", "wikipedia_id": "el:Περιφέρεια Δυτικής Ελλάδας"}}