{"type": "Feature", "geometry": {"type": "Polygon", "coordinates": [[[23.2, 37.597], [23.425, 37.412], [22.735, 37.523], [22.982, 37.048], [23.091, 36.791], [22.331, 36.738], [22.152, 37.016], [21.936, 36.987], [21.728, 36.8], [21.565, 37.163], [21.682, 37.375], [21.966, 37.483], [21.793, 37.789], [22.264, 37.839], [22.373, 38.142], [22.491, 38.136], [23.177, 37.805], [23.2, 37.597]]]}, "properties": {"name": "Peloponnese Region", "iso2": "GR-J", "admin_level": 5, "osm_id": 957717, "countrylevel_id": "iso2:GR-J", "osm_data": {"localname": "Περιφέρεια Πελοποννήσου", "official_name": "", "alltags": {"name:br": "Peloponnez", "name:el": "Περιφέρεια Πελοποννήσου", "name:en": "Peloponnese Region", "name:fr": "Péloponnèse", "name:ku": "Pelopones", "name:mk": "Пелопонез", "name:nl": "Peloponnesos", "name:ru": "периферия Пелопоннес", "name:zh": "伯罗奔尼撒大区", "population": "577903", "alt_name:zh": "伯罗奔尼撒", "contact:website": "http://ppel.gov.gr/", "official_name:fr": "Périphérie du Péloponnèse", "official_name:mk": "Пелопонез Област"}}, "center_lat": 37.34, "center_lon": 22.46, "area_m2": 15525985113, "timezone": "Europe/Athens", "population": 576749, "wikidata_id": "Q202484", "wikipedia_id": "el:Περιφέρεια Πελοποννήσου"}}