{"type": "Feature", "geometry": {"type": "MultiPolygon", "coordinates": [[[[73.256, -52.999], [73.537, -53.013], [73.752, -53.119], [73.498, -53.195], [73.256, -52.999]]], [[[147.891, -39.999], [147.957, -39.728], [148.282, -39.966], [148.331, -40.212], [148.043, -40.246], [147.891, -39.999]]], [[[143.886, -40], [143.849, -39.711], [144.11, -39.67], [144.128, -39.993], [143.886, -40]]], [[[145.999, -43.432], [145.905, -43.266], [145.513, -42.982], [145.196, -42.328], [145.294, -42.179], [145.188, -41.941], [144.912, -41.693], [144.687, -41.243], [144.615, -40.946], [144.736, -40.69], [145.258, -40.806], [146.172, -41.15], [147.489, -40.98], [147.834, -40.887], [147.973, -40.742], [148.224, -40.847], [148.32, -41.621], [148.283, -42.003], [148.014, -42.239], [147.962, -42.679], [147.814, -42.899], [147.582, -42.799], [146.803, -43.603], [145.999, -43.432]]], [[[167.92, -29], [167.991, -29.027], [167.941, -29.061], [167.92, -29]]], [[[153.22, -25], [153.357, -25.014], [153.099, -25.586], [152.953, -25.55], [153.041, -25.227], [153.22, -25]]], [[[137.001, -36.018], [136.758, -36.05], [136.533, -35.877], [136.587, -35.749], [137.491, -35.58], [137.666, -35.739], [137.373, -35.999], [137.001, -36.018]]], [[[150.694, -35.183], [150.695, -35.182], [150.694, -35.185], [150.694, -35.183]]], [[[105.623, -10.462], [105.675, -10.414], [105.706, -10.461], [105.675, -10.504], [105.623, -10.462]]], [[[150.695, -35.178], [150.696, -35.178], [150.696, -35.177], [150.671, -35.163], [150.667, -35.163], [150.663, -35.163], [150.62, -35.17], [150.597, -35.181], [150.595, -35.183], [150.594, -35.185], [150.15, -35.893], [150.148, -36.266], [149.904, -36.92], [150.038, -37.246], [149.977, -37.505], [149.489, -37.774], [148.29, -37.811], [147.752, -37.973], [146.932, -38.596], [146.384, -38.72], [146.193, -38.857], [145.916, -38.878], [145.735, -38.635], [145.436, -38.539], [145.486, -38.234], [145.118, -38.143], [144.97, -37.86], [144.652, -38.001], [144.625, -38.257], [144.037, -38.476], [143.842, -38.679], [143.512, -38.858], [143.357, -38.754], [142.788, -38.569], [142.372, -38.349], [142.148, -38.39], [141.742, -38.253], [141.407, -38.369], [140.966, -38.057], [140.665, -38.059], [140.376, -37.896], [140.129, -37.543], [139.758, -37.194], [139.67, -36.959], [139.861, -36.689], [139.55, -36.077], [139.212, -35.755], [138.711, -35.514], [138.522, -35.643], [138.096, -35.6], [138.441, -35.349], [138.541, -34.753], [138.043, -34.17], [137.916, -34.431], [137.734, -35.131], [137.423, -35.099], [137.143, -35.244], [136.829, -35.249], [137.012, -34.921], [137.457, -34.888], [137.46, -34.427], [137.601, -33.879], [137.931, -33.482], [137.836, -33.209], [138.054, -33.113], [137.809, -32.748], [137.453, -33.131], [137.215, -33.66], [136.93, -33.676], [136.365, -34.068], [136.263, -34.264], [135.932, -34.53], [135.847, -34.881], [135.685, -34.945], [135.431, -34.714], [135.254, -33.984], [134.843, -33.631], [134.802, -33.329], [134.601, -33.141], [134.267, -33.137], [134.143, -32.72], [134.254, -32.555], [133.904, -32.32], [133.534, -32.165], [133.135, -32.169], [132.741, -31.949], [132.176, -32.018], [131.818, -31.755], [131.13, -31.465], [130.793, -31.608], [130.275, -31.574], [129.002, -31.687], [128.056, -32.065], [127.221, -32.276], [126.678, -32.309], [126.205, -32.233], [125.949, -32.292], [125.532, -32.55], [125.025, -32.73], [124.751, -32.898], [124.243, -33.015], [124.106, -33.169], [123.979, -33.551], [123.547, -33.935], [123.165, -34.015], [123.042, -33.858], [122.362, -33.915], [122.118, -33.98], [122.003, -33.83], [121.786, -33.908], [121.374, -33.816], [121.177, -33.871], [120.6, -33.886], [120.437, -33.972], [120.046, -33.923], [119.64, -34.095], [119.399, -34.46], [118.996, -34.452], [118.259, -34.909], [117.629, -35.112], [117.362, -35.02], [116.636, -35.054], [116.032, -34.838], [115.589, -34.429], [115.369, -34.323], [115.12, -34.343], [114.991, -34.101], [114.98, -33.709], [115.427, -33.609], [115.681, -33.277], [115.607, -32.686], [115.746, -32.476], [115.748, -31.835], [115.057, -30.503], [114.959, -30.049], [114.998, -29.491], [114.873, -29.118], [114.634, -28.873], [114.596, -28.612], [114.176, -28.113], [114.104, -27.502], [113.757, -26.894], [113.296, -26.399], [113.56, -26.353], [113.68, -26.658], [113.887, -26.497], [113.882, -26.337], [113.582, -26.095], [113.414, -25.724], [113.514, -25.56], [113.894, -26.036], [113.974, -26.346], [114.22, -26.359], [114.279, -25.869], [114.055, -25.658], [113.831, -25.185], [113.704, -25.093], [113.611, -24.728], [113.408, -24.485], [113.391, -24.225], [113.47, -23.9], [113.779, -23.475], [113.83, -23.032], [113.716, -22.514], [113.996, -21.874], [114.179, -22.306], [114.154, -22.525], [114.431, -22.571], [114.522, -22.262], [114.914, -21.7], [115.286, -21.595], [116.232, -20.857], [116.465, -20.821], [116.707, -20.655], [116.899, -20.724], [117.177, -20.653], [117.336, -20.736], [117.769, -20.667], [118.152, -20.364], [118.829, -20.273], [119.104, -19.959], [119.574, -20.075], [119.742, -19.976], [120.196, -19.913], [121.053, -19.583], [121.491, -19.127], [121.652, -18.768], [121.904, -18.464], [122.368, -18.118], [122.249, -17.956], [122.147, -17.56], [122.173, -17.264], [122.579, -16.764], [122.779, -16.58], [123.116, -16.715], [123.391, -17.306], [123.625, -17.198], [123.83, -16.961], [123.621, -16.681], [123.738, -16.152], [123.967, -16.272], [124.431, -16.36], [124.585, -16.008], [124.409, -15.86], [124.477, -15.479], [124.624, -15.478], [124.716, -15.259], [125.06, -15.038], [125.385, -15.144], [125.155, -14.742], [125.358, -14.554], [126.042, -14.476], [126.207, -14.017], [126.455, -14.077], [126.576, -14.231], [126.983, -13.757], [127.113, -13.965], [127.348, -13.907], [127.671, -14.191], [127.888, -14.49], [128.184, -14.746], [128.078, -15.101], [128.456, -14.996], [128.553, -14.77], [129, -14.88], [129.348, -14.873], [129.618, -14.941], [129.625, -14.688], [129.374, -14.354], [129.494, -14.13], [129.722, -14.013], [129.833, -13.558], [130.16, -13.44], [130.117, -13.165], [130.177, -12.91], [130.347, -12.717], [130.543, -12.714], [130.616, -12.387], [130.768, -12.447], [131.222, -12.228], [131.66, -12.287], [131.88, -12.215], [132.06, -12.306], [132.417, -12.195], [132.62, -12.014], [132.65, -11.723], [132.528, -11.444], [132.067, -11.524], [131.831, -11.225], [131.963, -11.177], [132.436, -11.212], [132.733, -11.52], [133.001, -11.429], [133.152, -11.706], [133.525, -11.824], [133.732, -11.784], [134.191, -12.028], [134.493, -12.073], [134.769, -11.957], [134.855, -12.133], [135.244, -12.313], [135.394, -12.179], [135.911, -12.153], [136.047, -12.473], [136.306, -12.399], [136.212, -12.185], [136.417, -11.958], [136.531, -11.993], [136.664, -12.282], [136.927, -12.281], [136.663, -12.711], [136.625, -12.953], [136.476, -13.234], [135.92, -13.271], [135.88, -13.698], [136.016, -13.832], [135.881, -14.182], [135.73, -14.297], [135.389, -14.753], [135.467, -14.965], [136.24, -15.417], [136.289, -15.569], [136.677, -15.814], [137.006, -15.878], [137.314, -16.093], [137.728, -16.235], [137.995, -16.539], [138.177, -16.688], [138.622, -16.768], [138.998, -16.892], [139.156, -17.03], [139.237, -17.319], [139.996, -17.711], [140.382, -17.678], [140.819, -17.469], [140.945, -17.043], [141.187, -16.718], [141.432, -16.074], [141.378, -15.92], [141.47, -15.53], [141.676, -15.112], [141.526, -14.48], [141.597, -14.105], [141.467, -13.883], [141.524, -13.572], [141.696, -13.263], [141.629, -12.917], [141.833, -12.593], [141.591, -12.563], [141.851, -11.986], [141.952, -11.869], [142.12, -11.369], [142.126, -10.982], [142.356, -10.878], [142.424, -10.726], [142.786, -11.075], [142.855, -11.84], [143.187, -11.995], [143.08, -12.344], [143.273, -12.405], [143.543, -12.846], [143.503, -13.12], [143.588, -13.544], [143.532, -13.755], [143.682, -14.015], [143.784, -14.405], [143.948, -14.496], [144.193, -14.338], [144.596, -14.26], [144.625, -14.486], [144.904, -14.61], [145.024, -14.796], [145.289, -14.962], [145.241, -15.436], [145.45, -16.01], [145.412, -16.467], [145.811, -16.908], [145.948, -17.13], [146.149, -17.648], [146.018, -18.252], [146.34, -18.527], [146.288, -18.889], [146.564, -19.143], [147.112, -19.401], [147.472, -19.426], [147.617, -19.778], [147.853, -19.744], [147.91, -19.909], [148.223, -19.959], [148.348, -20.157], [148.568, -20.133], [148.847, -20.431], [148.663, -20.585], [149.044, -20.99], [149.31, -21.358], [149.438, -21.642], [149.576, -22.24], [149.852, -22.419], [150.043, -22.128], [150.18, -22.362], [150.534, -22.45], [150.669, -22.352], [150.832, -22.682], [150.751, -23.135], [150.817, -23.42], [151.122, -23.672], [151.173, -23.816], [151.435, -24.027], [151.891, -24.161], [152.166, -24.641], [152.392, -24.745], [152.667, -25.247], [152.9, -25.281], [152.92, -25.741], [153.129, -25.94], [153.063, -26.34], [153.14, -26.783], [153.03, -27.178], [153.26, -27.494], [153.444, -28.065], [153.552, -28.165], [153.606, -28.844], [153.341, -29.312], [153.363, -29.505], [153.202, -30.158], [152.988, -30.718], [153.065, -31.056], [152.932, -31.477], [152.541, -32.045], [152.531, -32.443], [152.345, -32.521], [152.122, -32.785], [151.856, -32.852], [151.348, -33.541], [151.25, -33.997], [150.927, -34.317], [150.857, -34.7], [150.701, -35.123], [150.755, -35.171], [150.753, -35.17], [150.75, -35.171], [150.747, -35.173], [150.746, -35.173], [150.745, -35.175], [150.737, -35.18], [150.731, -35.175], [150.73, -35.175], [150.729, -35.174], [150.73, -35.174], [150.729, -35.173], [150.728, -35.173], [150.723, -35.175], [150.722, -35.176], [150.712, -35.185], [150.711, -35.186], [150.708, -35.19], [150.708, -35.191], [150.706, -35.191], [150.705, -35.193], [150.702, -35.194], [150.7, -35.197], [150.698, -35.198], [150.693, -35.198], [150.692, -35.195], [150.692, -35.194], [150.691, -35.194], [150.691, -35.193], [150.695, -35.191], [150.694, -35.191], [150.695, -35.178]]], [[[139.15, -16.634], [139.304, -16.463], [139.561, -16.397], [139.597, -16.554], [139.289, -16.735], [139.15, -16.634]]], [[[96.861, -12.193], [96.862, -12.202], [96.846, -12.207], [96.82, -12.183], [96.821, -12.159], [96.817, -12.145], [96.824, -12.14], [96.83, -12.16], [96.821, -12.177], [96.835, -12.187], [96.845, -12.205], [96.861, -12.193]]], [[[130.209, -11.704], [130.18, -11.429], [130.342, -11.325], [130.505, -11.832], [130.209, -11.704]]], [[[131, -11.359], [131.251, -11.194], [131.467, -11.387], [131.473, -11.606], [130.975, -11.935], [130.499, -11.662], [130.556, -11.36], [131, -11.359]]], [[[136.418, -14], [136.436, -13.815], [136.811, -13.856], [136.651, -14.296], [136.402, -14.176], [136.418, -14]]]]}, "properties": {"name": "Australia", "iso1": "AU", "admin_level": 2, "osm_id": 80500, "countrylevel_id": "iso1:AU", "osm_data": {"localname": "Australia", "official_name": "Commonwealth of Australia", "alltags": {"flag": "http://upload.wikimedia.org/wikipedia/commons/b/b9/Flag_of_Australia.svg", "name:ab": "Австралиа", "name:af": "Australië", "name:am": "አውስትራልያ", "name:an": "Australia", "name:ar": "أستراليا", "name:as": "অষ্ট্ৰেলিয়া", "name:ay": "Australla", "name:az": "Avstraliya", "name:ba": "Австралия", "name:be": "Аўстра́лія", "name:bg": "Австралия", "name:bh": "ऑस्ट्रेलिया", "name:bi": "Ostrelia", "name:bm": "Ostralia", "name:bn": "অস্ট্রেলিয়া", "name:bo": "ཨོ་སེ་ཐེ་ལི་ཡ།", "name:br": "Aostralia", "name:bs": "Australija", "name:ca": "Austràlia", "name:ce": "Австра́ли", "name:co": "Australia", "name:cs": "Austrálie", "name:cu": "Аѵстралїꙗ", "name:cv": "Австрали", "name:cy": "Awstralia", "name:da": "Australien", "name:dv": "އޮސްޓަރުލިޔާ", "name:dz": "ཨས་ཊེཡེ་ལི་ཡ", "name:ee": "Australia", "name:el": "Αυστραλία", "name:en": "Australia", "name:eo": "Aŭstralio", "name:es": "Australia", "name:et": "Austraalia", "name:eu": "Australia", "name:fa": "استرالیا", "name:fi": "Australia", "name:fo": "Avstralia", "name:fr": "Australie", "name:fy": "Austraalje", "name:ga": "Astráil", "name:gd": "Astràilia", "name:gl": "Australia", "name:gn": "Autaralia", "name:gu": "ઑસ્ટ્રેલિયા", "name:gv": "Austrail", "name:ha": "Asturaliya", "name:he": "אוסטרליה", "name:hi": "ऑस्ट्रेलिया", "name:hr": "Australija", "name:ht": "Ostrali", "name:hu": "Ausztrália", "name:hy": "Ավստրալիա", "name:ia": "Australia", "name:id": "Australia", "name:ie": "Australia", "name:ig": "Ostraliya", "name:io": "Australia", "name:is": "Ástralía", "name:it": "Australia", "name:iu": "ᐊᔅᑦᕌᓕᐊ", "name:ja": "オーストラリア", "name:jv": "Ostrali", "name:ka": "ავსტრალია", "name:kg": "Australia", "name:ki": "Australia", "name:kk": "Аустралия", "name:kl": "Australia", "name:km": "អូស្ត្រាលី", "name:kn": "ಆಸ್ಟ್ರೇಲಿಯ", "name:ko": "오스트레일리아", "name:ku": "Awistralya", "name:kv": "Австралия", "name:kw": "Ostrali", "name:ky": "Австралия", "name:la": "Australia", "name:lb": "Australien", "name:li": "Australië", "name:lo": "ປະເທດອົດສະຕາລີ", "name:lt": "Australija", "name:lv": "Austrālija", "name:mg": "Aostralia", "name:mi": "Ahitereiria", "name:mk": "Австралија", "name:ml": "ഓസ്ട്രേലിയ", "name:mn": "Австрали", "name:mr": "ऑस्ट्रेलिया", "name:ms": "Australia", "name:mt": "Awstralja", "name:my": "ဩစတြေးလျနိုင်ငံ", "name:na": "Otereiriya", "name:ne": "अष्ट्रेलिया", "name:nl": "Australië", "name:nn": "Australia", "name:no": "Australia", "name:nv": "Nahatʼeʼiitsoh Bikéyah", "name:oc": "Austràlia", "name:om": "Awustireliyaa", "name:or": "ଅଷ୍ଟ୍ରେଲିଆ", "name:os": "Австрали", "name:pa": "ਆਸਟ੍ਰੇਲੀਆ", "name:pi": "आस्ट्रेलिया", "name:pl": "Australia", "name:ps": "آسټراليا", "name:pt": "Austrália", "name:qu": "Awstralya", "name:rm": "Australia", "name:rn": "Australiya", "name:ro": "Australia", "name:ru": "Австралия", "name:rw": "Ositaraliya", "name:sa": "आस्ट्रेलिया", "name:sc": "Austràlia", "name:sd": "آسٽريليا", "name:se": "Australia", "name:sg": "Ostralïi", "name:sh": "Australija", "name:si": "ඕස්ට්‍රේලියාව", "name:sk": "Austrália", "name:sl": "Avstralija", "name:sm": "Ausetalia", "name:sn": "Australia", "name:so": "Australia", "name:sq": "Australia", "name:sr": "Аустралија", "name:su": "Australia", "name:sv": "Australien", "name:sw": "Australia", "name:ta": "ஆஸ்திரேலியா", "name:te": "ఆస్ట్రేలియా", "name:tg": "Австралия", "name:th": "ออสเตรเลีย", "name:ti": "ኣውስትራሊያ", "name:tk": "Awstraliýa", "name:tl": "Australya", "name:tr": "Avustralya", "name:tt": "Австралия", "name:tw": "Australia", "name:ty": "Autereraria", "name:ug": "ئاۋستىرالىيە", "name:uk": "Австра́лія", "name:ur": "آسٹریلیا", "name:uz": "Avstraliya", "name:vi": "Úc", "name:vo": "Laustralän", "name:wa": "Ostraleye", "name:wo": "Óstraali", "name:yi": "אויסטראַליע", "name:yo": "Austrálíà", "name:za": "Audaihleihya", "name:zh": "澳大利亚", "name:zu": "I-Ostreliya", "int_name": "Australia", "name:ace": "Australia", "name:ady": "Аустралие", "name:als": "Australie", "name:ang": "Australia", "name:arc": "ܐܘܣܛܪܠܝܐ", "name:arz": "اوستراليا", "name:ast": "Australia", "name:azb": "استرالیا", "name:bar": "Australien", "name:bcl": "Australya", "name:bjn": "Australia", "name:bpy": "অস্ট্রেলিয়া", "name:bxr": "Австрали", "name:cdo": "Ó̤-ciŭ", "name:ceb": "Awstralya", "name:chr": "ᏒᎳᏗᏝ", "name:ckb": "ئۆسترالیا", "name:crh": "Avstraliya", "name:diq": "Awıstralya", "name:dsb": "Awstralska", "name:dty": "अस्ट्रेलिया", "name:eml": "Austràglia", "name:ext": "Austrália", "name:frp": "Ôstralie", "name:frr": "Austraalien", "name:fur": "Australie", "name:gag": "Avstraliya", "name:gan": "澳大利亞", "name:gom": "ऑस्ट्रेलिया", "name:hak": "Àu-thai-li-â", "name:haw": "‘Aukekulelia", "name:hif": "Australia", "name:hsb": "Awstralska", "name:ilo": "Australia", "name:jam": "Aschrielia", "name:jbo": "sralygu'e", "name:kaa": "Avstraliya", "name:kab": "Usṭralya", "name:kbd": "Аустралиэ", "name:kbp": "Ositraalii", "name:krc": "Австралия", "name:ksh": "Australie", "name:lad": "Ostralya", "name:lez": "Австралия", "name:lij": "Australia", "name:lmo": "Aüstralia", "name:ltg": "Australeja", "name:lzh": "澳大利亞", "name:mai": "अस्ट्रेलिया", "name:mdf": "Австралие", "name:mhr": "Австралий", "name:min": "Australia", "name:mrj": "Австрали", "name:mwl": "Oustrália", "name:mzn": "استرالیا", "name:nah": "Australia", "name:nan": "Ò-chiu", "name:nap": "Australia", "name:nds": "Australien", "name:new": "अस्ट्रेलिया", "name:nov": "Australia", "name:nrm": "Australie", "name:nso": "Australia", "name:olo": "Avstrualii", "name:pam": "Australia", "name:pap": "Australia", "name:pcd": "Australie", "name:pdc": "Australie", "name:pih": "Ostrielya", "name:pms": "Australia", "name:pnb": "آسٹریلیا", "name:pnt": "Αυστραλία", "name:rue": "Австралія", "name:sah": "Аустралиа", "name:scn": "Australia", "name:sco": "Australie", "name:stq": "Australien", "name:szl": "Australijo", "name:tcy": "ಆಸ್ಟ್ರೇಲಿಯಾ", "name:tet": "Austrália", "name:tpi": "Ostrelia", "name:tum": "Australia", "name:tyv": "Австралия", "name:tzl": "Australia", "name:vec": "Austrałia", "name:vep": "Avstralii", "name:vls": "Australië", "name:war": "Australya", "name:wuu": "澳大利亚", "name:xal": "Австралмудин Ниицән", "name:xmf": "ავსტრალია", "name:yue": "澳洲", "name:zea": "Australië", "alt_name:af": "Gemenebes van Australië", "alt_name:ca": "Mancomunitat d'Austràlia", "alt_name:gn": "Auterália", "alt_name:mi": "Whenua Moemoeā", "alt_name:nv": "Bichʼáh Yiisdiisí Bikéyah", "alt_name:rw": "Australiya", "alt_name:sk": "Austrálske spoločenstvo", "alt_name:sv": "Samväldet Australien", "alt_name:ta": "அவுஸ்திரேலியா", "alt_name:zu": "I-Australiya", "name:nds-nl": "Australië", "name:simple": "Australia", "alt_name:arc": "ܐܘܣܬܪܠܝܐ", "alt_name:chr": "ᎡᎳᏗᏜ", "alt_name:hak": "Au-chû", "alt_name:kab": "Ostṛalya", "alt_name:war": "Australia", "driving_side": "left", "name:bat-smg": "Australėjė", "name:cbk-zam": "Australia", "name:fiu-vro": "Austraalia", "name:roa-tara": "Australie", "official_name": "Commonwealth of Australia", "name:be-tarask": "Аўстра́лія", "contact:website": "http://australia.gov.au", "website:tourism": "http://www.australia.com", "default_language": "en", "official_name:af": "Australiese Gemenebes", "official_name:am": "የአውስትራልያ ሉዓላዊ መንግስት", "official_name:an": "Mancomunidat d'Australia", "official_name:ar": "كومنولث أستراليا", "official_name:as": "কমনৱেল্‌থ অব অষ্ট্ৰেলিয়া", "official_name:ay": "Mancomunidad de Australia", "official_name:az": "Avstraliya İttifaqı", "official_name:be": "Аўстралі́йскі Саю́з", "official_name:bg": "Австралийският съюз", "official_name:bh": "ऑस्ट्रेलियाई राष्ट्रमंडल", "official_name:bi": "Komenwelth blong Ostrelia", "official_name:bn": "কমনওয়েলথ অব অস্ট্রেলিয়া", "official_name:br": "Kenglad Aostralia", "official_name:ca": "Commonwealth d'Austràlia", "official_name:cs": "Australské společenství", "official_name:cu": "Аѵстралі́искꙑи Съвѫ́ꙁъ", "official_name:cv": "Австрали Пĕрлешĕвĕ", "official_name:cy": "Cymanwlad Awstralia", "official_name:da": "Forbundsstaten Australien", "official_name:de": "Australischer Bund", "official_name:el": "Κοινοπολιτεία της Αυστραλίας", "official_name:en": "Commonwealth of Australia", "official_name:eo": "Komunejo de Aŭstralio", "official_name:es": "Mancomunidad de Australia", "official_name:et": "Austraalia Ühendus", "official_name:eu": "Australiako Commonwealtha", "official_name:fa": "کشور مشترک‌المنافع استرالیا", "official_name:fi": "Australian liittovaltio", "official_name:fo": "Samveldið Avstralia", "official_name:fr": "Commonwealth d'Australie", "official_name:fy": "Mienebêst Austraalje", "official_name:ga": "Comhlathas na hAstráile", "official_name:gl": "Mancomunidade de Australia", "official_name:gn": "Tetã Autaralia", "official_name:gu": "કોમનવેલ્થ ઓફ ઑસ્ટ્રેલિયા", "official_name:gv": "Co-unnaneys ny h-Austrail", "official_name:ha": "Commonwealh na Asturaliya", "official_name:he": "קהיליית אוסטרליה", "official_name:hi": "ऑस्ट्रेलियाई राष्ट्रमंडल", "official_name:hu": "Ausztrál Államszövetség", "official_name:hy": "Ավստրալական Միություն", "official_name:id": "Persemakmuran Australia", "official_name:ie": "Comunalité de Australia", "official_name:is": "Samveldið Ástralía", "official_name:it": "Commonwealth dell'Australia", "official_name:ja": "オーストラリア連邦", "official_name:ka": "ავსტრალიის კავშირი", "official_name:kk": "Аустралия Одағы", "official_name:kl": "Kunngeqarfik Australia", "official_name:km": "ចក្រភពអូស្រ្តាលី", "official_name:ko": "오스트레일리아 연방", "official_name:kv": "Австралияса Öтувъябур", "official_name:ky": "Австралиялык Биримдик", "official_name:lb": "Commonwealth of Australia", "official_name:lo": "ເຄືອລັດອົດສະຕະຣາລີ", "official_name:lt": "Australijos Sandrauga", "official_name:lv": "Austrālijas Savienība", "official_name:mg": "Commonwealth an'i Aostralia", "official_name:mi": "Whakaminenga o Ahitereiria", "official_name:mk": "Државна заедница Австралија", "official_name:ml": "കോമൺവെൽത്ത് ഓഫ് ഓസ്ട്രേലിയ", "official_name:mn": "Үндэстнүүдийн холбооны Австрали улс", "official_name:mr": "ऑस्ट्रेलियाचे राष्ट्रकुल", "official_name:ms": "Komanwel Australia", "official_name:mt": "Commonwealth tal-Awstralja", "official_name:my": "ဩစတြေးလျ ဓနသဟာယနိုင်ငံ", "official_name:ne": "अस्ट्रेलियाली राष्ट्रमंडल", "official_name:nl": "Gemenebest Australië", "official_name:oc": "Commonwealth d'Austràlia", "official_name:os": "Австралийы Цæдис", "official_name:pa": "ਕੌਮਨਵੈਲਥ ਔਵ ਔਸਟ੍ਰੇਲੀਆ", "official_name:pl": "Związek Australijski", "official_name:pt": "Comunidade da Austrália", "official_name:qu": "Awstralya Llaqta Tanta", "official_name:rm": "Communitad d'Australia", "official_name:ro": "Commonwealth of Australia", "official_name:ru": "Австралийский Союз", "official_name:sc": "Commonwealth de Australia", "official_name:sd": "فيڊريشن آف آسٽريليا", "official_name:se": "Australia stáhtaidovttastupmi", "official_name:sh": "Commonwealth Australija", "official_name:si": "ඕස්ට්‍රේලියා පොදුරාජ්‍යමණ්ඩලීය රාජ්‍යය", "official_name:sk": "Austrálsky zväz", "official_name:sl": "Avstralska zveza", "official_name:sm": "Taupulega o Ausetalia", "official_name:sq": "Federata e Australisë", "official_name:sr": "Комонвелт Аустралија", "official_name:su": "Persemakmuran Australia", "official_name:sv": "Australiska statsförbundet", "official_name:sw": "Jumuiya ya Australia", "official_name:ta": "பொதுநலவாய ஆஸ்திரேலியா", "official_name:te": "కామన్వెల్త్ అఫ్ ఆస్ట్రేలియా", "official_name:th": "เครือรัฐออสเตรเลีย", "official_name:tk": "Awstraliýa Soýuzy", "official_name:tl": "Komonwelt ng Australia", "official_name:tr": "Avustralya Milletler Topluluğu", "official_name:tt": "Австралия Берлеге", "official_name:uk": "Австралі́йський Сою́з", "official_name:ur": "دولت مشترکہ آسٹریلیا", "official_name:uz": "Avstraliya Ittifoqi", "official_name:vi": "Thịnh vượng chung Úc", "official_name:yi": "קאמאנוועלט פון אויסטראליע", "official_name:yo": "Orílẹ̀-èdè Àjọni ilẹ̀ Austrálíà", "official_name:za": "Audaihleihya Lienzbangh", "official_name:zh": "澳大利亚联邦", "official_name:zu": "lase-Ostreliya", "official_name:ace": "Аустралиэ Зэгуэт", "official_name:als": "Commonwealth von Australien", "official_name:ang": "Australie Cynewise", "official_name:arc": "ܗܘܦܪܟܝܐ ܕܐܘܣܛܪܠܝܐ", "official_name:azb": "اوستورالیا بیرلیگی", "official_name:bar": "Commonwealth vu Australien", "official_name:bjn": "Nagara Pasamakmuran Australia", "official_name:bpy": "কমনৱেলথ অস্ট্রেলিয়া", "official_name:bxr": "Австралиин Хамтын Нүхэрлэл", "official_name:cdo": "Ó̤-ciŭ Lièng-băng", "official_name:ceb": "Komonwelt sa Awstralya", "official_name:chr": "ᏂᎦᏓᎤᎾᏤᎵ ᎾᎿ ᎡᎳᏗᏜ", "official_name:ckb": "یەکیەتیی ھاوقازانجی ئۆسترالیا", "official_name:crh": "Avstraliya Birligi", "official_name:dsb": "Zjadnośeństwo Awstralskeje", "official_name:dty": "अस्ट्रेलियाली राष्ट्रमंडल", "official_name:ext": "Mancomuniá d'Austrália", "official_name:frr": "Commonwealth faan Austraalien", "official_name:fur": "Commonwealth of Australia", "official_name:gan": "澳大利亞聯邦", "official_name:hak": "Au-thai-li-â lièn-pâng", "official_name:hif": "Commonwealth of Australia", "official_name:ilo": "Mankomunidad iti Australia", "official_name:jam": "Kamanwelt a Aschrielia", "official_name:krc": "Австралия Бирлик", "official_name:lad": "Mankomunidad de Ostralia", "official_name:lez": "Австралиядин галкӀ", "official_name:ltg": "Australejis Sadraudzeiba", "official_name:lzh": "澳大利亞聯邦", "official_name:mai": "अस्ट्रेलियाली राष्ट्रमण्डल", "official_name:mhr": "Австралий Ушем", "official_name:min": "Nagara Persemakmuran Australia", "official_name:mwl": "Quemunidade de la Oustrália", "official_name:mzn": "استرالیای ِمشترک‌المنافع", "official_name:nah": "Cemāxcātlatquiyōtl Australia", "official_name:nan": "Ò-tāi-lī-a Liân-pang", "official_name:nap": "Commonwealth 'e ll'Australia", "official_name:pam": "Commonwealth ning Australia", "official_name:pap": "Commonwealth di Australia", "official_name:pcd": "Commonwealth d’Australie", "official_name:rue": "Австральскій Союз", "official_name:sah": "Аустралиа Доҕордоhуута", "official_name:scn": "Commonwealth of Australia", "official_name:sco": "Commonweel o Australie", "official_name:szl": "Zwjůnzek Australijski", "official_name:tet": "Komunidade Austrália nian", "official_name:tyv": "Австралия Эвилели", "official_name:vec": "Comunità indipendente de ła Austrałia", "official_name:vep": "Avstralijan Ühtištuz", "official_name:wuu": "澳大利亚联邦", "official_name:xal": "Австралмудин Ниицән", "official_name:xmf": "ავსტრალიაშ რსხუ", "official_name:yue": "澳大利亞聯邦", "official_name:nds-nl": "Gemenebest van Australië", "official_name:bat-smg": "Australijės Sondrauga", "official_name:fiu-vro": "Austraalia Ütisõs", "official_name:roa-tara": "Commonwealth de ll'Australie", "official_name:be-tarask": "Аўстралійскі Саюз"}}, "center_lat": -25.73, "center_lon": 134.49, "area_m2": 7718959643373, "timezone": "Australia/Darwin", "population": 24511800, "wikidata_id": "Q408", "wikipedia_id": "en:Australia"}}