{"type": "Feature", "geometry": {"type": "Polygon", "coordinates": [[[20.001, 60.242], [19.701, 60.169], [19.9, 60.426], [20.191, 60.346], [20.001, 60.242]]]}, "properties": {"name": "Åland Islands", "iso1": "AX", "admin_level": 3, "osm_id": 1650407, "countrylevel_id": "iso1:AX", "osm_data": {"localname": "Åland", "official_name": "Provinsen Åland", "alltags": {"name:cs": "Ålandy", "name:en": "Åland Islands", "name:eo": "Alando", "name:fi": "Ahvenanmaa", "name:fr": "Åland", "name:hr": "Ålandsko Otočje", "name:io": "Alando", "name:mk": "Оланд", "name:nl": "Ålandseilanden", "name:pl": "Wyspy Alandzkie", "name:ru": "Аландские острова", "name:sv": "Åland", "name:uz": "Aland orollari", "int_name": "Åland", "old_name": "Aland", "ref:NUTS": "FI2;FI20;FI200", "official_name": "Provinsen Åland", "official_name:eo": "Provinco Alando", "official_name:fr": "État libre associé d'Åland", "start_date:old_name": "before 1532"}}, "center_lat": 60.22, "center_lon": 20.15, "area_m2": 1486270483, "timezone": "Europe/Mariehamn", "population": 29789, "wikidata_id": "Q5689", "wikipedia_id": "en:Åland Islands"}}