{"type": "Feature", "geometry": {"type": "Polygon", "coordinates": [[[28.03, 41.983], [27.447, 41.967], [27.061, 42.09], [26.906, 41.989], [26.562, 41.926], [26.358, 41.711], [26.193, 41.447], [25.949, 41.32], [25.239, 41.245], [25.18, 41.309], [24.784, 41.36], [24.45, 41.522], [24.06, 41.522], [23.624, 41.376], [22.927, 41.339], [22.968, 41.52], [23.013, 41.692], [22.902, 41.878], [22.866, 42.022], [22.661, 42.073], [22.51, 42.156], [22.36, 42.311], [22.559, 42.485], [22.468, 42.641], [22.441, 42.825], [22.517, 42.87], [22.748, 42.89], [23.006, 43.193], [22.747, 43.386], [22.667, 43.403], [22.357, 43.81], [22.536, 44.046], [22.674, 44.216], [22.966, 44.098], [23.057, 43.796], [23.625, 43.792], [24.113, 43.699], [24.324, 43.698], [24.657, 43.724], [25.293, 43.655], [25.545, 43.643], [25.672, 43.689], [26.106, 43.968], [26.367, 44.039], [26.91, 44.137], [27.268, 44.127], [27.696, 43.987], [27.994, 43.843], [28.579, 43.739], [28.565, 43.676], [28.565, 43.675], [28.603, 43.527], [28.603, 43.526], [28.457, 43.377], [28.456, 43.377], [28.252, 43.407], [28.251, 43.406], [28.094, 43.377], [28.076, 43.353], [28.063, 43.319], [28.05, 43.3], [28.038, 43.268], [28.038, 43.267], [28.037, 43.265], [28.037, 43.264], [28.021, 43.245], [28.02, 43.244], [28.019, 43.243], [28.017, 43.24], [28.017, 43.239], [28.016, 43.237], [27.942, 43.208], [27.941, 43.208], [27.94, 43.209], [27.932, 43.206], [27.93, 43.206], [27.927, 43.205], [27.882, 42.838], [27.862, 42.7], [27.843, 42.701], [27.836, 42.702], [27.831, 42.703], [27.809, 42.701], [27.808, 42.701], [27.79, 42.704], [27.789, 42.704], [27.712, 42.678], [27.712, 42.676], [27.697, 42.652], [27.696, 42.652], [27.512, 42.553], [27.511, 42.552], [27.55, 42.452], [27.551, 42.452], [27.552, 42.451], [27.65, 42.451], [27.65, 42.45], [27.65, 42.448], [27.65, 42.445], [27.649, 42.445], [27.65, 42.442], [27.65, 42.437], [27.65, 42.418], [27.696, 42.424], [27.733, 42.332], [27.734, 42.332], [27.783, 42.332], [27.789, 42.218], [27.828, 42.194], [27.828, 42.193], [27.829, 42.193], [27.833, 42.194], [27.834, 42.195], [27.835, 42.194], [27.838, 42.193], [27.839, 42.193], [27.84, 42.193], [27.84, 42.194], [27.841, 42.194], [27.84, 42.189], [27.842, 42.189], [27.843, 42.189], [27.843, 42.187], [27.844, 42.187], [27.843, 42.186], [27.845, 42.186], [27.846, 42.186], [27.881, 42.147], [27.883, 42.147], [27.973, 42.067], [27.974, 42.066], [28.007, 42.033], [28.008, 42.033], [28.009, 42.033], [28.03, 41.983]]]}, "properties": {"name": "Bulgaria", "iso1": "BG", "admin_level": 2, "osm_id": 186382, "countrylevel_id": "iso1:BG", "osm_data": {"localname": "Бългaрия", "official_name": "Репу̀блика Бълга̀рия", "alltags": {"flag": "http://upload.wikimedia.org/wikipedia/commons/9/9a/Flag_of_Bulgaria.svg", "name:ab": "Болга́риа", "name:af": "Bulgarye", "name:ak": "Bulgaria", "name:am": "ቡልጋሪያ", "name:an": "Bulgaria", "name:ar": "بلغاريا", "name:av": "Болга́рия", "name:ay": "Bulkariya", "name:az": "Bolqarıstan", "name:ba": "Болга́рия", "name:be": "Балга́рыя", "name:bg": "България", "name:bh": "बुल्गारिया", "name:bi": "Bulgaria", "name:bn": "বুলগেরিয়া", "name:bo": "པུ་ར་ག་རི་ཡ།", "name:br": "Bulgaria", "name:bs": "Bugarska", "name:ca": "Bulgària", "name:ce": "Болга́ри", "name:ch": "Bulgaria", "name:co": "Bulgaria", "name:cs": "Bulharsko", "name:cu": "Блъгарїꙗ", "name:cv": "Пăлхарĕ", "name:cy": "Bwlgaria", "name:da": "Bulgarien", "name:dv": "ބަލްގޭރިއާ", "name:ee": "Bulgaria", "name:el": "Βουλγαρία", "name:en": "Bulgaria", "name:eo": "Bulgarujo", "name:es": "Bulgaria", "name:et": "Bulgaaria", "name:eu": "Bulgaria", "name:fa": "بلغارستان", "name:ff": "Bulgariya", "name:fi": "Bulgaria", "name:fo": "Bulgaria", "name:fr": "Bulgarie", "name:fy": "Bulgarije", "name:ga": "an Bhulgáir", "name:gd": "Bulgàiria", "name:gl": "Bulgaria", "name:gn": "Vugaria", "name:gu": "બલ્ગેરિયા", "name:gv": "yn Vulgeyr", "name:ha": "Bulgairiya", "name:he": "בּוּלְגַרְיָה", "name:hi": "बुल्गारिया", "name:hr": "Bugarska", "name:ht": "Bilgari", "name:hu": "Bulgária", "name:hy": "Բուլղարիա", "name:ia": "Bulgaria", "name:id": "Bulgaria", "name:ie": "Bulgaria", "name:ig": "Bulgaria", "name:io": "Bulgaria", "name:is": "Búlgaría", "name:it": "Bulgaria", "name:ja": "ブルガリア", "name:jv": "Bulgaria", "name:ka": "ბულგარეთი", "name:kg": "Balgaria", "name:kk": "Болгария", "name:kl": "Bulgaria", "name:kn": "ಬಲ್ಗೇರಿಯ", "name:ko": "불가리아", "name:ku": "Bulgaristan", "name:kv": "Болгария", "name:kw": "Bulgari", "name:ky": "Болгария", "name:la": "Bulgaria", "name:lb": "Bulgarien", "name:li": "Bölgarije", "name:ln": "Bulgaria", "name:lo": "ປະເທດບູນກາລີ", "name:lt": "Bulgarija", "name:lv": "Bulgārija", "name:mg": "Biolgaria", "name:mi": "Purukāria", "name:mk": "Бугарија", "name:ml": "ബൾഗേറിയ", "name:mn": "Болгар", "name:mr": "बल्गेरिया", "name:ms": "Bulgaria", "name:mt": "Bulgarija", "name:my": "ဘူလ်ဂေးရီးယားနိုင်ငံ", "name:na": "Borgeriya", "name:ne": "बुल्गेरिया", "name:nl": "Bulgarije", "name:nn": "Bulgaria", "name:no": "Bulgaria", "name:nv": "Bálgaa Bikéyah", "name:oc": "Bulgaria", "name:om": "Bulgeeriyaa", "name:or": "ବୁଲଗାରିଆ", "name:os": "Болгари", "name:pa": "ਬੁਲਗਾਰੀਆ", "name:pi": "बुल्गारिया", "name:pl": "Bułgaria", "name:ps": "بلغاریا", "name:pt": "Bulgária", "name:qu": "Bulgarya", "name:rm": "Bulgaria", "name:rn": "Bulgaria", "name:ro": "Bulgaria", "name:ru": "Болгария", "name:rw": "Bulugariya", "name:sa": "बुल्गारिया", "name:sc": "Bulgaria", "name:sd": "بلغاريه", "name:se": "Bulgária", "name:sg": "Bulugarïi", "name:sh": "Bugarska", "name:si": "බල්ගේරියාව", "name:sk": "Bulharsko", "name:sl": "Bolgarija", "name:sm": "Bultalia", "name:sn": "Bulgaria", "name:so": "Bulgaria", "name:sq": "Bullgaria", "name:sr": "Бугарска", "name:ss": "iBhulgariya", "name:su": "Bulgaria", "name:sv": "Bulgarien", "name:sw": "Bulgaria", "name:ta": "பல்கேரியா", "name:te": "బల్గేరియా", "name:tg": "Булғористон", "name:th": "บัลแกเรีย", "name:tk": "Bolgariýa", "name:tl": "Bulgarya", "name:tr": "Bulgaristan", "name:ts": "Bulgaria", "name:tt": "Болгария", "name:tw": "Bulgaria", "name:ug": "بۇلغارىيە", "name:uk": "Болга́рія", "name:ur": "بلغاریہ", "name:uz": "Bolgariya", "name:vi": "Bulgaria", "name:vo": "Bulgarän", "name:wa": "Bulgåreye", "name:wo": "Bulgaari", "name:yi": "בולגאַריע", "name:yo": "Bùlgáríà", "name:zh": "保加利亚", "name:zu": "IBulgariya", "int_name": "Bulgaria", "name:ace": "Bulgaria", "name:ady": "Булгарие", "name:als": "Bulgarie", "name:ang": "Pulgaraland", "name:arc": "ܒܘܠܓܐܪܝܐ", "name:arz": "بلجاريا", "name:ast": "Bulgaria", "name:azb": "بولغاریستان", "name:bar": "Buigarien", "name:bcl": "Bulgarya", "name:bpy": "বুলগেরিয়া", "name:bxr": "Болгари", "name:cdo": "Bō̤-gă-lê-ā", "name:ceb": "Bulgaria", "name:chr": "ᏊᎵᎨᎵᎠ", "name:ckb": "بولگاریا", "name:crh": "Bulğaristan", "name:csb": "Bùlgarskô", "name:diq": "Bulğarıstan", "name:dsb": "Bulgarska", "name:dty": "बुल्गेरिया", "name:eml": "Bulgarî", "name:ext": "Bulgária", "name:frp": "Bulgarie", "name:frr": "Bulgarien", "name:fur": "Bulgarie", "name:gag": "Bulgariya", "name:gom": "बल्गेरिया", "name:got": "𐌱𐌿𐌻𐌲𐌰𐍂𐌹𐌰", "name:hak": "Pó-kâ-li-â", "name:haw": "Pulukalia", "name:hif": "Bulgaria", "name:hsb": "Bołharska", "name:ilo": "Bulgaria", "name:jam": "Bulgieria", "name:jbo": "bylgAri,as", "name:kaa": "Bolgariya", "name:kab": "Bulgarya", "name:kbd": "Болгариэ", "name:kbp": "Puligari", "name:koi": "Бӧлгария", "name:krc": "Болгария", "name:ksh": "Bulgarije", "name:lad": "Bulgaria", "name:lbe": "Болгариа", "name:lez": "Болгария", "name:lij": "Burgaja", "name:lmo": "Bülgaria", "name:lrc": "بولغارئستان", "name:ltg": "Bulgareja", "name:lzh": "保加利亞", "name:mai": "बुल्गेरिया", "name:mdf": "Болгарие", "name:mhr": "Болгарий", "name:mrj": "Болгари", "name:mwl": "Bulgária", "name:myv": "Болгария Мастор", "name:mzn": "بلغارستون", "name:nah": "Bulgaria", "name:nan": "Pu̍t-gâ-lī", "name:nap": "Bulgaria", "name:nds": "Bulgarien", "name:new": "बुल्गेरिया", "name:nov": "Bulgaria", "name:nrm": "Bulgarie", "name:olo": "Bolguarii", "name:pag": "Bulgariya", "name:pam": "Bulgaria", "name:pap": "Bulgaria", "name:pcd": "Bulgarie", "name:pdc": "Bulgarien", "name:pfl": "Bulgarije", "name:pih": "Bulgeriya", "name:pms": "Bulgarìa", "name:pnb": "بلغاریہ", "name:pnt": "Βουλγαρία", "name:rmy": "Bulgariya", "name:rue": "Булгарія", "name:sah": "Болгария", "name:scn": "Bulgarìa", "name:sco": "Bulgarie", "name:srn": "Bulgarikondre", "name:stq": "Bulgarien", "name:szl": "Bułgaryjo", "name:tet": "Bulgária", "name:tok": "ma Pokasi", "name:tpi": "Balgeria", "name:tum": "Bulgaria", "name:tzl": "Bülgaria", "name:udm": "Болга́рия", "name:vec": "Bulgaria", "name:vep": "Bolgarii", "name:vls": "Bulgareye", "name:war": "Bulgarya", "name:wuu": "保加利亚", "name:xal": "Болгармудин", "name:xmf": "ბულგარეთი", "name:yue": "保加利亞", "name:zea": "Bulharije", "alt_name:ba": "Болғарстан", "alt_name:eo": "Bulgario", "alt_name:gd": "A' Bhulgair;Bulgaria", "alt_name:ht": "Boulgari", "alt_name:kk": "Бұлғария", "alt_name:rw": "Buligariya", "alt_name:ta": "பல்காரியா", "alt_name:tk": "Bolgarystan", "name:nds-nl": "Bulgarije", "alt_name:jbo": "bulgarias", "alt_name:lij": "Burgaja", "alt_name:mzn": "بلغارستان", "alt_name:nan": "Pó-ka-lī-á", "alt_name:rmy": "Dasikanipe", "name:bat-smg": "Bulgarėjė", "name:cbk-zam": "Bulgaria", "name:fiu-vro": "Bulgaaria", "name:roa-rup": "Vurgaria", "name:sr-Latn": "Bugarska", "name:roa-tara": "Bulgarie", "official_name": "Репу̀блика Бълга̀рия", "name:be-tarask": "Баўга́рыя", "is_in:continent": "Europe", "default_language": "bg", "official_name:af": "Republiek van Bulgarye", "official_name:am": "የቡልጋሪያ ሪፐብሊከ", "official_name:an": "Republica de Bulgaria", "official_name:ar": "جمهورية بلغاريا", "official_name:av": "Болга́рия Жумгьурият", "official_name:ay": "Ripublika Bulkariya", "official_name:az": "Bolqarıstan Respublikası", "official_name:ba": "Болга́рия Респу́бликаһы", "official_name:be": "Рэспу́бліка Балга́рыя", "official_name:bg": "Репу̀блика Бълга̀рия", "official_name:bn": "বুলগেরিয়া প্রজাতন্ত্র", "official_name:br": "Republik Bulgaria", "official_name:bs": "Republika Bugarska", "official_name:ce": "Респу́блика Болга́ри", "official_name:co": "Republica di Bulgaria", "official_name:cs": "Bulharská republika", "official_name:cu": "Блъгарі́ꙗ Димократі́ꙗ", "official_name:cv": "Тăнайçи Пăлхарĕ", "official_name:cy": "Gweriniaeth Bwlgaria", "official_name:da": "Republikken Bulgarien", "official_name:de": "Republik Bulgarien", "official_name:el": "Δημοκρατία της Βουλγαρίας", "official_name:en": "Republic of Bulgaria", "official_name:eo": "Bulgara Respubliko", "official_name:es": "República de Bulgaria", "official_name:et": "Bulgaaria Vabariik", "official_name:eu": "Bulgaria", "official_name:fa": "جمهوری بلغارستان", "official_name:fi": "Bulgarian tasavalta", "official_name:fo": "Lýðveldið Bulgaria", "official_name:fr": "République de Bulgarie", "official_name:fy": "Republyk Bulgarije", "official_name:ga": "Poblacht na Bulgáire", "official_name:gl": "República de Bulgaria", "official_name:gu": "બલ્ગેરિયા ગણરાજ્ય", "official_name:gv": "Pobblaght ny Bulgeyr", "official_name:he": "הָרֶפּוּבְּלִיקָה הַבּוּלְגָרִית", "official_name:hi": "बुल्गारिया गणतंत्र", "official_name:hr": "Republika Bugarska", "official_name:hu": "Bolgár Köztársaság", "official_name:hy": "Բուլղարիայի Հանրապետություն", "official_name:ia": "Republica de Bulgaria", "official_name:id": "Republika Bulgaria", "official_name:is": "Lýðveldið Búlgaría", "official_name:it": "Repubblica di Bulgaria", "official_name:ja": "ブルガリア共和国", "official_name:ka": "ბულგარეთის რესპუბლიკა", "official_name:kk": "Болгария Республикасы", "official_name:kl": "Kunngiitsuuffik Bulgaria", "official_name:kn": "ಬಲ್ಗೇರಿಯ ಗಣರಾಜ್ಯ", "official_name:ko": "불가리아 공화국", "official_name:ku": "Komara Bulgaristanê", "official_name:kv": "Болгария Республика", "official_name:kw": "Repoblek Bulgari", "official_name:ky": "Болгар Республикасы", "official_name:lb": "Republik Bulgarien", "official_name:ln": "Republíki ya Bulgaria", "official_name:lt": "Bulgarijos respublika", "official_name:lv": "Bulgārijas Republika", "official_name:mi": "Tūwehe Purukāria", "official_name:mk": "Република Бугарија", "official_name:ml": "റിപ്പബ്ലിക്ക് ഓഫ് ബൾഗേറിയ", "official_name:mn": "Бүгд Найрамдах Болгар Улс", "official_name:mr": "बल्गेरियाचे प्रजासत्ताक", "official_name:ms": "Republik Bulgaria", "official_name:mt": "Repubblika tal-Bulgarija", "official_name:my": "ဘူလ်ဂေးရီးယား ပြည်သူ့သမ္မတနိုင်ငံတော်", "official_name:ne": "गणतन्त्र बुल्गेरिया", "official_name:nl": "Republiek Bulgarije", "official_name:nn": "Republikken Bulgaria", "official_name:no": "Republikken Bulgaria", "official_name:oc": "Republica bulgara", "official_name:om": "Rippabliikii Bulgeeriyaa", "official_name:os": "Республикæ Болгари", "official_name:pl": "Republika Bułgarii", "official_name:ps": "د بلغاريا ولسمشريزه", "official_name:pt": "República da Bulgária", "official_name:qu": "Bulgarya Ripuwlika", "official_name:ro": "Republica Bulgaria", "official_name:ru": "Республика Болгария", "official_name:sc": "Republica de Bulgaria", "official_name:se": "Bulgária dásseváldi", "official_name:sh": "Republika Bugarska", "official_name:sk": "Bulharská republika", "official_name:sl": "Republika Bolgarija", "official_name:sm": "Lepulika o Bultalia", "official_name:so": "Jamhuuriyadda Bulgaria", "official_name:sq": "Republika e Bullgarisë", "official_name:sr": "Република Бугарска", "official_name:su": "Republik Bulgaria", "official_name:sv": "Republiken Bulgarien", "official_name:sw": "Jamhuri ya Bulgaria", "official_name:ta": "பல்கேரியக் குடியரசு", "official_name:te": "గణతంత్ర బల్గేరియా", "official_name:th": "สาธารณรัฐบัลแกเรีย", "official_name:tk": "Bolgariýa Respublikasy", "official_name:tl": "Republika ng Bulgarya", "official_name:tr": "Bulgaristan Cumhuriyeti", "official_name:tt": "Болгария Җөмһүрияте", "official_name:ug": "بولغارىيە جۇمھۇرىيىتى", "official_name:uk": "Респу́бліка Болга́рія", "official_name:ur": "جمہوریہ بلغاریہ", "official_name:uz": "Bolgariya Respublikasi", "official_name:vi": "Cộng hòa Bulgaria", "official_name:wa": "Republike di Bulgåreye", "official_name:wo": "Republik bu Bulgaari", "official_name:yi": "רעפובליק פֿון בולגאַריע", "official_name:yo": "Orile-ede Olominira ile Bulgaria", "official_name:zh": "保加利亚共和国", "official_name:zu": "IRiphabliki weBulgariya", "official_name:ady": "Республикэу Булгарие", "official_name:als": "Republik Bulgarie", "official_name:arc": "ܩܘܛܢܝܘܬܐ ܕܒܘܠܓܐܪܝܐ", "official_name:arz": "جمهورية بلجاريا", "official_name:ast": "República de Bulgaria", "official_name:azb": "بولغاریستان جومهوریتی", "official_name:bar": "Republik Buigarien", "official_name:bpy": "প্রজাতন্ত্রি বুলগেরিয়া", "official_name:bxr": "Бүгэдэ Найрамдаха Болгари Улас", "official_name:chr": "ᏍᎦᏚᎩ ᎾᎿ ᏊᎵᎨᎵᎠ", "official_name:ckb": "کۆماری بولگاریا", "official_name:crh": "Bulğaristan Cumhuriyeti", "official_name:diq": "Cumhuriyet Bulğarıstan", "official_name:dsb": "Republika Bulgarska", "official_name:frr": "Republiik Bulgarien", "official_name:gag": "Bulgariya Respublikası", "official_name:hif": "Republic of Bulgaria", "official_name:hsb": "Republika Bołharska", "official_name:ilo": "Republika ti Bulgaria", "official_name:jam": "Ripoblik a Bulgieria", "official_name:koi": "Республика Бӧлгария", "official_name:krc": "Болгария Республика", "official_name:lad": "Republika Bulgaria", "official_name:lez": "Республика Болгария", "official_name:lij": "Repubbrica Bulgara", "official_name:lmo": "Republega Bulgara", "official_name:lzh": "保加利亞共和國", "official_name:mai": "बुल्गारिया गणतंत्र", "official_name:mrj": "Болгари Республика", "official_name:myv": "Болгария Респу́бликась", "official_name:nah": "Tlācatlahtohcāyōtl Bulgaria", "official_name:nan": "Bulgaria Kiōng-hô-kok", "official_name:nds": "Republiek Bulgarien", "official_name:new": "बुल्गेरिया गणतन्त्र", "official_name:pam": "Republika ning Bulgaria", "official_name:pnt": "Δημοκρατίαν τη Βουλγαρίας", "official_name:rmy": "Republika Bulgariya", "official_name:sah": "Болгария Республиката", "official_name:sco": "Republic o Bulgarie", "official_name:srn": "Repoliku fu Bulgari", "official_name:stq": "Republik Bulgarien", "official_name:szl": "Republika Bułgaryje", "official_name:tet": "Repúblika Bulgária", "official_name:udm": "Респу́блика Болга́рия", "official_name:vec": "Repùblica de Bulgarìa", "official_name:vep": "Bolgarijan Tazovaldkund", "official_name:vls": "Republiek Bulgareye", "official_name:wuu": "保加利亚共和国", "official_name:xal": "Болгармудин Орн", "official_name:xmf": "ბულგარეთიშ რესპუბლიკა", "official_name:yue": "保加利亞共和國", "official_name:nds-nl": "Rippebliek Bulgarije", "official_name:bat-smg": "Bulgarėjės Respoblėka", "official_name:fiu-vro": "Bulgaaria Vabariik", "official_name:roa-rup": "Republica Vurgaria", "official_name:roa-tara": "Repubblica di Bulgaria", "official_name:be-tarask": "Рэспу́бліка Баўга́рыя"}}, "center_lat": 42.76, "center_lon": 25.23, "area_m2": 111041849470, "timezone": "Europe/Sofia", "population": 6951482, "wikidata_id": "Q219", "wikipedia_id": "bg:България"}}