{"type": "Feature", "geometry": {"type": "Polygon", "coordinates": [[[-64.887, 32.282], [-64.864, 32.258], [-64.832, 32.257], [-64.783, 32.285], [-64.779, 32.271], [-64.823, 32.25], [-64.862, 32.248], [-64.887, 32.282]]]}, "properties": {"name": "Bermuda", "iso1": "BM", "admin_level": 2, "osm_id": 1993208, "countrylevel_id": "iso1:BM", "osm_data": {"localname": "Bermuda", "official_name": "The Islands of Bermuda", "alltags": {"flag": "http://upload.wikimedia.org/wikipedia/commons/b/bf/Flag_of_Bermuda.svg", "name:ar": "برمودا", "name:br": "Bermudez", "name:cs": "Bermudy", "name:en": "Bermuda", "name:eo": "Bermudoj", "name:fr": "Bermudes", "name:hr": "Bermudski Otoci", "name:lt": "Bermuda", "name:mk": "Бермуда", "name:oc": "Bermudas", "name:pl": "Bermudy", "name:ru": "Бермудские острова", "name:sr": "Бермуди", "name:uk": "Бермудські острови", "name:uz": "Bermud orollari", "surface": "unpaved", "alt_name:mk": "Бермуди", "official_name": "The Islands of Bermuda", "is_in:continent": "North America", "default_language": "en", "official_name:ar": "جزر برمودا", "is_in:archipelago": "Bermuda Islands"}}, "center_lat": 32.31, "center_lon": -64.77, "area_m2": 52693413, "timezone": "Atlantic/Bermuda", "population": 65024, "wikidata_id": "Q23635", "wikipedia_id": "en:Bermuda"}}