{"type": "Feature", "geometry": {"type": "MultiPolygon", "coordinates": [[[[-69.33, -15.537], [-69.33, -15.536], [-69.133, -15.221], [-69.285, -15.095], [-69.354, -14.802], [-69.22, -14.582], [-68.985, -14.375], [-68.993, -13.65], [-68.845, -13.246], [-68.873, -13.004], [-68.872, -12.885], [-68.652, -12.498], [-68.97, -11.913], [-69.572, -10.946], [-69.415, -10.926], [-68.913, -11.021], [-68.715, -11.147], [-68.236, -10.961], [-68.105, -10.715], [-67.866, -10.641], [-67.73, -10.713], [-67.579, -10.503], [-67.317, -10.32], [-67.17, -10.338], [-66.62, -9.894], [-66.173, -9.793], [-65.727, -9.759], [-65.627, -9.838], [-65.393, -9.687], [-65.288, -10.215], [-65.391, -10.381], [-65.35, -10.779], [-65.341, -10.809], [-65.287, -11.094], [-65.358, -11.268], [-65.309, -11.496], [-65.099, -11.703], [-65.035, -11.994], [-64.832, -12.016], [-64.496, -12.268], [-64.363, -12.46], [-63.945, -12.528], [-63.783, -12.428], [-63.24, -12.691], [-63.09, -12.638], [-62.97, -12.859], [-62.115, -13.256], [-61.869, -13.526], [-61.528, -13.531], [-60.927, -13.54], [-60.71, -13.691], [-60.521, -13.77], [-60.405, -13.998], [-60.454, -14.313], [-60.274, -14.621], [-60.245, -15.097], [-60.575, -15.098], [-60.239, -15.475], [-60.174, -16.267], [-58.431, -16.322], [-58.343, -16.517], [-58.47, -16.703], [-58.396, -17.181], [-58.254, -17.352], [-57.98, -17.51], [-57.746, -17.551], [-57.791, -17.587], [-57.557, -18.24], [-57.784, -19.033], [-58.131, -19.758], [-57.858, -19.97], [-58.17, -20.167], [-58.236, -19.775], [-59.069, -19.288], [-59.978, -19.295], [-60.604, -19.457], [-61.735, -19.634], [-61.923, -20.089], [-62.193, -20.463], [-62.266, -20.563], [-62.258, -20.99], [-62.644, -22.249], [-62.806, -22], [-63.931, -22], [-64.243, -22.56], [-64.536, -22.291], [-64.993, -22.082], [-65.187, -22.085], [-65.194, -22.085], [-65.748, -22.109], [-65.925, -21.934], [-66.24, -21.789], [-66.288, -22.086], [-66.739, -22.238], [-66.782, -22.438], [-67.028, -22.541], [-67.181, -22.814], [-67.567, -22.898], [-67.882, -22.834], [-67.838, -22.588], [-67.971, -22.054], [-68.18, -21.604], [-68.179, -21.302], [-68.479, -20.941], [-68.451, -20.648], [-68.739, -20.457], [-68.705, -20.134], [-68.528, -19.845], [-68.69, -19.75], [-68.429, -19.436], [-68.95, -18.937], [-69.033, -18.629], [-69.074, -18.042], [-69.281, -17.969], [-69.468, -17.498], [-69.642, -17.287], [-69.219, -16.836], [-69.036, -16.563], [-68.836, -16.559], [-68.568, -16.268], [-68.846, -16.162], [-68.783, -15.954], [-69.012, -15.86], [-69.33, -15.537]]], [[[-68.957, -16.198], [-68.958, -16.198], [-69.103, -16.225], [-69.072, -16.091], [-68.957, -16.198]]]]}, "properties": {"name": "Bolivia", "iso1": "BO", "admin_level": 2, "osm_id": 252645, "countrylevel_id": "iso1:BO", "osm_data": {"localname": "Bolivia", "official_name": "Estado Plurinacional de Bolivia", "alltags": {"flag": "http://upload.wikimedia.org/wikipedia/commons/4/48/Flag_of_Bolivia.svg", "name:ab": "Боли́виа", "name:af": "Bolivië", "name:am": "ቦሊቪያ", "name:an": "Bolivia", "name:ar": "بوليفيا", "name:ay": "Wuliwya", "name:az": "Boliviya", "name:ba": "Боливия", "name:be": "Балі́вія", "name:bg": "Боливия", "name:bh": "बोलीविया", "name:bi": "Bolivia", "name:bm": "Bolivia", "name:bn": "বলিভিয়া", "name:bo": "བྷོ་ལི་ཝི་ཡ།", "name:br": "Bolivia", "name:bs": "Bolivija", "name:ca": "Bolívia", "name:ce": "Боливи", "name:co": "Bolivia", "name:cs": "Bolívie", "name:cv": "Боливи", "name:cy": "Bolifia", "name:da": "Bolivia", "name:dv": "ބޮލީވިއާ", "name:dz": "བོ་ལི་ཝིཡ", "name:ee": "Bolivia", "name:el": "Βολιβία", "name:en": "Bolivia", "name:eo": "Bolivio", "name:es": "Bolivia", "name:et": "Boliivia", "name:eu": "Bolivia", "name:fa": "بولیوی", "name:ff": "Boliwii", "name:fi": "Bolivia", "name:fo": "Bolivia", "name:fr": "Bolivie", "name:fy": "Bolivia", "name:ga": "an Bholaiv", "name:gd": "Boilibhia", "name:gl": "Bolivia", "name:gn": "Volívia", "name:gu": "બોલીવિયા", "name:gv": "yn Volivia", "name:ha": "Bolibiya", "name:he": "בוליביה", "name:hi": "बोलिविया", "name:hr": "Bolivija", "name:ht": "Bolivi", "name:hu": "Bolívia", "name:hy": "Բոլիվիան", "name:ia": "Bolivia", "name:id": "Bolivia", "name:ie": "Bolivia", "name:ig": "Bolivia", "name:io": "Bolivia", "name:is": "Bólivía", "name:it": "Bolivia", "name:ja": "ボリビア", "name:jv": "Bolivia", "name:ka": "ბოლივია", "name:kg": "Bolivia", "name:ki": "Bolivia", "name:kk": "Боли́вия", "name:kl": "Bolivia", "name:km": "បូលីវី", "name:kn": "ಬೊಲಿವಿಯ", "name:ko": "볼리비아", "name:ks": "بولِوِیا", "name:ku": "Bolîvya", "name:kw": "Bolivi", "name:ky": "Боливия", "name:la": "Bolivia", "name:lb": "Bolivien", "name:lg": "Boliviya", "name:li": "Bolivia", "name:ln": "Bolivia", "name:lo": "ໂບລີວີ", "name:lt": "Bolivija", "name:lv": "Bolīvija", "name:mg": "Bolivia", "name:mi": "Poriwia", "name:mk": "Боливија", "name:ml": "ബൊളീവിയ", "name:mn": "Боливи", "name:mr": "बोलिव्हिया", "name:ms": "Bolivia", "name:mt": "Bolivja", "name:my": "ဘိုလီးဗီးယားနိုင်ငံ", "name:na": "Boribiya", "name:ne": "बोलिभिया", "name:nl": "Bolivia", "name:nn": "Bolivia", "name:no": "Bolivia", "name:nv": "Bolíbiya", "name:oc": "Bolívia", "name:om": "Boliiviyaa", "name:or": "ବୋଲିଭିଆ", "name:os": "Боливи", "name:pa": "ਬੋਲੀਵੀਆ", "name:pi": "बोलिविया", "name:pl": "Boliwia", "name:ps": "بولېویا", "name:pt": "Bolívia", "name:qu": "Wuliwiya", "name:rm": "Bolivia", "name:rn": "Boliviya", "name:ro": "Bolivia", "name:ru": "Боливия", "name:rw": "Boliviya", "name:sa": "बोलिविया", "name:sc": "Bolìvia", "name:se": "Bolivia", "name:sg": "Bolivïi", "name:sh": "Bolivija", "name:si": "බොලීවියාව", "name:sk": "Bolívia", "name:sl": "Bolivija", "name:sm": "Polevia", "name:sn": "Bolivia", "name:so": "Boliifia", "name:sq": "Bolivia", "name:sr": "Боливија", "name:ss": "IBholiviya", "name:su": "Bolivia", "name:sv": "Bolivia", "name:sw": "Bolivia", "name:ta": "பொலிவியா", "name:te": "బొలీవియా", "name:tg": "Боливия", "name:th": "โบลิเวีย", "name:ti": "ቦሊቪያ", "name:tk": "Boliwiýa", "name:tl": "Bolivia", "name:to": "Polīvia", "name:tr": "Bolivya", "name:tt": "Боли́вия", "name:ug": "بولىۋىيە", "name:uk": "Болі́вія", "name:ur": "بولیویا", "name:uz": "Boliviya", "name:vi": "Bolivia", "name:vo": "Bolivän", "name:wa": "Boliveye", "name:wo": "Boliibi", "name:yi": "באליוויע", "name:yo": "Bòlífíà", "name:za": "Bolivia", "name:zh": "玻利維亞", "name:zu": "i-Bolivia", "currency": "BOB", "int_name": "Bolivia", "name:ace": "Bolivia", "name:ady": "Боливие", "name:als": "Bolivie", "name:ang": "Bolifia", "name:arz": "بوليفيا", "name:ast": "Bolivia", "name:azb": "بولیوی", "name:bar": "Bolivien", "name:bcl": "Bolibya", "name:bpy": "বলিভিয়া", "name:bxr": "Боливи", "name:cdo": "Bolivia", "name:ceb": "Bolivia", "name:chr": "ᏉᎵᏫᎠ", "name:ckb": "بۆلیڤیا", "name:crh": "Boliviya", "name:diq": "Bolivya", "name:dsb": "Boliwiska", "name:dty": "बोलिभिया", "name:ext": "Bolívia", "name:frp": "Bolivie", "name:frr": "Boliiwien", "name:fur": "Bolivie", "name:gag": "Boliviya", "name:gom": "बोलिव्हिया", "name:hak": "Pô-li-vì-â", "name:hif": "Bolivia", "name:hsb": "Boliwiska", "name:ilo": "Bolivia", "name:jam": "Bolivia", "name:jbo": "bolivias", "name:kaa": "Boliviya", "name:kab": "Bolivia", "name:kbp": "Polivii", "name:krc": "Боли́вия", "name:ksh": "Bolliivije", "name:lad": "Bolivia", "name:lez": "Боли́вия", "name:lij": "Bolivia", "name:lmo": "Bulivia", "name:lrc": "بوٙلیڤی", "name:ltg": "Boliveja", "name:lzh": "玻利維亞", "name:mhr": "Боливий", "name:mrj": "Боливи", "name:mwl": "Bolíbia", "name:mzn": "بولیوی", "name:nah": "Bolivia", "name:nan": "Bolivia", "name:nap": "Bolivia", "name:nds": "Bolivien", "name:new": "बोलिभिया", "name:nov": "Bolivia", "name:olo": "Bolivii", "name:pam": "Bolivia", "name:pap": "Bolivia", "name:pfl": "Bolivje", "name:pih": "Boliwya", "name:pms": "Bolivia", "name:pnb": "بولیویا", "name:rmy": "Boliviya", "name:rue": "Болі́вія", "name:sah": "Боливия", "name:scn": "Bolivia", "name:sco": "Bolivie", "name:stq": "Bolivien", "name:szl": "Boliwijo", "name:tet": "Bolívia", "name:tpi": "Bolivia", "name:tzl": "Bolivia", "name:vec": "Bołivia", "name:vep": "Bolivii", "name:war": "Bolivia", "name:wuu": "玻利维亚", "name:xal": "Боливмудин", "name:xmf": "ბოლივია", "name:yue": "玻利維亞", "name:zea": "Bolivia", "alt_name:bo": "བོ་ལི་བི་ཡ", "alt_name:gd": "Bolibhia", "alt_name:nl": "Bolivië", "name:simple": "Bolivia", "old_name:am": "የቦሊቪያ ሪፐብሊክ", "old_name:ca": "República de Bolívia", "old_name:si": "බොලීවියානු රාජ්‍ය", "alt_name:new": "बुलिब्या", "name:bat-smg": "Buolėvėjė", "name:cbk-zam": "Bolivia", "name:fiu-vro": "Boliivia", "official_name": "Estado Plurinacional de Bolivia", "old_name:1825": "República de Bolívar", "name:be-tarask": "Балівія", "official_name:ab": "Рацәаны Амилаҭқәа рҳәынҭқарра Боливиа", "official_name:af": "Plurinasionale Staat van Bolivië", "official_name:am": "የቦሊቪያ ብዙ-ብሔሮች ሪፐብሊክ", "official_name:an": "Estato Plurinacional de Bolivia", "official_name:ar": "دولة بوليفيا", "official_name:ay": "Wuliwya Suyu", "official_name:ba": "Күп Милләтле Боливия Дәүләте", "official_name:be": "Шматнацыяна́льная Дзяржа́ва Балі́вія", "official_name:bg": "Многонационална държава Боливия", "official_name:bm": "Bolivia ka Mantocaman Jamana", "official_name:br": "Stad Liesvroadel Bolivia", "official_name:ca": "Estat Plurinacional de Bolívia", "official_name:cs": "Mnohonárodnostní stát Bolívie", "official_name:da": "Den Flernationale Stat Bolivia", "official_name:de": "Plurinationaler Staat Bolivien", "official_name:el": "Πολυεθνοτικό Κράτος της Βολιβίας", "official_name:en": "Plurinational State of Bolivia", "official_name:es": "Estado Plurinacional de Bolivia", "official_name:et": "Boliivia Paljurahvuseline Riik", "official_name:eu": "Boliviako Estatu Plurinazionala", "official_name:fi": "Bolivian monikansainen valtio", "official_name:fr": "État plurinational de Bolivie", "official_name:gl": "Estado Plurinacional de Bolivia", "official_name:gn": "Tetã Hetãvoregua Volívia", "official_name:gu": "પ્લુરીનેશનલ સ્ટેટ ઓફ બોલિવિયા", "official_name:he": "המדינה הרב-לאומית של בוליביה", "official_name:hr": "Višenacionalna Država Bolivija", "official_name:hu": "Bolíviai Többnemzetiségű Állam", "official_name:ia": "Stato Plurinational de Bolivia", "official_name:id": "Negara Plurinasional Bolivia", "official_name:is": "Fjölþjóðaríkið Bólivía", "official_name:it": "Stato Plurinazionale della Bolivia", "official_name:ja": "ボリビア多民族国", "official_name:ka": "ბოლივიის მრავალეროვანი სახელმწიფო", "official_name:kk": "Көпұлтты Боли́вия мемлекеті", "official_name:ko": "볼리비아 다민족국", "official_name:ku": "Dewleta Pirneteweyî yên Bolîvyayê", "official_name:li": "Estado Plurinacional de Bolvia", "official_name:lo": "ລັດພະຫຸຊົນຊາດແຫ່ງໂບລີວີ", "official_name:lt": "Bolivijos Daugiatautė Valstybė", "official_name:lv": "Bolīvijas Daudznacionālā Valsts", "official_name:mi": "Te Whenua o ngā Iwi Maha o Poriwia", "official_name:mk": "Повеќенационална Држава Боливија", "official_name:mn": "Боливийн Олон Үндэстний Улс", "official_name:mt": "Istat Plurinazzjonali tal-Bolivja", "official_name:nl": "Plurinationale Staat Bolivia", "official_name:nv": "Ałhidadiikʼą́ Dineʼé Bikéyah", "official_name:oc": "Estat Plurinacionau de Bolívia", "official_name:pa": "ਬੋਲੀਵੀਆ ਦਾ ਬਹੁ-ਕੌਮੀ ਮੁਲਕ", "official_name:pl": "Wielonarodowe Państwo Boliwia", "official_name:pt": "Estado Plurinacional da Bolívia", "official_name:qu": "Wuliwiya Achka aylluska Mama Llaqta", "official_name:ro": "Statul Plurinațional al Boliviei", "official_name:ru": "Многонациональное Государство Боливия", "official_name:se": "Bolivia dásseváldi", "official_name:si": "බොලිවියා බහුජාතීය රාජ්යය", "official_name:sk": "Bolívijský mnohonárodný štát", "official_name:sl": "Plurinacionalna država Bolivija", "official_name:sm": "Malo Plurinational o Polevia", "official_name:sq": "Shteti Shumëkombësh i Bolivisë", "official_name:sr": "Вишенационална Држава Боливија", "official_name:su": "Nagara Multibangsa Bolivia", "official_name:sv": "Mångnationella staten Bolivia", "official_name:ta": "பொலிவியா குடியரசு", "official_name:te": "బొలీవియా గణతంత్రం", "official_name:th": "รัฐพหุชนชาติแห่งโบลิเวีย", "official_name:tk": "Köpmilletli Boliwiýa Döwleti", "official_name:tl": "Estadong Plurinasyunal ng Bolivia", "official_name:tr": "Bolivya Çokuluslu Devleti", "official_name:tt": "Күпмилләтле́ Боли́вия Дәүләте́", "official_name:uk": "Багатонаціона́льна Держа́ва Болі́вія", "official_name:ur": "جمہوریہ بولیویا", "official_name:vi": "Cộng hoà Đa dân tộc Bolivia", "official_name:yi": "רעפובליק פון באליוויע", "official_name:yo": "Ìpínlẹ̀ Ogunlọ́gọ̀ Orílẹ̀-èdè ilẹ̀ Bòlífíà", "official_name:zh": "多民族玻利维亚国", "official_name:chr": "ᏊᎷᎢᎾᏏᎣᎾᎵ ᏍᎦᏚᎩ ᎾᎿ ᏉᎵᏫᎠ", "official_name:ckb": "دەوڵەتی فرەنەتەوەییی بۆلیڤیا", "official_name:crh": "Boliviya Çoqmilletli Devleti", "official_name:dsb": "Plurinacionalny stat Boliwiska", "official_name:ext": "Estau Plurinacional de Bolívia", "official_name:frr": "Stoot faan flook natjuunen Boliiwien", "official_name:hsb": "Plurinacionalny stat Boliwiska", "official_name:ilo": "Plurinasional nga Estado ti Bolivia", "official_name:jam": "Pluurinashinal Stiet a Bolivia", "official_name:krc": "Кёб Миллетли Кърал Боли́вия", "official_name:lez": "Гзаф-Халкьарин Гьукумат Боливия", "official_name:lzh": "多民族玻利維亞國", "official_name:nah": "Nepapantlācatiyān Tlahtohcāyōtl Bolivia", "official_name:nds": "Plurinatschonalen Staat Bolivien", "official_name:olo": "Monikanzalline Bolivien Valdivo", "official_name:pfl": "Plurinadsionala Schdaad Bolivje", "official_name:pms": "Estado Plurinacional de Bolivia", "official_name:sco": "Plurinaitional State o Bolivie", "official_name:vep": "Bolivijan Äirahvahaline Valdkund", "official_name:war": "Plurinasyonal nga Estado han Bolivia", "official_name:xal": "Дала Улста Боливмудин Орн", "official_name:xmf": "ბოლივიაშ მიარეერუანი სახენწჷფო", "official_name:yue": "玻利維亞共和國", "old_name:1825-2009": "República de Bolivia", "official_name:fiu-vro": "Boliivia Hulga Rahvidõga Riik"}}, "center_lat": -16.71, "center_lon": -64.65, "area_m2": 1086724484712, "timezone": "America/La_Paz", "population": 11051600, "wikidata_id": "Q750", "wikipedia_id": "es:Bolivia"}}