{"type": "Feature", "geometry": {"type": "MultiPolygon", "coordinates": [[[[-73.689, 21], [-73.518, 21.179], [-73.266, 21.135], [-73.162, 20.965], [-73.499, 20.923], [-73.689, 21]]], [[[-72.999, 22.414], [-72.826, 22.385], [-72.737, 22.341], [-72.782, 22.283], [-72.868, 22.355], [-72.999, 22.414]]], [[[-74.001, 22.438], [-73.903, 22.476], [-73.927, 22.6], [-74.045, 22.618], [-73.954, 22.72], [-73.872, 22.653], [-73.848, 22.546], [-74.002, 22.325], [-74.09, 22.393], [-74.001, 22.438]]], [[[-74.007, 22.718], [-74.087, 22.663], [-74.283, 22.735], [-74.222, 22.8], [-74.142, 22.728], [-74.007, 22.718]]], [[[-75, 23.074], [-74.938, 23.097], [-74.86, 23.01], [-74.829, 22.88], [-74.86, 22.854], [-74.952, 23.045], [-75, 23.074]]], [[[-74.835, 23.649], [-74.913, 23.659], [-74.839, 23.712], [-74.835, 23.649]]], [[[-76, 23.598], [-75.991, 23.682], [-75.863, 23.551], [-76, 23.598]]], [[[-76.382, 24.08], [-76.383, 24.079], [-76.396, 24.103], [-76.394, 24.104], [-76.382, 24.08]]], [[[-74.538, 24.001], [-74.506, 24.12], [-74.435, 24.071], [-74.538, 24.001]]], [[[-77.696, 24.063], [-77.525, 23.996], [-77.692, 23.882], [-77.701, 24.053], [-77.696, 24.063]]], [[[-77.535, 25], [-77.496, 25.063], [-77.306, 25.074], [-77.385, 24.983], [-77.535, 25]]], [[[-77.873, 25.753], [-77.849, 25.764], [-77.819, 25.739], [-77.849, 25.718], [-77.873, 25.753]]], [[[-77.248, 26.384], [-77.259, 26.371], [-77.263, 26.384], [-77.261, 26.384], [-77.254, 26.384], [-77.249, 26.392], [-77.237, 26.384], [-77.244, 26.384], [-77.245, 26.384], [-77.246, 26.384], [-77.248, 26.384]]], [[[-78.758, 26.505], [-78.756, 26.52], [-78.755, 26.521], [-78.78, 26.521], [-78.856, 26.571], [-78.951, 26.673], [-78.872, 26.631], [-78.795, 26.548], [-78.745, 26.539], [-78.71, 26.563], [-78.707, 26.566], [-78.702, 26.569], [-78.678, 26.572], [-78.637, 26.519], [-78.758, 26.505]]], [[[-78.446, 26.591], [-78.51, 26.72], [-78.315, 26.676], [-78.008, 26.73], [-78.023, 26.657], [-78.446, 26.591]]], [[[-77.108, 26.668], [-77.128, 26.673], [-77.141, 26.681], [-77.155, 26.694], [-77.108, 26.668]]], [[[-77.031, 26.384], [-77.216, 26.384], [-77.13, 26.549], [-77.333, 26.656], [-77.321, 26.656], [-77.318, 26.656], [-77.355, 26.708], [-77.413, 26.683], [-77.454, 26.727], [-77.435, 26.813], [-77.377, 26.746], [-77.279, 26.677], [-77.301, 26.656], [-77.054, 26.528], [-77.035, 26.384], [-77.033, 26.384], [-77.031, 26.384]]], [[[-77.722, 24.172], [-77.716, 24.046], [-77.865, 24.129], [-77.722, 24.172]]], [[[-75.411, 24.146], [-75.382, 24.302], [-75.318, 24.201], [-75.411, 24.146]]], [[[-77.759, 24.607], [-77.738, 24.46], [-78.04, 24.302], [-78.12, 24.52], [-78.121, 24.53], [-78.121, 24.531], [-78.309, 24.596], [-78.186, 24.903], [-78.001, 24.982], [-77.759, 24.607]]], [[[-76.131, 25.009], [-76.165, 24.929], [-76.138, 24.842], [-76.215, 24.889], [-76.196, 24.964], [-76.144, 25.011], [-76.152, 25.125], [-76.602, 25.434], [-76.699, 25.448], [-76.755, 25.477], [-76.727, 25.523], [-76.601, 25.436], [-76.368, 25.349], [-76.133, 25.151], [-76.131, 25.009]]]]}, "properties": {"name": "The Bahamas", "iso1": "BS", "admin_level": 2, "osm_id": 547469, "countrylevel_id": "iso1:BS", "osm_data": {"localname": "The Bahamas", "official_name": "Commonwealth of The Bahamas", "alltags": {"flag": "http://upload.wikimedia.org/wikipedia/commons/9/93/Flag_of_the_Bahamas.svg", "name:af": "Bahamas", "name:ak": "Bahama", "name:am": "ባሃማስ", "name:an": "Bahamas", "name:ar": "جزر باهاماس", "name:ay": "Bahamas", "name:az": "Bahamalar", "name:ba": "Багама утрауҙары", "name:be": "Бага́мскія Астравы́", "name:bg": "Бахамските острови", "name:bm": "Bahamasi", "name:bn": "বাহামা দ্বীপপুঞ্জ", "name:bo": "བ་ཧ་མཱ་སི།", "name:br": "Bahamas", "name:bs": "Bahami", "name:ca": "Bahames", "name:ce": "Багама", "name:cs": "Bahamy", "name:cv": "Пахамсем", "name:cy": "Y Bahamas", "name:da": "Bahamas", "name:dv": "ބަހާމަސް", "name:dz": "བཱ་ཧ་མས྄།", "name:ee": "Bahamas", "name:el": "Μπαχάμες", "name:en": "The Bahamas", "name:eo": "La Bahamoj", "name:es": "Las Bahamas", "name:et": "Bahama", "name:eu": "Bahamak", "name:fa": "باهاما", "name:ff": "Bahamaas", "name:fi": "Bahama", "name:fo": "Bahamaoyggjar", "name:fr": "Les Bahamas", "name:fy": "De Bahama's", "name:ga": "na Bahámaí", "name:gd": "na Bahàmas", "name:gl": "Bahamas", "name:gn": "Vaamakuéra", "name:gu": "બહામાસ", "name:gv": "ny Bahamaghyn", "name:he": "איי בהאמה", "name:hi": "बहामस", "name:hr": "Bahami", "name:ht": "Il Bahamas", "name:hu": "Bahama-szigetek", "name:hy": "Բահամները", "name:ia": "Bahamas", "name:id": "Bahama", "name:io": "Bahama", "name:is": "Bahamaeyjar", "name:it": "Le Bahamas", "name:ja": "バハマ", "name:jv": "Bahama", "name:ka": "ბაჰამის კუნძულები", "name:ki": "Bahama", "name:kk": "Багам аралдары", "name:km": "បាហាម៉ា", "name:kn": "ಬಹಾಮಾಸ್", "name:ko": "바하마", "name:ks": "بَہامَس", "name:ku": "Bahama", "name:kw": "Ynysow Bahama", "name:ky": "Багама аралдары", "name:la": "Bahamanae", "name:lb": "D'Bahamas", "name:lg": "Bahamasi", "name:li": "De Bahama's", "name:ln": "Bahamasɛ", "name:lo": "ບາຮາມມາສ", "name:lt": "Bahamos", "name:lv": "Bahamas", "name:mg": "Bahamasy", "name:mk": "Бахами", "name:ml": "ബഹാമാസ്", "name:mn": "Багамын Арлууд", "name:mr": "बहामास", "name:ms": "Bahamas", "name:mt": "Il-Baħamas", "name:my": "ဘဟားမားနိုင်ငံ", "name:na": "Bahamat", "name:ne": "बहामस", "name:nl": "Bahama's", "name:nn": "Bahamas", "name:no": "Bahamas", "name:oc": "Las Bahamas", "name:om": "Bahamaas", "name:or": "ବାହାମା", "name:os": "Багамтæ", "name:pa": "ਬਹਾਮਾਸ", "name:pi": "बहामास", "name:pl": "Bahamy", "name:pt": "Bahamas", "name:qu": "Bahamakuna", "name:rm": "Bahamas", "name:rn": "Bahamasi", "name:ro": "Bahamas", "name:ru": "Багамские Острова", "name:rw": "Bahamasi", "name:sa": "बहामास", "name:se": "Bahama", "name:sg": "Bahâmasa", "name:sh": "Bahami", "name:si": "බහාමාස්", "name:sk": "Bahamy", "name:sl": "Bahami", "name:sn": "The Bahamas", "name:so": "Bahamas", "name:sq": "Bahamet", "name:sr": "Бахаме", "name:ss": "iBhahamasi", "name:su": "Bahama", "name:sv": "Bahamas", "name:sw": "Bahamas", "name:ta": "பாகாமாசு", "name:te": "బహామాస్", "name:tg": "Баҳамас", "name:th": "ประเทศบาฮามาส", "name:ti": "ባሃማስ", "name:tk": "Bagama Adalary", "name:tl": "Bahamas", "name:to": "Pahama", "name:tr": "Bahamalar", "name:tt": "Багамалар", "name:ug": "باھاما", "name:uk": "Бага́мські Острови́", "name:ur": "بہاماس", "name:uz": "Bagam orollari", "name:vi": "Bahamas", "name:vo": "Bahamuäns", "name:wo": "Bahamas", "name:yi": "די באַהאַמאַס", "name:yo": "Àwọn Bàhámà", "name:za": "Bahamas", "name:zh": "巴哈马", "name:zu": "i-Bahamas", "alt_name": "Bahamas", "int_name": "Bahamas", "name:ace": "Bahama", "name:als": "Bahamas", "name:arz": "الباهاماس", "name:ast": "Les Bahames", "name:bar": "De Bahamas", "name:bcl": "An Bahamas", "name:bpy": "বাহামা", "name:bxr": "Бахамын аралууд", "name:cdo": "Bahamas", "name:ceb": "Bahamas", "name:chr": "ᎾᏍᎩ ᏆᎭᎹᏍ", "name:ckb": "بەھاما", "name:crh": "Bahamalar", "name:diq": "Bahama", "name:dsb": "Bahamy", "name:dty": "बहामस", "name:ext": "Las Baamas", "name:frp": "Bahamas", "name:frr": "A Bahaamas", "name:gag": "Bahamalar", "name:gom": "बहामाज", "name:hak": "Bahamas", "name:hif": "The Bahamas", "name:hsb": "Bahamy", "name:ilo": "Ti Bahamas", "name:jam": "Ba'aamaz", "name:jbo": "ba'am", "name:kab": "Bahamas", "name:ksh": "de Bahamas", "name:lad": "Bahamas", "name:lij": "Bahamas", "name:lmo": "I Bahamas", "name:mai": "द बहामस", "name:mhr": "Багама", "name:mrj": "Багамвлӓ", "name:mwl": "Las Bahamas", "name:mzn": "باهاما", "name:nah": "Bahamas", "name:nan": "Bahamas", "name:nds": "De Bahamas", "name:new": "बहामास", "name:nov": "Bahamas", "name:olo": "Bagaman suaret", "name:pam": "Bahamas", "name:pap": "Bahamas", "name:pih": "Bahaamas", "name:pms": "Le Bahamas", "name:pnb": "باہاما", "name:rue": "Багамы", "name:sah": "Багама Холбоһуга", "name:scn": "Li Bahamas", "name:sco": "The Bahamas", "name:stq": "Do Bahamas", "name:szl": "Bahamy", "name:tet": "Bahamas", "name:tok": "ma Pawama", "name:tzl": "Bahamas", "name:vec": "Łe Bahamas", "name:vep": "Bagaman Sared", "name:war": "Bahamas", "name:wuu": "巴哈馬", "name:xal": "Багамуд Арлин Ниицән", "name:xmf": "ბაჰამიშ კოკეფი", "name:yue": "巴哈馬", "name:zea": "De Bahama's", "alt_name:ar": "باهاماس", "alt_name:az": "Baham adaları", "alt_name:be": "Бага́мы", "alt_name:bo": "བྷ་ཧ་མ་སུ།", "alt_name:cy": "Bahamas", "alt_name:de": "Bahamas", "alt_name:en": "Bahamas", "alt_name:eo": "Bahama Insularo", "alt_name:es": "Bahamas", "alt_name:fr": "Bahamas", "alt_name:fy": "Bahama's", "alt_name:ga": "Bahámaí", "alt_name:gd": "Bahàmas", "alt_name:gv": "Bahamaghyn", "alt_name:he": "בהאמה", "alt_name:ht": "Bahamas", "alt_name:hy": "Բահամյան Կղզիներ", "alt_name:it": "Bahama", "alt_name:lb": "Bahamas", "alt_name:li": "Bahama's", "alt_name:mk": "Бахамски Острови", "alt_name:mn": "Бахам", "alt_name:mt": "Baħamas", "alt_name:oc": "Bahamas", "alt_name:pt": "Baamas", "alt_name:sn": "Bahamas", "alt_name:sq": "Ishujt Bahamas", "alt_name:tt": "Баһамалар", "alt_name:uz": "Bagamalar", "alt_name:vi": "Quần đảo Bahamas", "alt_name:yi": "באַהאַמאַס", "alt_name:arz": "باهاماس", "alt_name:ast": "Bahames", "alt_name:bar": "Bahamas", "alt_name:bcl": "Bahamas", "alt_name:ckb": "باھاما", "alt_name:ext": "Baamas", "alt_name:frr": "Bahaamas", "alt_name:hif": "Bahamas", "alt_name:ilo": "Bahamas", "alt_name:lmo": "Bahamas", "alt_name:mai": "बहामस", "alt_name:mwl": "Baamas", "alt_name:nds": "Bahamas", "alt_name:olo": "Bagamat", "alt_name:pms": "Bahamas", "alt_name:sah": "Багама арыылара", "alt_name:scn": "Bahamas", "alt_name:sco": "Bahamas", "alt_name:stq": "Bahamas", "alt_name:vec": "Bahamas", "alt_name:zea": "Bahama's", "driving_side": "left", "name:bat-smg": "Bahamas", "name:cbk-zam": "Bahamas", "name:fiu-vro": "Bahama", "name:roa-rup": "Bahamas", "official_name": "Commonwealth of The Bahamas", "name:be-tarask": "Багамы", "is_in:continent": "North America", "alt_name:bat-smg": "Bahamā", "default_language": "en", "official_name:af": "Gemenebes van die Bahamas", "official_name:am": "የባሃማስ የጋራ ሀገር", "official_name:an": "Mancomunidat d'as Bahamas", "official_name:ar": "كومنولث جزر البهاما", "official_name:az": "Baham Adaları Birliyi", "official_name:ba": "Багама Утрауҙар Берлеге", "official_name:be": "Садру́жнасць Бага́мскіх Астраво́ў", "official_name:bg": "Дружество Бахамски острови", "official_name:bm": "Forobanafolo Bahamasi", "official_name:bn": "বাহামা দ্বীপপুঞ্জের কমনওয়েলথ", "official_name:br": "Kenglad ar Bahamas", "official_name:ce": "Багаман гlайренаш", "official_name:cs": "Bahamské společenství", "official_name:cv": "Пахам Утравĕсен Пĕрлешӳлĕхĕ", "official_name:cy": "Cymanwlad y Bahamas", "official_name:de": "Commonwealth der Bahamas", "official_name:el": "Κοινοπολιτεία των Μπαχαμών", "official_name:en": "Commonwealth of The Bahamas", "official_name:eo": "Komunumo de Bahamaj Insuloj", "official_name:es": "Mancomunidad de las Bahamas", "official_name:et": "Bahama Ühendus", "official_name:fa": "قلمرو همسود باهاما", "official_name:fi": "Bahaman liittovaltio", "official_name:fo": "Samveldið Bahamaoyggjar", "official_name:fr": "Commonwealth des Bahamas", "official_name:fy": "Mienebêst fan de Bahama's", "official_name:ga": "Comhlathas na mBahámaí", "official_name:gd": "na h-Eileanan Bhathama", "official_name:gl": "Mancomunidade das Bahamas", "official_name:gn": "Tetã Va'ama", "official_name:gv": "Co-unnaneys ny Bahamaghyn", "official_name:he": "קהיליית איי בהאמה", "official_name:hi": "बहामस राष्ट्रमण्डल", "official_name:hr": "Zajednica Bahamâ", "official_name:hu": "Bahamai Közösség", "official_name:hy": "Բահամյան Կղզիների Ընկերակցությունը", "official_name:ia": "Commonwealth del Bahamas", "official_name:id": "Persemakmuran Bahama", "official_name:is": "Samveldi Bahamaeyja", "official_name:it": "Commonwealth delle Bahamas", "official_name:ja": "バハマ国", "official_name:ka": "ბაჰამის კუნძულების თანამეგობრობა", "official_name:kk": "Багам аралдары достастығы", "official_name:kn": "ಬಹಾಮಾಸ್ ಕಾಮನ್ವೆಲ್ತ್", "official_name:ko": "바하마 연방", "official_name:ku": "Federasyona Bahamayan", "official_name:ky": "Багама Аралдары Ынтымактыгы", "official_name:la": "Insulae Bahamenses", "official_name:li": "Gemaenebes van de Bahama's", "official_name:lt": "Bahamų Sandrauga", "official_name:lv": "Bahamu Sadraudzība", "official_name:mg": "Commonwealth an'i Bahamasy", "official_name:mk": "Државна Заедница Бахами", "official_name:ml": "കോമൺവെൽത്ത് ഓഫ് ബഹാമാസ്", "official_name:mr": "बहामासचे राष्ट्रकुल", "official_name:ms": "Komanwel Bahamas", "official_name:mt": "Commonwealth tal-Baħamas", "official_name:my": "ဘဟားမားစ် ဓနသဟာယ နိုင်ငံ", "official_name:nl": "Gemenebest van de Bahama's", "official_name:nn": "Bahamassambandet", "official_name:no": "Bahamassambandet", "official_name:os": "Багамы Сакъадæхты Æмбалад", "official_name:pa": "ਬਹਾਮਾਸ ਦਾ ਰਾਸ਼ਟਰਮੰਡਲ", "official_name:pl": "Wspólnota Bahamów", "official_name:pt": "Comunidade das Bahamas", "official_name:qu": "Bahamakunap Llaqta Tanta", "official_name:ro": "Comunitatea Bahamas", "official_name:ru": "Содружество Багамских Островов", "official_name:se": "Bahama riikkaidlihttu", "official_name:sh": "Commonwealth Bahama", "official_name:si": "බහාමාස් පොදු රාජ්‍යය", "official_name:sk": "Bahamské spoločenstvo", "official_name:sl": "Zveza Bahami", "official_name:so": "Dalka Bahamas", "official_name:sr": "Комновелт Бахама", "official_name:su": "Pasamakmuran Bahama", "official_name:sv": "Samväldet Bahamas", "official_name:sw": "Jumuiya ya Bahamas", "official_name:ta": "பகமாசு பொதுநலவாயம்", "official_name:te": "కామన్వెల్త్ ఆఫ్ ది బహామాస్", "official_name:tg": "Ҷазираҳои Багам", "official_name:th": "เครือรัฐบาฮามาส", "official_name:tl": "Komonwelt ng Bahamas", "official_name:tr": "Bahama Milletler Topluluğu", "official_name:uk": "Співдру́жність Бага́мських Острові́в", "official_name:ur": "دولتِ مشترکہ بہاماس", "official_name:uz": "Bagama Orollari Hamdo‘stligi", "official_name:vi": "Thịnh vượng chung Bahamas", "official_name:wo": "Commonwealth bu Bahamas", "official_name:yo": "Orílẹ̀-èdè Àjọni ilẹ̀ awọn Bàhámà", "official_name:zh": "巴哈馬聯邦", "official_name:ace": "Peusema'muran Bahama", "official_name:als": "Commonwealth der Bahamas", "official_name:arz": "كومونويلث الباهاماس", "official_name:ast": "Mancomunidá de Les Bahames", "official_name:bar": "Commonwealth der Bahamas", "official_name:bpy": "কমনৱেলথ বাহামা", "official_name:bxr": "Бахамын Нүхэрлэл", "official_name:ckb": "ھاوقازانجیی بەھاما", "official_name:dsb": "Zjadnośeństwo Bahamow", "official_name:ext": "Mancomuniá de las Baamas", "official_name:frr": "Commonwealth faan a Bahaamas", "official_name:hif": "Commonwealth of The Bahamas", "official_name:hsb": "Commonwealth Bahamow", "official_name:ilo": "Mankomunidad ti Bahamas", "official_name:jam": "Kamanwelt a di Ba'aamaz", "official_name:mai": "बहामस राष्ट्रमण्डल", "official_name:mhr": "Багамысе отро-влак", "official_name:mzn": "باهامای مشترک‌المنافع سامون", "official_name:nan": "Bahamas Kok", "official_name:olo": "Bagaman suarin yhtymy", "official_name:pap": "Commonwealth di Bahamas", "official_name:rue": "Багамскы островы", "official_name:sco": "Commonweel o the Bahamas", "official_name:szl": "Spůlnota Bahamůw", "official_name:vec": "Commonwealth dełe Bahamas", "official_name:vep": "Bagaman Sariden Ühtnend", "official_name:wuu": "巴哈馬國", "official_name:xal": "Багамуд Арлин Ниицән", "official_name:xmf": "ბაჰამიშ კოკეფიშ წორომაჸალობა", "official_name:yue": "巴哈馬係", "official_name:bat-smg": "Bahamu Sondrauga", "official_name:fiu-vro": "Bahama Ütisüs", "official_name:roa-rup": "Commonwealth ali Bahamile", "official_name:be-tarask": "Садружнасьць Багамаў"}}, "center_lat": 24.2, "center_lon": -76.54, "area_m2": 11986813098, "timezone": "America/Nassau", "population": 395361, "wikidata_id": "Q778", "wikipedia_id": "en:The Bahamas"}}