{"type": "Feature", "geometry": {"type": "Polygon", "coordinates": [[[-7.53, 4.362], [-7.593, 4.823], [-7.405, 5.521], [-7.396, 5.639], [-7.476, 5.812], [-7.784, 5.979], [-7.836, 6.205], [-8.167, 6.28], [-8.601, 6.505], [-8.31, 6.855], [-8.288, 7.187], [-8.471, 7.557], [-8.219, 7.539], [-7.944, 8.022], [-8.24, 8.234], [-8.239, 8.445], [-7.908, 8.49], [-7.65, 8.378], [-7.672, 8.618], [-7.911, 8.775], [-7.935, 8.982], [-7.727, 9.073], [-7.919, 9.221], [-8.144, 9.585], [-8.121, 10.05], [-7.979, 10.17], [-7.8, 10.245], [-7.626, 10.462], [-7.45, 10.445], [-7.341, 10.236], [-6.945, 10.35], [-6.656, 10.361], [-6.669, 10.626], [-6.398, 10.599], [-6.246, 10.74], [-6.163, 10.366], [-5.985, 10.198], [-5.874, 10.356], [-5.513, 10.431], [-5.369, 10.284], [-5.118, 10.288], [-4.97, 9.899], [-4.651, 9.71], [-4.313, 9.597], [-4.248, 9.765], [-3.896, 9.906], [-3.189, 9.936], [-2.926, 9.568], [-2.687, 9.492], [-2.664, 9.019], [-2.584, 8.787], [-2.493, 8.206], [-2.831, 7.82], [-2.922, 7.612], [-2.953, 7.238], [-3.074, 7.059], [-3.11, 7.016], [-3.259, 6.616], [-3.174, 6.251], [-2.954, 5.716], [-2.761, 5.6], [-2.726, 5.341], [-2.808, 5.107], [-3.104, 5.09], [-3.128, 5.095], [-3.135, 5.097], [-3.174, 5.105], [-3.175, 5.105], [-3.19, 5.108], [-3.207, 5.111], [-3.22, 5.114], [-3.224, 5.115], [-3.23, 5.116], [-3.236, 5.117], [-3.237, 5.117], [-3.24, 5.118], [-3.247, 5.119], [-3.261, 5.121], [-3.262, 5.121], [-3.264, 5.122], [-3.266, 5.122], [-3.268, 5.122], [-3.272, 5.123], [-3.274, 5.123], [-3.275, 5.124], [-3.277, 5.126], [-3.278, 5.126], [-3.28, 5.127], [-3.28, 5.128], [-3.282, 5.128], [-3.284, 5.127], [-3.297, 5.128], [-3.298, 5.129], [-3.3, 5.129], [-3.301, 5.129], [-3.364, 5.141], [-3.369, 5.142], [-3.375, 5.143], [-3.38, 5.144], [-3.386, 5.145], [-3.392, 5.146], [-3.397, 5.147], [-3.4, 5.148], [-3.406, 5.149], [-3.412, 5.15], [-3.414, 5.15], [-3.417, 5.151], [-3.45, 5.156], [-3.463, 5.158], [-3.465, 5.158], [-3.47, 5.159], [-3.524, 5.167], [-3.56, 5.169], [-3.565, 5.169], [-3.567, 5.17], [-3.573, 5.17], [-3.576, 5.17], [-3.579, 5.171], [-3.583, 5.171], [-3.586, 5.171], [-3.597, 5.173], [-3.598, 5.173], [-3.655, 5.182], [-3.667, 5.184], [-3.749, 5.196], [-3.75, 5.196], [-3.826, 5.215], [-3.835, 5.219], [-3.979, 5.255], [-4.002, 5.248], [-4.002, 5.246], [-4.007, 5.243], [-4.008, 5.243], [-4.021, 5.243], [-4.024, 5.243], [-4.102, 5.236], [-4.233, 5.219], [-4.546, 5.187], [-4.715, 5.161], [-4.972, 5.139], [-4.981, 5.138], [-4.983, 5.138], [-4.993, 5.137], [-5.002, 5.137], [-5.118, 5.129], [-5.121, 5.129], [-5.122, 5.129], [-5.139, 5.128], [-5.149, 5.127], [-5.15, 5.127], [-5.153, 5.127], [-5.168, 5.126], [-5.171, 5.125], [-5.185, 5.124], [-5.195, 5.123], [-5.196, 5.123], [-5.199, 5.123], [-5.271, 5.116], [-5.28, 5.115], [-5.399, 5.102], [-5.454, 5.096], [-5.53, 5.087], [-5.539, 5.086], [-5.546, 5.085], [-5.561, 5.083], [-5.566, 5.082], [-5.577, 5.081], [-5.578, 5.08], [-5.65, 5.066], [-5.653, 5.066], [-5.668, 5.064], [-5.682, 5.062], [-5.684, 5.062], [-5.687, 5.062], [-5.692, 5.061], [-5.693, 5.061], [-5.709, 5.059], [-5.711, 5.059], [-5.713, 5.058], [-5.727, 5.056], [-5.739, 5.055], [-5.744, 5.054], [-5.745, 5.054], [-5.765, 5.051], [-5.77, 5.05], [-5.771, 5.05], [-5.772, 5.05], [-5.774, 5.05], [-5.787, 5.047], [-5.943, 5.003], [-5.945, 5.002], [-5.947, 5.002], [-5.958, 5], [-6.22, 4.882], [-6.489, 4.783], [-6.49, 4.783], [-6.752, 4.689], [-6.753, 4.688], [-6.754, 4.688], [-6.756, 4.688], [-6.759, 4.688], [-6.761, 4.688], [-6.763, 4.687], [-6.771, 4.687], [-6.778, 4.686], [-6.78, 4.686], [-6.782, 4.686], [-6.787, 4.685], [-6.79, 4.685], [-6.793, 4.684], [-6.802, 4.683], [-6.807, 4.683], [-6.808, 4.683], [-6.809, 4.682], [-6.815, 4.681], [-6.816, 4.681], [-6.884, 4.67], [-6.896, 4.668], [-6.914, 4.663], [-6.92, 4.657], [-6.921, 4.651], [-6.92, 4.648], [-6.919, 4.647], [-6.941, 4.63], [-6.944, 4.629], [-6.946, 4.628], [-6.95, 4.625], [-6.951, 4.625], [-6.953, 4.624], [-6.955, 4.624], [-6.956, 4.623], [-6.957, 4.622], [-6.96, 4.62], [-6.962, 4.618], [-6.961, 4.617], [-6.964, 4.615], [-6.965, 4.614], [-6.965, 4.613], [-6.967, 4.611], [-6.974, 4.606], [-6.976, 4.605], [-6.977, 4.604], [-6.982, 4.601], [-6.982, 4.6], [-6.983, 4.6], [-6.982, 4.598], [-6.981, 4.596], [-6.984, 4.594], [-6.985, 4.594], [-6.992, 4.591], [-6.995, 4.59], [-6.997, 4.589], [-6.998, 4.589], [-6.998, 4.588], [-6.999, 4.586], [-7, 4.585], [-7.001, 4.584], [-7.006, 4.58], [-7.008, 4.58], [-7.012, 4.578], [-7.013, 4.577], [-7.015, 4.573], [-7.024, 4.567], [-7.024, 4.566], [-7.026, 4.564], [-7.026, 4.563], [-7.026, 4.562], [-7.026, 4.561], [-7.025, 4.56], [-7.055, 4.54], [-7.055, 4.539], [-7.056, 4.539], [-7.16, 4.525], [-7.162, 4.525], [-7.186, 4.52], [-7.187, 4.519], [-7.195, 4.514], [-7.195, 4.513], [-7.195, 4.511], [-7.197, 4.51], [-7.199, 4.51], [-7.202, 4.508], [-7.203, 4.508], [-7.221, 4.501], [-7.413, 4.381], [-7.415, 4.381], [-7.419, 4.379], [-7.421, 4.379], [-7.429, 4.377], [-7.436, 4.376], [-7.439, 4.375], [-7.441, 4.375], [-7.443, 4.374], [-7.447, 4.373], [-7.451, 4.372], [-7.453, 4.369], [-7.462, 4.367], [-7.464, 4.367], [-7.469, 4.365], [-7.475, 4.364], [-7.476, 4.363], [-7.491, 4.363], [-7.527, 4.362], [-7.53, 4.362]]]}, "properties": {"name": "Côte d'Ivoire", "iso1": "CI", "admin_level": 2, "osm_id": 192779, "countrylevel_id": "iso1:CI", "osm_data": {"localname": "Côte d’Ivoire", "official_name": "République de Côte d’Ivoire", "alltags": {"flag": "http://upload.wikimedia.org/wikipedia/commons/f/fe/Flag_of_C%C3%B4te_d%27Ivoire.svg", "name:af": "Ivoorkus", "name:am": "ኮት ዲቯር", "name:an": "Costa de Vori", "name:ar": "ساحل العاج", "name:az": "Fil Dişi Sahili", "name:be": "Кот-д'Івуар", "name:bg": "Кот д'Ивоар", "name:bm": "Côte d'Ivoire", "name:bn": "কোত দিভোয়ার", "name:bo": "ཀོ་ཊི་ཌི་ཨའི་བོ་རི།", "name:br": "Aod an Olifant", "name:bs": "Obala Slonovače", "name:ca": "Costa d'Ivori", "name:ce": "Кот-д’Ивуар", "name:cs": "Pobřeží slonoviny", "name:cv": "Кот-д'Ивуар", "name:cy": "Côte d'Ivoire", "name:da": "Elfenbenskysten", "name:dv": "އައިވަރީ ކޯސްޓު", "name:ee": "Côte d'Ivoire", "name:el": "Ακτή Ελεφαντοστού", "name:en": "Côte d'Ivoire", "name:eo": "Ebur-Bordo", "name:es": "Costa de Marfil", "name:et": "Elevandiluurannik", "name:eu": "Boli Kosta", "name:fa": "ساحل عاج", "name:ff": "Kodduwaar", "name:fi": "Norsunluurannikko", "name:fo": "Fílabeinsstrondin", "name:fr": "Côte d’Ivoire", "name:fy": "Ivoarkust", "name:ga": "An Cósta Eabhair", "name:gd": "Costa Ìbhri", "name:gl": "Costa do Marfil", "name:gv": "Yn Clyst Iuaagagh", "name:he": "חוף השנהב", "name:hi": "कोत द'ईवोआर", "name:hr": "Obala Bjelokosti", "name:ht": "Kòt divwa", "name:hu": "Elefántcsontpart", "name:hy": "Կոտ դ'Իվուար", "name:ia": "Costa de Ebore", "name:id": "Pantai Gading", "name:ie": "Costa de Ivor", "name:io": "Ivora Rivo", "name:is": "Fílabeinsströndin", "name:it": "Costa d'Avorio", "name:ja": "コートジボワール", "name:jv": "Panté Gadhing", "name:ka": "კოტ-დ’ივუარი", "name:kg": "Côte d'Ivoire", "name:ki": "Côte d'Ivoire", "name:kk": "Кот-д-Ивуар", "name:kn": "ಕೋತ್ ದ್'ಇವಾರ್", "name:ko": "코트디부아르", "name:ku": "Peravê Diranfîl", "name:kw": "Côte d'Ivoire", "name:la": "Litus Eburneum", "name:lb": "Elfebeeküst", "name:li": "Ivoorkös", "name:ln": "Kotdivuar", "name:lt": "Dramblio Kaulo Krantas", "name:lv": "Kotdivuāra", "name:mg": "Côte d'Ivoire", "name:mi": "Te Tai Rei", "name:mk": "Брег на Слоновата Коска", "name:ml": "ഐവറി കോസ്റ്റ്", "name:mn": "Кот д'Ивуар", "name:mr": "कोत द'ईवोआर", "name:ms": "Ivory Coast", "name:mt": "Kosta tal-Avorju", "name:my": "အိုင်ဗရီကို့စ်နိုင်ငံ", "name:na": "Aibori Kot", "name:ne": "आइभरी कोस्ट", "name:nl": "Ivoorkust", "name:nn": "Elfenbeinskysten", "name:no": "Elfenbenskysten", "name:nv": "Chį́į́h Yee Adilohii Bideeʼ Tónteel Bibąąh", "name:oc": "Còsta d'Evòri", "name:or": "ଆଇଭେରି କୋଷ୍ଟ", "name:os": "Кот-д’Ивуар", "name:pa": "ਦੰਦ ਖੰਡ ਤਟ", "name:pl": "Wybrzeże Kości Słoniowej", "name:ps": "عاج ساحل", "name:pt": "Costa do Marfim", "name:qu": "Marphil Chala", "name:rm": "Costa d'Ivur", "name:ro": "Coasta de Fildeș", "name:ru": "Кот-д’Ивуар", "name:rw": "Kote Divuwari", "name:sa": "कोट ऐवरी", "name:sc": "Costa de Avòriu", "name:se": "Elefántačalánriddu", "name:sg": "Kôdivüära", "name:sh": "Obala Slonovače", "name:si": "අයිවරි කෝස්ට්", "name:sk": "Pobrežie Slonoviny", "name:sl": "Slonokoščena obala", "name:sn": "Côte d'Ivoire", "name:so": "Xeebta Foolmaroodi", "name:sq": "Bregu i Fildishtë", "name:sr": "Обала Слоноваче", "name:ss": "Lugu Lwempondvondlovu", "name:su": "Basisir Gading", "name:sv": "Elfenbenskusten", "name:sw": "Cote d'Ivoire", "name:ta": "கோட் டிவார்", "name:te": "కోటె డి ఐవొరి", "name:tg": "Кот-д'Ивуар", "name:th": "ประเทศโกตดิวัวร์", "name:tk": "Kot-d’Iwuar", "name:tl": "Baybaying Garing", "name:tr": "Fildişi Sahili", "name:ts": "Côte d'Ivoire", "name:tt": "Кот-д’Ивуар", "name:ug": "پىل چىشى قىرغىغى", "name:uk": "Кот-д'Івуар", "name:ur": "کوت داوواغ", "name:uz": "Kot-d‘ivuar", "name:vi": "Bờ Biển Ngà", "name:vo": "Viorajolän", "name:wo": "Kodiwaar", "name:yi": "בארטן פון העלפאנדביין", "name:yo": "Côte d'Ivoire", "name:zh": "科特迪瓦", "name:zu": "Ugu Emhlophe", "alt_name": "Côte d'Ivoire", "currency": "XOF", "name:ace": "Panté Gadéng", "name:als": "Elfenbeinküste", "name:ang": "Elpendbānrima", "name:arz": "كوت ديفوار", "name:ast": "Costa de Marfil", "name:bjn": "Pantai Gading", "name:bpy": "কটে ডি'আইভরি", "name:bxr": "Кот д'Ивуар", "name:ceb": "Baybayon sa Marpil", "name:ckb": "کۆتدیڤوار", "name:crh": "Filtiş Yalısı", "name:diq": "Sahilê Dındanê Fili", "name:ext": "Costa de Marfil", "name:frp": "Couta d’Ivouèro", "name:gag": "Fildişi Kıyısı", "name:hif": "Côte d'Ivoire", "name:hsb": "Słonowinowy pobrjóh", "name:ilo": "Costa Ivoria", "name:lad": "Kosta de Marfil", "name:lij": "Còsta d'Avòïo", "name:lmo": "Costa d'Avori", "name:mrj": "Кот-д’Ивуар", "name:nah": "Tlanomihuēyātēnco", "name:nan": "Côte d'Ivoire", "name:nds": "Elfenbeenküst", "name:new": "आइभोरी कोस्ट", "name:nov": "Côte d'Ivoire", "name:nrm": "Côte d'Iviéthe", "name:nso": "Côte d'Ivoire", "name:pam": "Côte d'Ivoire", "name:pdc": "Ivory Coast", "name:pms": "Còsta d'Avòri", "name:pnb": "آئیوری کوسٹ", "name:sah": "Кот д'Ивуар", "name:scn": "Côte d'Ivoire", "name:sco": "Côte d'Ivoire", "name:stq": "Älfenbeenkuste", "name:szl": "Wybrzeże Elefantowych Gnatůw", "name:tok": "ma Kosiwa", "name:tzl": "Costa d'Ivoria", "name:vec": "Costa d'Avorio", "name:vls": "Ivôorkust", "name:war": "Côte d'Ivoire", "name:wuu": "科特迪瓦", "name:xal": "Котдивугармудин Орн", "name:yue": "象牙海岸", "name:UN:ar": "كوت ديفوار", "name:UN:en": "Côte d'Ivoire", "name:UN:es": "Côte d'Ivoire", "name:UN:fr": "Côte d’Ivoire (la)", "name:UN:ru": "Кот-д'Ивуар", "name:UN:zh": "科特迪瓦", "alt_name:ar": "كوت ديفوار;جمهورية كوت ديفوار", "alt_name:eo": "Ebura Bordo", "alt_name:ur": "آئیوری کوسٹ", "name:nds-nl": "Ivoorkuste", "name:bat-smg": "Dramblė Kaula Kronts", "name:fiu-vro": "Elevandiluurand", "name:roa-rup": "Côte d'Ivoire", "official_name": "République de Côte d’Ivoire", "name:be-tarask": "Кот д’Івуар", "is_in:continent": "Africa", "default_language": "fr", "official_name:ar": "جمهورية ساحل العاج", "official_name:cs": "Republika Pobřeží slonoviny", "official_name:de": "Republik Côte d’Ivoire", "official_name:en": "Republic of Côte d’Ivoire", "official_name:eo": "Ebur-Borda Respubliko", "official_name:es": "República de Costa de Marfil", "official_name:fa": "جمهوری ساحل عاج", "official_name:fr": "République de Côte d’Ivoire"}}, "center_lat": 7.62, "center_lon": -5.55, "area_m2": 323775558293, "timezone": "Africa/Abidjan", "population": 24294750, "wikidata_id": "Q1008", "wikipedia_id": "fr:Côte d'Ivoire"}}