{"type": "Feature", "geometry": {"type": "MultiPolygon", "coordinates": [[[[108.646, 19.001], [108.682, 19.37], [108.864, 19.455], [109.305, 19.918], [109.711, 20.013], [110, 19.93], [110.154, 20.06], [110.486, 20.026], [110.698, 20.136], [110.932, 20.013], [110.984, 19.643], [110.672, 19.382], [110.519, 18.996], [110.533, 18.792], [110.246, 18.652], [110.016, 18.432], [109.747, 18.362], [109.61, 18.214], [108.69, 18.503], [108.646, 19.001]]], [[[121.77, 31.639], [121.386, 31.619], [121.389, 31.824], [121.77, 31.639]]], [[[113.572, 22.167], [113.586, 22.128], [113.549, 22.114], [113.552, 22.145], [113.572, 22.167]]], [[[120, 26.237], [119.998, 26.223], [119.973, 26.212], [119.968, 26.216], [120, 26.237]]], [[[118.278, 24.413], [118.386, 24.469], [118.419, 24.528], [118.461, 24.479], [118.32, 24.386], [118.278, 24.413]]], [[[113.547, 22.136], [113.547, 22.121], [113.358, 21.991], [113.109, 22.059], [112.898, 21.856], [112.75, 21.925], [112.565, 21.755], [112.26, 21.703], [112.182, 21.805], [111.803, 21.691], [111.672, 21.541], [111.451, 21.532], [110.891, 21.388], [110.623, 21.365], [110.422, 21.239], [110.343, 20.994], [110.532, 20.474], [110.284, 20.256], [109.949, 20.255], [109.669, 20.957], [109.774, 21.232], [109.751, 21.578], [109.155, 21.403], [109.121, 21.589], [108.586, 21.718], [108.035, 21.547], [107.872, 21.647], [107.362, 21.6], [107.064, 21.896], [106.708, 22.025], [106.56, 22.422], [106.783, 22.814], [106.593, 22.933], [106.286, 22.867], [106.2, 22.987], [105.825, 22.996], [105.56, 23.129], [105.541, 23.193], [105.322, 23.393], [104.802, 23.116], [104.839, 22.921], [104.342, 22.712], [104.115, 22.811], [103.962, 22.506], [103.638, 22.795], [103.529, 22.595], [103.372, 22.799], [103.032, 22.443], [102.689, 22.703], [102.452, 22.751], [102.322, 22.548], [102.144, 22.4], [101.672, 22.476], [101.55, 22.234], [101.617, 21.977], [101.772, 21.817], [101.824, 21.59], [101.734, 21.323], [101.841, 21.215], [101.76, 21.145], [101.608, 21.238], [101.217, 21.232], [101.147, 21.562], [100.887, 21.688], [100.572, 21.451], [100.431, 21.541], [100.126, 21.511], [99.997, 21.977], [99.642, 22.106], [99.168, 22.15], [99.381, 22.504], [99.315, 22.739], [99.496, 22.912], [99.345, 23.138], [99.103, 23.092], [98.922, 23.188], [98.851, 23.635], [98.543, 24.131], [98.222, 24.117], [97.638, 23.863], [97.752, 24.172], [97.568, 24.724], [97.72, 25.022], [98.136, 25.386], [98.205, 25.62], [98.409, 25.611], [98.573, 26.122], [98.734, 26.355], [98.782, 26.606], [98.692, 27.2], [98.705, 27.522], [98.564, 27.64], [98.337, 27.512], [98.234, 27.693], [98.138, 28.146], [97.664, 28.538], [97.502, 28.495], [97.346, 28.215], [96.614, 28.614], [96.508, 28.947], [96.054, 29.382], [95.706, 29.213], [95.136, 29.088], [94.752, 29.23], [94.379, 29.154], [94.342, 29.002], [93.707, 28.664], [93.483, 28.673], [93.197, 28.545], [93.149, 28.366], [92.922, 28.201], [92.678, 28.151], [92.723, 27.973], [92.321, 27.8], [92.244, 27.888], [91.873, 27.72], [91.569, 27.817], [91.453, 28.009], [90.755, 28.05], [90.447, 28.054], [90.443, 28.064], [90.161, 28.192], [89.86, 28.23], [89.597, 28.164], [89.451, 27.988], [89.229, 27.731], [89.128, 27.615], [88.921, 27.327], [88.771, 27.558], [88.888, 27.856], [88.64, 28.116], [88.135, 27.882], [87.866, 27.911], [87.227, 27.821], [86.665, 28.102], [86.442, 27.906], [86.065, 27.9], [85.662, 28.303], [85.377, 28.278], [85.108, 28.346], [85.19, 28.569], [84.948, 28.58], [84.493, 28.737], [84.091, 29.294], [83.903, 29.327], [83.632, 29.159], [83.217, 29.605], [82.765, 29.731], [82.534, 29.971], [82.167, 30.076], [81.988, 30.322], [81.634, 30.445], [81.429, 30.383], [81.396, 30.207], [81.165, 30.011], [81.034, 30.197], [80.607, 30.471], [80.209, 30.588], [80.249, 30.72], [79.857, 30.975], [79.601, 30.939], [79.321, 31.139], [79.075, 31.459], [78.883, 31.286], [78.847, 31.607], [78.702, 31.807], [78.779, 31.967], [78.497, 32.276], [78.395, 32.531], [78.723, 32.674], [78.968, 32.336], [79.399, 32.604], [79.461, 32.71], [79.16, 33.015], [79.163, 33.167], [78.836, 33.427], [78.696, 33.688], [78.742, 34], [79.037, 34.335], [78.71, 34.526], [78.29, 34.615], [78.201, 34.973], [78.049, 35.114], [78.013, 35.362], [77.719, 35.461], [77.381, 35.473], [76.776, 35.658], [76.469, 35.891], [76.145, 35.838], [75.941, 36.593], [75.72, 36.752], [75.42, 36.773], [75.406, 36.937], [75.125, 37.013], [74.565, 37.031], [74.501, 37.239], [74.89, 37.234], [75.149, 37.421], [74.932, 37.569], [74.916, 38.025], [74.651, 38.446], [74.187, 38.64], [73.989, 38.524], [73.804, 38.612], [73.699, 38.878], [73.812, 39.043], [73.526, 39.391], [73.6, 39.46], [73.874, 39.483], [73.832, 39.782], [73.983, 40.049], [74.345, 40.094], [74.79, 40.354], [74.838, 40.522], [75.239, 40.461], [75.539, 40.647], [75.724, 40.472], [76.251, 40.418], [76.654, 40.622], [76.763, 40.953], [76.964, 41.058], [77.765, 41.015], [77.907, 41.183], [78.189, 41.394], [78.645, 41.469], [79.409, 41.841], [80.138, 42.031], [80.174, 42.211], [80.163, 42.625], [80.388, 43.003], [80.781, 43.138], [80.751, 43.469], [80.396, 44.11], [80.41, 44.61], [80.128, 44.823], [80.062, 45.036], [80.898, 45.125], [81.774, 45.386], [81.922, 45.229], [82.582, 45.222], [82.543, 45.421], [82.28, 45.535], [82.336, 45.939], [82.725, 46.492], [83.052, 47.225], [83.917, 46.973], [84.71, 47.009], [84.983, 46.915], [85.682, 47.223], [85.543, 48.009], [85.725, 48.373], [86.232, 48.432], [86.584, 48.54], [86.773, 48.721], [86.727, 48.951], [86.887, 49.133], [87.286, 49.116], [87.815, 49.17], [87.83, 48.798], [87.969, 48.575], [88.603, 48.339], [88.638, 48.178], [89.063, 47.988], [89.582, 48.03], [89.756, 47.829], [90.298, 47.692], [90.484, 47.313], [91.048, 46.72], [90.892, 46.313], [91.022, 46.022], [90.715, 45.728], [90.67, 45.487], [90.931, 45.192], [91.691, 45.062], [92.058, 45.083], [92.49, 45], [92.776, 45.05], [93.217, 44.997], [93.503, 44.968], [94.21, 44.668], [94.717, 44.341], [95, 44.25], [95.375, 44.288], [95.323, 44.027], [95.523, 44.003], [95.909, 43.236], [96.363, 42.899], [96.387, 42.725], [97.172, 42.794], [97.789, 42.709], [98.192, 42.652], [99.505, 42.565], [99.597, 42.583], [100.318, 42.687], [100.848, 42.672], [101.801, 42.503], [102.097, 42.2], [102.767, 42.125], [103.411, 41.881], [103.891, 41.796], [104.524, 41.873], [104.517, 41.66], [104.916, 41.652], [106.786, 42.291], [107.566, 42.412], [107.98, 42.412], [108.241, 42.461], [108.839, 42.396], [109.528, 42.467], [110.436, 42.782], [111.006, 43.322], [111.573, 43.491], [111.955, 43.828], [111.409, 44.345], [111.77, 44.981], [111.953, 45.072], [112.426, 45.074], [112.702, 44.881], [113.626, 44.742], [114.056, 44.926], [114.385, 45.143], [114.547, 45.383], [115.372, 45.388], [115.687, 45.453], [116.281, 45.77], [116.265, 45.961], [116.543, 46.237], [116.831, 46.382], [117.368, 46.361], [117.414, 46.579], [117.83, 46.529], [118.301, 46.738], [119.101, 46.648], [119.763, 46.618], [119.928, 46.722], [119.708, 47.193], [119.122, 47.664], [118.755, 47.772], [118.555, 47.993], [117.805, 48.014], [117.375, 47.64], [116.871, 47.891], [116.253, 47.878], [115.935, 47.681], [115.571, 47.919], [115.548, 48.161], [115.813, 48.259], [115.787, 48.52], [116.714, 49.846], [117.061, 49.686], [117.793, 49.52], [118.074, 49.614], [118.555, 49.922], [119.084, 49.984], [119.274, 50.105], [119.274, 50.603], [119.754, 51.089], [120.05, 51.63], [120.648, 51.923], [120.78, 52.164], [120.686, 52.518], [120.185, 52.577], [120.027, 52.776], [120.281, 52.861], [120.941, 53.296], [121.488, 53.333], [121.809, 53.064], [121.316, 52.569], [121.92, 52.285], [122.126, 52.475], [122.78, 52.251], [123.386, 52.372], [123.449, 52.676], [124.28, 53.346], [124.824, 53.143], [125.158, 53.204], [125.605, 53.082], [126.347, 52.383], [126.557, 52.12], [126.465, 51.936], [126.716, 51.727], [126.973, 51.298], [126.918, 51.057], [127.135, 50.912], [127.367, 50.574], [127.381, 50.285], [127.525, 49.819], [127.798, 49.593], [128.336, 49.542], [128.553, 49.602], [129.175, 49.389], [129.537, 49.398], [130.224, 48.865], [130.63, 48.881], [130.524, 48.608], [130.836, 48.302], [130.668, 48.132], [130.957, 47.72], [131.548, 47.727], [131.622, 47.657], [132.485, 47.716], [133.049, 48.105], [133.557, 48.13], [133.746, 48.257], [134.471, 48.422], [134.766, 48.364], [134.545, 48.024], [134.775, 47.74], [134.486, 47.443], [134.169, 47.318], [134.22, 47.187], [134.006, 46.655], [133.846, 46.481], [133.911, 46.263], [133.505, 45.889], [133.44, 45.649], [133.141, 45.434], [133.13, 45.128], [132.853, 45.059], [132.725, 45.257], [132.202, 45.333], [132.004, 45.252], [131.828, 45.31], [131.427, 44.965], [130.977, 44.863], [131.104, 44.708], [131.303, 44.044], [131.21, 43.833], [131.306, 43.473], [131.14, 42.943], [130.659, 42.845], [130.553, 42.518], [130.637, 42.418], [130.446, 42.547], [130.253, 42.706], [130.262, 42.903], [129.9, 43.005], [129.704, 42.427], [129.421, 42.433], [129.004, 42.089], [128.576, 42], [128.084, 42.02], [128.108, 41.789], [128.311, 41.589], [127.967, 41.435], [127.559, 41.43], [127.161, 41.54], [127.057, 41.66], [126.725, 41.705], [126.486, 41.371], [126.018, 40.901], [125.702, 40.864], [125.438, 40.665], [125.186, 40.608], [124.75, 40.379], [124.351, 40.081], [124.354, 39.971], [124.346, 39.974], [124.284, 39.96], [124.152, 39.809], [123.823, 39.836], [123.006, 39.662], [122.29, 39.347], [122.045, 39.069], [121.655, 39.005], [121.514, 38.826], [121.134, 38.726], [121.086, 38.909], [121.68, 39.123], [121.456, 39.745], [121.779, 39.936], [122.1, 40.236], [122.252, 40.514], [121.952, 40.8], [121.139, 40.882], [120.625, 40.485], [120.516, 40.257], [119.847, 39.989], [119.346, 39.722], [119.304, 39.427], [118.923, 39.127], [118.629, 39.16], [118.211, 39.07], [118.03, 39.221], [117.834, 39.176], [117.83, 38.88], [117.601, 38.616], [117.577, 38.614], [117.847, 38.264], [118.155, 38.139], [118.544, 38.097], [118.847, 38.144], [119.164, 37.806], [118.962, 37.616], [118.933, 37.354], [119.312, 37.132], [119.726, 37.12], [119.839, 37.372], [120.166, 37.485], [120.281, 37.662], [120.707, 37.832], [120.936, 37.815], [121.146, 37.597], [121.571, 37.438], [122.019, 37.523], [122.559, 37.399], [122.483, 37.149], [122.534, 36.92], [122.356, 36.839], [121.96, 36.943], [121.18, 36.683], [120.96, 36.471], [120.689, 36.394], [120.688, 36.153], [120.349, 36.048], [119.658, 35.582], [119.297, 35.088], [119.191, 34.834], [119.57, 34.59], [120.247, 34.313], [120.669, 33.518], [120.969, 32.876], [120.971, 32.636], [121.413, 32.403], [121.513, 32.113], [121.827, 31.958], [121.947, 31.705], [121.628, 31.738], [121.294, 31.886], [121.1, 31.766], [121.099, 31.762], [121.332, 31.511], [121.679, 31.319], [121.96, 31.061], [121.888, 30.848], [121.66, 30.846], [121.267, 30.691], [120.947, 30.506], [120.847, 30.213], [121.334, 30.383], [121.709, 29.983], [121.981, 29.815], [121.916, 29.644], [121.97, 29.222], [121.679, 29.02], [121.665, 28.727], [121.558, 28.632], [121.641, 28.289], [121.238, 28.275], [121.007, 28.091], [120.832, 27.77], [120.629, 27.584], [120.432, 27.168], [120.397, 27.216], [120.397, 27.217], [120.398, 27.217], [120.4, 27.217], [120.401, 27.218], [120.355, 27.24], [120.38, 27.183], [120.405, 27.151], [120.353, 27.093], [120.277, 27.093], [120.238, 26.926], [119.871, 26.672], [119.885, 26.353], [119.519, 26.084], [119.613, 25.87], [119.541, 25.375], [119.069, 25.103], [118.608, 24.528], [118.288, 24.584], [118.132, 24.308], [117.848, 24.03], [117.275, 23.735], [117.192, 23.62], [116.959, 23.61], [116.504, 22.943], [116.315, 22.963], [116.098, 22.82], [115.857, 22.783], [115.611, 22.86], [115.469, 22.704], [115.2, 22.834], [114.894, 22.588], [114.72, 22.795], [114.226, 22.544], [114.278, 22.394], [114.17, 22.293], [114.034, 22.506], [113.807, 22.608], [113.573, 22.526], [113.554, 22.215], [113.542, 22.213], [113.547, 22.136]], [[123.522, 46.957], [123.597, 46.687], [122.995, 46.573], [123.171, 46.247], [123.843, 46.3], [123.82, 46.56], [123.952, 46.706], [123.899, 46.936], [123.522, 46.957]], [[126.013, 50.915], [125.753, 50.751], [125.823, 50.563], [125.521, 50.325], [125.221, 49.957], [125.257, 49.314], [125.106, 49.124], [124.863, 49.158], [124.726, 48.922], [125.293, 48.717], [125.531, 48.856], [125.876, 48.835], [126.012, 49.044], [126.751, 49.224], [126.456, 49.787], [126.159, 49.671], [125.925, 50.081], [125.88, 50.338], [126.145, 50.501], [126.225, 50.812], [126.013, 50.915]]]]}, "properties": {"name": "China", "iso1": "CN", "admin_level": 2, "osm_id": 270056, "countrylevel_id": "iso1:CN", "osm_data": {"localname": "中国", "official_name": "中华人民共和国", "alltags": {"flag": "http://upload.wikimedia.org/wikipedia/commons/f/fa/Flag_of_the_People%27s_Republic_of_China.svg", "name:aa": "China", "name:ab": "Чынҭ", "name:af": "China", "name:ak": "China", "name:am": "የቻይና", "name:an": "China", "name:ar": "الصين", "name:as": "চীন", "name:av": "Чин", "name:ay": "China", "name:az": "Çin", "name:ba": "Ҡытай", "name:be": "Кітай", "name:bg": "Китай", "name:bh": "चीन", "name:bi": "Jaena", "name:bm": "China", "name:bn": "গণচীন", "name:bo": "ཀྲུང་གོ།", "name:br": "Sina", "name:bs": "Kina", "name:ca": "Xina", "name:ce": "Цийн-мохк", "name:ch": "China", "name:co": "China", "name:cs": "Čína", "name:cu": "Срѣдинꙗнє", "name:cv": "Китай", "name:cy": "Tsieina", "name:da": "Kina", "name:dv": "ސީނުކަރަ", "name:dz": "རྒྱ་ནག", "name:ee": "China", "name:el": "Κίνα", "name:en": "China", "name:eo": "Ĉinujo", "name:es": "China", "name:et": "Hiina", "name:eu": "Txina", "name:fa": "چین", "name:ff": "Ciina", "name:fi": "Kiina", "name:fj": "Jaina", "name:fo": "Kina", "name:fr": "Chine", "name:fy": "Sina", "name:ga": "Síne", "name:gd": "Sìona", "name:gl": "China", "name:gn": "Chína", "name:gu": "ચીન", "name:gv": "Sheen", "name:ha": "Sin", "name:he": "סין", "name:hi": "चीनी", "name:hr": "Kina", "name:ht": "Chin", "name:hu": "Kína", "name:hy": "Չինաստան", "name:ia": "China", "name:id": "Tiongkok", "name:ie": "China", "name:ig": "Chaina", "name:ii": "ꍏꇩ", "name:ik": "China", "name:io": "Chinia", "name:is": "Kína", "name:it": "Cina", "name:iu": "ᓴᐃᓇ", "name:ja": "中国", "name:jv": "Cina", "name:ka": "ჩინეთი", "name:kg": "Sina", "name:ki": "China", "name:kk": "Қытай", "name:kl": "Kina", "name:km": "ចិន", "name:kn": "ಚೀನಿ", "name:ko": "중국", "name:ks": "چیٖن", "name:ku": "Çîn", "name:kv": "Китай", "name:kw": "China", "name:ky": "Кытай", "name:la": "Sinae", "name:lb": "China", "name:lg": "Cayina", "name:li": "China", "name:ln": "Sína", "name:lo": "ປະເທດຈີນ", "name:lt": "Kinija", "name:lv": "Ķīna", "name:mg": "Sina", "name:mi": "Haina", "name:mk": "Кина", "name:ml": "ചീന", "name:mn": "Хятад", "name:mr": "चीन", "name:ms": "China", "name:mt": "Ċina", "name:my": "တရုတ်", "name:na": "Tsiene", "name:nb": "Kina", "name:ne": "चीन", "name:nl": "China", "name:nn": "Kina", "name:no": "Kina", "name:nv": "Tsiiʼyishbizhí Dineʼé Bikéyah", "name:ny": "China", "name:oc": "China", "name:om": "Chaayinaan", "name:or": "ଚୀନ", "name:os": "Китай", "name:pa": "ਚੀਨ", "name:pl": "Chiny", "name:ps": "چين", "name:pt": "China", "name:qu": "Chunkuk", "name:rm": "China", "name:rn": "Ubushinwa", "name:ro": "China", "name:ru": "Китай", "name:rw": "Ubushinwa", "name:sc": "Cina", "name:sd": "چين", "name:se": "Kiinná", "name:sg": "Sînä", "name:sh": "Kina", "name:si": "චීනය", "name:sk": "Čína", "name:sl": "Kitájska", "name:sm": "Saina", "name:sn": "China", "name:so": "Shiinaha", "name:sq": "Kina", "name:sr": "Кина", "name:ss": "iShayina", "name:st": "Tjhaena", "name:su": "Tiongkok", "name:sv": "Kina", "name:sw": "China", "name:ta": "சீனா", "name:te": "చైనా", "name:tg": "Хито́й", "name:th": "ประเทศจีน", "name:ti": "የቻይና", "name:tk": "Hytaý", "name:tl": "Tsina", "name:tn": "China", "name:to": "Siaina", "name:tr": "Çin", "name:ts": "Chayina", "name:tt": "Кытай", "name:tw": "China", "name:ty": "Tinitō", "name:ug": "جۇڭخۇا خەلق جۇمھۇرىيىتى", "name:uk": "Кита́йська", "name:ur": "چین", "name:uz": "Xitoy", "name:ve": "China", "name:vi": "Trung Quốc", "name:vo": "Tsyinän", "name:wo": "Siin", "name:xh": "IShayina", "name:yi": "כינע", "name:yo": "Ṣáínà", "name:za": "Cunghgoz", "name:zh": "中国", "name:zu": "IShayina", "website": "http://www.gov.cn/", "int_name": "China", "name:ace": "Cina", "name:ady": "Китай", "name:als": "China", "name:ang": "Cīna", "name:arc": "ܕܨܝܢ", "name:arz": "الصين", "name:ast": "China", "name:azb": "چین", "name:bar": "Kina", "name:bcl": "Tsina", "name:bjn": "Cina", "name:bpy": "গণচীন", "name:bxr": "Хитад Улас", "name:ceb": "Tsina", "name:chr": "ᏥᎾ", "name:chy": "China", "name:ckb": "چین", "name:crh": "Çin", "name:csb": "Chińskô Lëdowô Repùblika", "name:diq": "Çin", "name:dsb": "Chinska", "name:dty": "चीन", "name:eml": "Cina", "name:ext": "China", "name:frp": "Ch·ina", "name:frr": "Sina", "name:fur": "Cine", "name:gag": "Kitay", "name:gan": "中國", "name:gom": "चीन", "name:hak": "Chûng-fà", "name:haw": "Kina", "name:hif": "China", "name:hsb": "China", "name:ilo": "Tsína", "name:jam": "Chaina", "name:jbo": "jugygu'e", "name:kaa": "Qıtay", "name:kab": "Ccinwa", "name:kbd": "Хъутей", "name:kbp": "Siini", "name:koi": "Кина", "name:krc": "Къытай", "name:ksh": "Schiina", "name:lad": "Kina", "name:lez": "Китай", "name:lmo": "Cina", "name:lrc": "چین", "name:lzh": "中國", "name:mai": "चीन", "name:mdf": "Китай", "name:mhr": "Китай", "name:min": "Cino", "name:mwl": "China", "name:myv": "Китай", "name:mzn": "چین", "name:nah": "China", "name:nan": "Tiong-hôa", "name:nap": "Cina", "name:nds": "Kina", "name:new": "चीन", "name:nov": "China", "name:nrm": "Chinne", "name:nso": "Tšhaena", "name:olo": "Kitai", "name:pag": "Jhina", "name:pam": "Tsina", "name:pap": "Zhōngguó", "name:pcd": "Kine", "name:pih": "Shiina", "name:pms": "Cin-a", "name:pnb": "چین", "name:pnt": "Κίνα", "name:rmy": "Shin", "name:rue": "Кітайска", "name:sah": "Кытай", "name:scn": "Cina", "name:sco": "Cheenae", "name:srn": "Sneysa", "name:stq": "China", "name:szl": "Chiny", "name:tet": "Xina", "name:tok": "ma Sonko", "name:tpi": "Saina", "name:tum": "China", "name:tyv": "Кыдат", "name:tzl": "Cina", "name:udm": "Кита́й", "name:vec": "Cina", "name:vep": "Kitai", "name:vls": "China", "name:war": "Tsina", "name:wuu": "中国", "name:xal": "Китдин Улс Орн", "name:xmf": "ჩინეთი", "name:yue": "中國", "name:zea": "China", "name:Zsye": "🇨🇳", "name:UN:ar": "الصين", "name:UN:en": "China", "name:UN:es": "China", "name:UN:fr": "Chine (la)", "name:UN:ru": "Китай", "name:UN:zh": "中国", "population": "1403500365", "alt_name:af": "Rooi-China", "alt_name:av": "Хатай-Хутай", "alt_name:cy": "Tseina", "alt_name:en": "P.R. China", "alt_name:eo": "Ĉinio", "alt_name:gd": "An t-Sìn", "alt_name:jv": "Tiongkok", "alt_name:la": "Terra Serica", "alt_name:ln": "Shína", "alt_name:qu": "Chunwakuk", "alt_name:ru": "Китай", "alt_name:sl": "LR Kitajska", "alt_name:sr": "НР Кина", "alt_name:su": "Tjina", "alt_name:sw": "Uchina;Sina", "alt_name:za": "Cuŋƅvaƨ Yinƨminƨ Guŋhoƨgoƨ", "name:nds-nl": "China", "old_name:eo": "Ĥinujo", "alt_name:als": "Rotchina", "alt_name:chr": "ᏓᎶᏂᎨᏍᏛ", "alt_name:crh": "Qıtay", "alt_name:jbo": ".djunguos.", "alt_name:koi": "Джунго", "alt_name:lez": "Чин", "alt_name:min": "Tiongkok", "alt_name:nds": "Schina", "alt_name:nrm": "Chinne;Chène", "alt_name:rmy": "China", "alt_name:tpi": "China", "name:cbk-zam": "China", "name:fiu-vro": "Hiina", "name:za-Hani": "中華人民共和國", "name:zh-Hans": "中国", "name:zh-Hant": "中國", "name:ko_hanja": "中國", "name:roa-tara": "Cine", "official_name": "中华人民共和国", "short_name:ab": "ЧЖР", "short_name:av": "ЧХЖ", "short_name:az": "ÇXR", "short_name:ba": "ҠХР", "short_name:be": "КНР", "short_name:ce": "ЦХР", "short_name:cs": "ČLR", "short_name:cv": "КХР", "short_name:cy": "GPT", "short_name:en": "PRC", "short_name:et": "Hiina RV", "short_name:fr": "RPC", "short_name:ga": "DPS", "short_name:hy": "ՉԺՀ", "short_name:id": "RRT", "short_name:jv": "RRC", "short_name:mk": "НР Кина", "short_name:ml": "PRC", "short_name:ms": "RRC", "short_name:mt": "RPĊ", "short_name:ne": "PRC", "short_name:pl": "ChRL", "short_name:pt": "RPC", "short_name:ru": "КНР", "short_name:sl": "LRK", "short_name:sr": "НРК", "short_name:su": "RRT", "short_name:tg": "ҶХЧ", "short_name:tk": "HHR", "short_name:tr": "ÇHC", "short_name:tt": "КХҖ", "short_name:uz": "XXR", "name:be-tarask": "Кіта́й", "name:zh_pinyin": "Zhōngguó", "short_name:ang": "PRC", "short_name:bjn": "RRC", "short_name:ceb": "RPT", "short_name:dty": "PRC", "short_name:ilo": "PRC", "short_name:krc": "КъХР", "short_name:min": "RRC", "short_name:mwl": "RPC", "short_name:sco": "FRC", "short_name:szl": "CHLR", "short_name:vec": "PRC", "population:date": "2016", "default_language": "zh", "official_name:ab": "Ачынҭатәи Ажәлартә Республика", "official_name:af": "Volksrepubliek van Sjina", "official_name:am": "የቻይና ሕዝባዊ ሬፑብሊክ", "official_name:an": "Republica Popular de China", "official_name:ar": "جمهورية الصين الشعبية", "official_name:as": "গণপ্ৰজাতন্ত্ৰী চীন", "official_name:av": "Чиналъул Халкъияб Жумгьурият", "official_name:ay": "Markani Republika China", "official_name:az": "Çin Xalq Respublikası", "official_name:ba": "Ҡытай Халыҡ Республикаһы", "official_name:be": "Кітайская Народная Рэспубліка", "official_name:bg": "Китайската народна република", "official_name:bh": "चीन के जनवादी प्रजातंत्र", "official_name:bm": "China ka Foroba Fasojamana", "official_name:bn": "গণপ্রজাতন্ত্রী চীন", "official_name:bo": "ཀྲུང་ཧྭ་མི་དམངས་སྤྱི་མཐུན་རྒྱལ་ཁབ།", "official_name:br": "Republik Poblel Sina", "official_name:bs": "Narodna Republika Kina", "official_name:ca": "República Popular de la Xina", "official_name:ce": "Цийн Халкъан Респу́блика", "official_name:co": "Republica Pupulare Chinesa", "official_name:cs": "Čínská lidová republika", "official_name:cu": "Срѣдиньска Народьна Димократі́ꙗ", "official_name:cv": "Китай Халăх Республики", "official_name:cy": "Gweriniaeth Pobl Tsieina", "official_name:da": "Folkerepublikken Kina", "official_name:de": "Volksrepublik China", "official_name:el": "Λαϊκή Δημοκρατία της Κίνας", "official_name:en": "People's Republic of China", "official_name:eo": "Ĉina Popola Respubliko", "official_name:es": "República Popular China", "official_name:et": "Hiina Rahvavabariik", "official_name:eu": "Txinako Herri Errepublika", "official_name:fa": "جمهوری خلق چین", "official_name:fi": "Kiinan kansantasavalta", "official_name:fo": "Fólkalýðveldið Kina", "official_name:fr": "République populaire de Chine", "official_name:fy": "Folksrepublyk Sina", "official_name:ga": "Daon-Phoblacht na Síne", "official_name:gd": "Sluagh-phoblachd na Sìne", "official_name:gl": "República Popular da China", "official_name:gn": "Chína Tetarã Retã", "official_name:gu": "ચીની જનવાદી ગણરાજ્ય", "official_name:gv": "Deynphobblaght ny Sheen", "official_name:ha": "Jamhuriyar jama'ar Sin", "official_name:he": "הרפובליקה העממית של סין", "official_name:hi": "चीनी जनवादी गणराज्य", "official_name:hr": "Narodna Republika Kina", "official_name:hu": "Kínai Népköztársaság", "official_name:hy": "Չինաստանի Ժողովրդական Հանրապետություն", "official_name:ia": "Republica Popular de China", "official_name:id": "Republik Rakyat Tiongkok", "official_name:io": "Populala Republiko di Chinia", "official_name:is": "Alþýðulýðveldið Kína", "official_name:it": "Repubblica Popolare Cinese", "official_name:ja": "中華人民共和国", "official_name:jv": "Républik Rakyat Cina", "official_name:ka": "ჩინეთის სახალხო რესპუბლიკა", "official_name:kg": "Repubilika ya Bantu ya Sina", "official_name:ki": "Rũthiomi rwa kĩ China", "official_name:kk": "Қытай Халық Республикасы", "official_name:kl": "Innuttaasut Kunngiitsuuffik Kina", "official_name:km": "សាធារណរដ្ឋប្រជាមានិតចិន", "official_name:kn": "ಚೀನಿ ಜನರ ಗಣರಾಜ್ಯ", "official_name:ko": "중화인민공화국", "official_name:ku": "Komara Gel a Çînistanê", "official_name:kw": "Repoblek an Werin China", "official_name:ky": "Кытай Эл Республикасы", "official_name:la": "Res publica popularis Sinarum", "official_name:lb": "Volleksrepublik China", "official_name:li": "Volksrippebliek China", "official_name:lo": "ສາທາລະນະລັດປະຊາຊົນຈີນ", "official_name:lt": "Kinijos Liaudies Respublika", "official_name:lv": "Ķīnas Tautas Republika", "official_name:mg": "Repoblika Entim-bahoakan'i Sina", "official_name:mi": "Tūwehe-ā-Iwi o Haina", "official_name:mk": "Народна Република Кина", "official_name:ml": "പീപ്പിൾസ്‌ റിപ്പബ്ലിക്ക് ഓഫ്‌ ചൈന", "official_name:mn": "Бүгд Найрамдах Хятад Ард Улс", "official_name:mr": "चीनचे जनतेचे प्रजासत्ताक", "official_name:ms": "Republik Rakyat China", "official_name:mt": "Repubblika Popolari taċ-Ċina", "official_name:my": "တရုတ်ပြည်သူ့သမ္မတနိုင်ငံ", "official_name:ne": "जनवादी गणतन्त्र चीन", "official_name:nl": "Volksrepubliek China", "official_name:nn": "Folkerepublikken Kina", "official_name:no": "Folkerepublikken Kina", "official_name:oc": "Republica Populara de China", "official_name:om": "Riippabiliika Ummataa Chaayina", "official_name:os": "Китайы Адæмон Республикæ", "official_name:pa": "ਚੀਨ ਦਾ ਲੋਕਰਾਜੀ ਗਣਤੰਤਰ", "official_name:pl": "Chińska Republika Ludowa", "official_name:ps": "چين د خلکو جمهوريت", "official_name:pt": "República Popular da China", "official_name:qu": "Chunwa Runallaqta Ripuwlika", "official_name:ro": "Republica Populară Chineză", "official_name:ru": "Китайская Народная Республика", "official_name:sd": "عوامي جمهوريه چين", "official_name:se": "Kiinná álbmotdásseváldi", "official_name:sg": "Halëzo Ködörösêse tî Sînä", "official_name:sh": "Narodna Republika Kina", "official_name:si": "චීන මහජන සමූහාණ්ඩුව", "official_name:sk": "Čínska ľudová republika", "official_name:sl": "Ljúdska repúblika Kitájska", "official_name:sm": "Tagata o le Ripapelika o Saina", "official_name:sq": "Republika Popullore e Kinës", "official_name:sr": "Народна Република Кина", "official_name:su": "Républik Rahayat Tiongkok", "official_name:sv": "Folkrepubliken Kina", "official_name:sw": "Jamhuri ya Watu wa China", "official_name:ta": "சீன மக்கள் குடியரசு", "official_name:te": "పీపుల్స్ రిపబ్లిక్ ఆఫ్ చైనా", "official_name:tg": "Ҷумҳури́и Халқи́и Чин", "official_name:th": "สาธารณรัฐประชาชนจีน", "official_name:ti": "የቻይና ህዝቦች ሪፐብሊክ", "official_name:tk": "Hytaý Halk Respublikasy", "official_name:tl": "Republikang Bayan ng Tsina", "official_name:tr": "Çin Halk Cumhuriyeti", "official_name:tt": "Кытай Халык Җөмһүрияте", "official_name:ug": "جۇڭخۇا خەلق جۇمھۇرىيىتى", "official_name:uk": "Кита́йська Наро́дна Респу́бліка", "official_name:ur": "عوامی جمہوریہ چین", "official_name:uz": "Xitoy Xalq Respublikasi", "official_name:vi": "Cộng hòa Nhân dân Trung Hoa", "official_name:wo": "Republik Popileer bu Ciin", "official_name:yi": "מענטשנס רעפובליק פון כינע", "official_name:yo": "Orílẹ̀-èdè Olómìnira àwọn Ará ilẹ̀ Ṣáínà", "official_name:za": "Cunghvaz Yinzminz Gunghozgoz", "official_name:zh": "中华人民共和国", "official_name:ace": "Rèpublik Rakyat Cina", "official_name:als": "Volksrepublik China", "official_name:ang": "Cīnan Folclice Cynewīse", "official_name:arc": "ܩܘܛܢܝܘܬܐ ܥܡܡܝܬܐ ܕܨܝܢ", "official_name:arz": "جمهورية الصين الشعبية", "official_name:ast": "República Popular de China", "official_name:azb": "چین خالق جومهوریتی", "official_name:bar": "Voiksrepublik Kina", "official_name:bcl": "Republikang Popular kan Tsina", "official_name:bjn": "Ripublik Rakyat Cina", "official_name:bpy": "গণ প্রজাতন্ত্রি চীন", "official_name:bxr": "Бүгэдэ Найрамдаха Хитад Арад Улас", "official_name:cdo": "Dṳ̆ng-huà Ìng-mìng Gê̤ṳng-huò-guók", "official_name:ceb": "Pangmasang Republika sa Tsina", "official_name:chr": "ᏴᏫ ᎤᎾᏤᎵᏍᎦᏚᎩ ᎾᎿ ᏓᎶᏂᎨᏍᏛ", "official_name:ckb": "کۆماری خەڵکی چین", "official_name:crh": "Çin Halq Cumhuriyeti", "official_name:csb": "Chińskô Lëdowô Repùblika", "official_name:diq": "Cumhuriyetê Şariê Çini", "official_name:dsb": "Chinska ludowa republika", "official_name:dty": "जनवादी गणतन्त्र चीन", "official_name:eml": "Repóblica populèra dla Cina", "official_name:ext": "Repúbrica Populal China", "official_name:frp": "Rèpublica populèra de Ch·ina", "official_name:frr": "Följksrepubliik Sina", "official_name:gag": "Kitay Halk Respublikası", "official_name:gan": "中華人民共和國", "official_name:hak": "Chûng-fà Ngìn-mìn Khiung-fò-koet", "official_name:hif": "People's Republic of China", "official_name:hsb": "Chinska ludowa republika", "official_name:ilo": "Republika ti Tattao iti Tsina", "official_name:jam": "Piiplz Ripoblik a Chaina", "official_name:jbo": "jungo ke prenu gubyseltru", "official_name:kbd": "Хъутей Жылэ Республикэ", "official_name:koi": "Китай отир республика", "official_name:krc": "Къытай Халкъ Республика", "official_name:lad": "Repuvlika Popular de Kina", "official_name:lez": "Китайдин Халкьдин Республика", "official_name:lmo": "Repübliga Pupulara de la Cina", "official_name:lrc": "کوٙمأرە ڤولات خألک چین", "official_name:lzh": "中華人民共和國", "official_name:mai": "जनबादी गणतन्त्र चीन", "official_name:mdf": "Китай Калконь Республиксь", "official_name:min": "Republik Rakyaik Cino", "official_name:mwl": "República Popular de la China", "official_name:myv": "Китаень Раськень Республикась", "official_name:mzn": "چین مردم جمهوری", "official_name:nah": "Tlācatlahtocāyōtl Āltepēhuahcāyōtl China", "official_name:nan": "Tiong-hoâ Jîn-bîn Kiōng-hô-kok", "official_name:nap": "Repubbreca Populare Cinese", "official_name:nds": "Volksrepubliek China", "official_name:new": "जनवादी गणतन्त्र चीन", "official_name:nov": "Populen Republike de China", "official_name:nrm": "Républyique du Peupl'ye d'la Chinne", "official_name:nso": "Repabliki ya Batho ya Tšhaena", "official_name:olo": "Kitain Rahvahan tazavaldu", "official_name:pag": "Republika ya Too na Zhongguo", "official_name:pam": "Maldang Republica ning Tsina", "official_name:pap": "Republika di Pueblo di China", "official_name:pcd": "République populoère Kine", "official_name:pih": "Piopel's Repablik o' Shiina", "official_name:pnt": "Λαϊκόν η Δημοκρατίαν τη Κίνας", "official_name:rue": "Кітайска Народна Републіка", "official_name:sah": "Кытай Дьон Өрөспүүбүлүкэтэ", "official_name:scn": "Ripùbblica Pupulari Cinìsa", "official_name:sco": "Fowkrepublic o Cheenae", "official_name:srn": "Pipel Republiki Sneysa", "official_name:stq": "Foulksrepublik China", "official_name:szl": "Chińskŏ Ludowŏ Republika", "official_name:tet": "Repúblika Populár Xina nian", "official_name:tpi": "Republik bilong Manmeri bilong Saina", "official_name:udm": "Кита́й Калы́к Респу́блика", "official_name:vec": "Republica Popołare Cinexe", "official_name:vep": "Kitain Rahvahaline Tazovaldkund", "official_name:vls": "Volksrepubliek China", "official_name:war": "Kanan Katawhan Republika han Tsina", "official_name:wuu": "中华人民共和国", "official_name:xmf": "ჩინეთიშ ოკათე რესპუბლიკა", "official_name:yue": "中華人民共和國", "official_name:zea": "Volksrepubliek China", "short_name:bat-smg": "Kėnėjės LR", "official_name:nds-nl": "Volksrippebliek China", "official_name:bat-smg": "Kėnėjės Liaudėis Respoblėka", "official_name:cbk-zam": "República Popular China", "official_name:fiu-vro": "Hiina Rahvavabariik", "official_name:zh-Hans": "中华人民共和国", "official_name:zh-Hant": "中華人民共和國", "official_name:ko_hanja": "中華人民共和國", "official_name:roa-tara": "Repubbleche Populare Cenise", "official_name:be-tarask": "Кіта́йская Наро́дная Рэспу́бліка"}}, "center_lat": 36.48, "center_lon": 103.74, "area_m2": 9372254342121, "timezone": "Asia/Shanghai", "population": 1409517397, "wikidata_id": "Q148", "wikipedia_id": "zh:中华人民共和国"}}