{"type": "Feature", "geometry": {"type": "MultiPolygon", "coordinates": [[[[8.642, 36.941], [8.447, 36.624], [8.167, 36.467], [8.376, 36.35], [8.291, 35.957], [8.354, 35.617], [8.312, 35.313], [8.454, 35.22], [8.253, 34.915], [8.324, 34.733], [8.138, 34.532], [7.857, 34.405], [7.809, 34.244], [7.652, 34.201], [7.522, 33.905], [7.737, 33.425], [7.832, 33.188], [8.117, 33.1], [8.323, 32.823], [8.357, 32.503], [9.065, 32.087], [9.474, 30.559], [9.559, 30.229], [9.415, 30.043], [9.78, 29.425], [9.893, 28.84], [9.833, 28.286], [9.945, 27.812], [9.782, 27.257], [9.925, 26.862], [9.863, 26.52], [9.512, 26.385], [9.399, 26.196], [10.032, 25.36], [10.036, 25.153], [10.038, 24.966], [10.357, 24.537], [10.95, 24.533], [11.43, 24.205], [11.604, 24.265], [11.997, 23.517], [10.239, 22.496], [8.997, 21.779], [7.794, 21.047], [7.46, 20.842], [5.811, 19.447], [4.267, 19.144], [3.358, 18.968], [3.163, 19.115], [3.263, 19.439], [3.26, 19.818], [2.977, 19.953], [2.476, 20.095], [2.273, 20.299], [2.002, 20.242], [1.668, 20.406], [1.591, 20.6], [1.178, 20.726], [1.167, 21.116], [-0.021, 21.885], [-1.668, 22.951], [-2.594, 23.551], [-3.602, 24.203], [-4.833, 25], [-5.668, 25.513], [-6.833, 26.223], [-8.668, 27.315], [-8.668, 27.667], [-8.669, 28.311], [-8.669, 28.667], [-7.614, 29.365], [-7.345, 29.392], [-7.15, 29.523], [-6.777, 29.462], [-6.449, 29.566], [-5.814, 29.608], [-5.5, 29.563], [-5.289, 29.881], [-4.937, 30.14], [-4.607, 30.283], [-4.33, 30.522], [-3.817, 30.59], [-3.669, 30.665], [-3.536, 31.014], [-3.759, 31.176], [-3.665, 31.634], [-3.252, 31.714], [-2.821, 31.794], [-2.931, 32.035], [-2.015, 32.182], [-1.577, 32.092], [-1.221, 32.08], [-1.249, 32.32], [-1.124, 32.411], [-1, 32.52], [-1.399, 32.763], [-1.462, 33.042], [-1.67, 33.284], [-1.588, 33.529], [-1.699, 33.87], [-1.651, 34.097], [-1.839, 34.628], [-1.739, 34.744], [-2.212, 35.085], [-2.174, 35.092], [-2.133, 35.091], [-2.123, 35.092], [-2.118, 35.092], [-2.024, 35.079], [-2.021, 35.079], [-2.02, 35.076], [-2.018, 35.076], [-2.01, 35.071], [-2.009, 35.071], [-1.994, 35.074], [-1.982, 35.073], [-1.978, 35.074], [-1.977, 35.073], [-1.974, 35.073], [-1.964, 35.073], [-1.959, 35.073], [-1.958, 35.074], [-1.956, 35.074], [-1.952, 35.074], [-1.945, 35.077], [-1.939, 35.08], [-1.936, 35.084], [-1.926, 35.084], [-1.921, 35.084], [-1.914, 35.085], [-1.913, 35.085], [-1.914, 35.087], [-1.913, 35.086], [-1.913, 35.088], [-1.912, 35.086], [-1.902, 35.091], [-1.891, 35.092], [-1.891, 35.091], [-1.866, 35.104], [-1.866, 35.103], [-1.865, 35.104], [-1.865, 35.101], [-1.862, 35.104], [-1.862, 35.101], [-1.861, 35.103], [-1.86, 35.102], [-1.644, 35.198], [-1.644, 35.199], [-1.645, 35.2], [-1.645, 35.201], [-1.642, 35.202], [-1.641, 35.203], [-1.64, 35.203], [-1.641, 35.204], [-1.64, 35.204], [-1.64, 35.205], [-1.639, 35.205], [-1.637, 35.206], [-1.637, 35.207], [-1.637, 35.208], [-1.636, 35.208], [-1.637, 35.208], [-1.636, 35.207], [-1.635, 35.207], [-1.635, 35.208], [-1.636, 35.21], [-1.635, 35.212], [-1.633, 35.212], [-1.63, 35.213], [-1.63, 35.214], [-1.627, 35.217], [-1.626, 35.218], [-1.621, 35.218], [-1.622, 35.22], [-1.618, 35.22], [-1.618, 35.221], [-1.617, 35.221], [-1.616, 35.22], [-1.614, 35.22], [-1.613, 35.22], [-1.611, 35.221], [-1.609, 35.224], [-1.611, 35.227], [-1.605, 35.232], [-1.6, 35.232], [-1.598, 35.234], [-1.589, 35.236], [-1.588, 35.238], [-1.38, 35.307], [-1.379, 35.307], [-1.372, 35.312], [-1.372, 35.313], [-1.272, 35.373], [-1.271, 35.375], [-1.104, 35.622], [-1.103, 35.623], [-1.062, 35.639], [-1.055, 35.648], [-1.055, 35.651], [-1.055, 35.653], [-1.055, 35.655], [-1.055, 35.656], [-1.053, 35.657], [-0.922, 35.725], [-0.923, 35.724], [-0.923, 35.723], [-0.921, 35.722], [-0.908, 35.711], [-0.884, 35.707], [-0.834, 35.748], [-0.832, 35.749], [-0.83, 35.752], [-0.829, 35.753], [-0.742, 35.74], [-0.74, 35.739], [-0.734, 35.737], [-0.732, 35.737], [-0.731, 35.737], [-0.699, 35.738], [-0.699, 35.723], [-0.699, 35.722], [-0.564, 35.766], [-0.501, 35.796], [-0.501, 35.797], [-0.471, 35.886], [-0.295, 35.863], [-0.296, 35.853], [-0.291, 35.848], [-0.296, 35.853], [-0.295, 35.831], [-0.294, 35.83], [-0.163, 35.797], [-0.114, 35.789], [-0.093, 35.796], [-0.093, 35.797], [0.078, 35.935], [0.08, 35.938], [0.074, 35.937], [0.076, 35.938], [0.115, 35.998], [0.115, 35.999], [0.119, 36.01], [0.121, 36.016], [0.131, 36.037], [0.146, 36.049], [0.148, 36.051], [0.15, 36.052], [0.151, 36.053], [0.152, 36.054], [0.161, 36.062], [0.164, 36.064], [0.164, 36.065], [0.169, 36.069], [0.169, 36.07], [0.171, 36.071], [0.173, 36.073], [0.174, 36.074], [0.175, 36.074], [0.181, 36.078], [0.203, 36.104], [0.203, 36.105], [0.207, 36.107], [0.209, 36.109], [0.221, 36.117], [0.223, 36.117], [0.229, 36.118], [0.231, 36.12], [0.232, 36.12], [0.235, 36.121], [0.236, 36.122], [0.24, 36.122], [0.243, 36.122], [0.246, 36.122], [0.259, 36.124], [0.265, 36.128], [0.267, 36.13], [0.269, 36.131], [0.271, 36.131], [0.293, 36.139], [0.301, 36.148], [0.302, 36.148], [0.302, 36.149], [0.301, 36.149], [0.301, 36.15], [0.302, 36.15], [0.303, 36.149], [0.308, 36.149], [0.315, 36.153], [0.318, 36.155], [0.318, 36.156], [0.338, 36.19], [0.341, 36.191], [0.343, 36.191], [0.343, 36.193], [0.347, 36.196], [0.35, 36.197], [0.353, 36.197], [0.354, 36.198], [0.355, 36.199], [0.36, 36.201], [0.362, 36.202], [0.363, 36.202], [0.365, 36.203], [0.368, 36.203], [0.368, 36.204], [0.368, 36.205], [0.369, 36.205], [0.37, 36.205], [0.372, 36.206], [0.375, 36.207], [0.377, 36.207], [0.387, 36.211], [0.388, 36.211], [0.389, 36.211], [0.391, 36.211], [0.393, 36.211], [0.395, 36.211], [0.397, 36.211], [0.399, 36.213], [0.401, 36.213], [0.399, 36.213], [0.399, 36.212], [0.398, 36.211], [0.399, 36.21], [0.4, 36.211], [0.4, 36.212], [0.413, 36.209], [0.415, 36.21], [0.421, 36.212], [0.422, 36.212], [0.423, 36.213], [0.425, 36.212], [0.425, 36.213], [0.434, 36.216], [0.437, 36.217], [0.438, 36.217], [0.444, 36.219], [0.444, 36.22], [0.446, 36.22], [0.447, 36.221], [0.448, 36.221], [0.455, 36.223], [0.46, 36.225], [0.465, 36.229], [0.478, 36.233], [0.484, 36.236], [0.488, 36.24], [0.488, 36.241], [0.491, 36.244], [0.492, 36.245], [0.495, 36.246], [0.503, 36.251], [0.504, 36.251], [0.509, 36.253], [0.512, 36.254], [0.514, 36.255], [0.516, 36.256], [0.64, 36.313], [0.642, 36.315], [0.644, 36.317], [0.657, 36.328], [0.658, 36.33], [0.663, 36.331], [0.665, 36.331], [0.67, 36.33], [0.672, 36.33], [0.673, 36.331], [0.674, 36.331], [0.675, 36.331], [0.677, 36.331], [0.74, 36.334], [1.154, 36.501], [1.159, 36.503], [1.321, 36.527], [1.318, 36.527], [1.323, 36.527], [1.455, 36.541], [1.456, 36.541], [1.695, 36.553], [1.713, 36.554], [1.724, 36.555], [1.729, 36.556], [2.129, 36.587], [2.196, 36.61], [2.259, 36.622], [2.262, 36.627], [2.263, 36.627], [2.264, 36.627], [2.297, 36.633], [2.298, 36.633], [2.331, 36.642], [2.331, 36.641], [2.344, 36.642], [2.344, 36.643], [2.345, 36.642], [2.354, 36.643], [2.354, 36.642], [2.367, 36.643], [2.367, 36.642], [2.466, 36.593], [2.499, 36.593], [2.6, 36.602], [2.68, 36.642], [2.681, 36.643], [2.802, 36.698], [2.803, 36.699], [2.846, 36.748], [2.844, 36.748], [2.844, 36.749], [2.845, 36.748], [2.839, 36.763], [2.844, 36.765], [2.848, 36.765], [2.85, 36.764], [2.848, 36.765], [2.848, 36.764], [2.848, 36.765], [2.847, 36.765], [2.846, 36.764], [2.847, 36.764], [2.848, 36.764], [2.847, 36.763], [2.867, 36.762], [2.936, 36.807], [2.937, 36.807], [2.953, 36.812], [3.01, 36.819], [3.015, 36.819], [3.038, 36.81], [3.049, 36.801], [3.057, 36.793], [3.07, 36.786], [3.068, 36.783], [3.064, 36.782], [3.063, 36.78], [3.062, 36.776], [3.062, 36.774], [3.064, 36.773], [3.065, 36.77], [3.061, 36.77], [3.061, 36.769], [3.06, 36.767], [3.067, 36.765], [3.068, 36.765], [3.067, 36.764], [3.063, 36.765], [3.062, 36.763], [3.067, 36.762], [3.072, 36.758], [3.073, 36.762], [3.075, 36.757], [3.076, 36.756], [3.077, 36.754], [3.096, 36.749], [3.097, 36.75], [3.097, 36.752], [3.098, 36.748], [3.098, 36.747], [3.099, 36.747], [3.107, 36.746], [3.108, 36.746], [3.109, 36.745], [3.204, 36.756], [3.205, 36.756], [3.205, 36.757], [3.208, 36.758], [3.232, 36.783], [3.347, 36.784], [3.354, 36.783], [3.361, 36.782], [3.504, 36.772], [3.513, 36.776], [3.516, 36.783], [3.516, 36.784], [3.546, 36.789], [3.552, 36.792], [3.558, 36.796], [3.561, 36.798], [3.579, 36.806], [3.629, 36.82], [3.631, 36.821], [3.654, 36.832], [3.655, 36.833], [3.668, 36.84], [3.782, 36.897], [3.791, 36.9], [3.815, 36.904], [3.818, 36.904], [3.836, 36.908], [3.838, 36.908], [3.839, 36.91], [3.842, 36.911], [3.852, 36.912], [3.856, 36.912], [3.879, 36.919], [3.88, 36.919], [4.014, 36.902], [4.034, 36.9], [4.28, 36.905], [4.285, 36.906], [4.512, 36.886], [4.548, 36.885], [4.549, 36.885], [4.549, 36.886], [4.556, 36.885], [4.561, 36.883], [4.565, 36.883], [4.569, 36.883], [4.572, 36.883], [4.583, 36.883], [4.591, 36.884], [4.596, 36.883], [4.597, 36.883], [4.6, 36.883], [4.602, 36.884], [4.603, 36.884], [4.606, 36.884], [4.616, 36.883], [4.619, 36.883], [4.633, 36.883], [4.635, 36.884], [4.636, 36.884], [4.636, 36.885], [4.641, 36.887], [4.643, 36.888], [4.647, 36.888], [4.648, 36.888], [4.65, 36.887], [4.653, 36.887], [4.654, 36.886], [4.657, 36.886], [4.658, 36.886], [4.657, 36.886], [4.656, 36.886], [4.654, 36.886], [4.655, 36.884], [4.655, 36.885], [4.655, 36.884], [4.656, 36.884], [4.656, 36.885], [4.657, 36.883], [4.659, 36.883], [4.66, 36.884], [4.663, 36.883], [4.666, 36.884], [4.668, 36.884], [4.669, 36.884], [4.671, 36.884], [4.674, 36.884], [4.678, 36.883], [4.681, 36.882], [4.686, 36.883], [4.688, 36.882], [4.69, 36.882], [4.691, 36.882], [4.692, 36.881], [4.694, 36.881], [4.696, 36.881], [4.697, 36.881], [4.712, 36.881], [4.715, 36.882], [4.72, 36.883], [4.721, 36.882], [4.723, 36.882], [4.725, 36.882], [4.732, 36.883], [4.74, 36.89], [4.742, 36.89], [4.745, 36.892], [4.749, 36.893], [4.754, 36.895], [4.76, 36.895], [4.761, 36.896], [4.762, 36.894], [4.766, 36.893], [4.767, 36.893], [4.77, 36.892], [4.775, 36.891], [4.776, 36.89], [4.779, 36.892], [4.781, 36.89], [4.783, 36.89], [4.787, 36.892], [4.789, 36.891], [4.79, 36.889], [4.791, 36.889], [4.792, 36.886], [4.797, 36.882], [4.801, 36.883], [4.807, 36.883], [4.807, 36.882], [4.807, 36.881], [4.806, 36.881], [4.807, 36.881], [4.875, 36.858], [4.875, 36.859], [4.876, 36.86], [4.877, 36.859], [4.876, 36.859], [4.877, 36.858], [4.876, 36.857], [4.876, 36.855], [4.877, 36.855], [4.881, 36.853], [4.886, 36.851], [4.886, 36.85], [4.889, 36.85], [4.892, 36.851], [4.897, 36.851], [4.898, 36.851], [4.899, 36.851], [4.9, 36.851], [4.901, 36.85], [4.902, 36.85], [4.966, 36.817], [4.968, 36.817], [4.968, 36.816], [4.969, 36.815], [4.971, 36.815], [4.975, 36.814], [4.977, 36.814], [5.091, 36.776], [5.092, 36.776], [5.093, 36.755], [5.091, 36.754], [5.093, 36.749], [5.088, 36.747], [5.082, 36.712], [5.085, 36.71], [5.084, 36.709], [5.142, 36.677], [5.2, 36.656], [5.223, 36.648], [5.224, 36.648], [5.229, 36.646], [5.238, 36.644], [5.254, 36.641], [5.26, 36.64], [5.264, 36.639], [5.267, 36.639], [5.275, 36.638], [5.278, 36.638], [5.279, 36.638], [5.285, 36.638], [5.293, 36.638], [5.296, 36.638], [5.307, 36.639], [5.337, 36.642], [5.338, 36.642], [5.346, 36.643], [5.347, 36.643], [5.361, 36.644], [5.424, 36.654], [5.433, 36.656], [5.434, 36.656], [5.466, 36.665], [5.47, 36.667], [5.471, 36.667], [5.473, 36.668], [5.475, 36.668], [5.476, 36.668], [5.523, 36.693], [5.525, 36.694], [5.541, 36.713], [5.542, 36.713], [5.557, 36.72], [5.557, 36.722], [5.563, 36.748], [5.642, 36.783], [5.643, 36.784], [5.705, 36.819], [5.707, 36.819], [5.707, 36.82], [5.711, 36.819], [5.713, 36.819], [5.715, 36.821], [5.732, 36.819], [5.732, 36.82], [5.825, 36.809], [5.828, 36.809], [5.829, 36.81], [5.834, 36.81], [5.836, 36.811], [5.848, 36.813], [5.858, 36.814], [5.887, 36.831], [5.9, 36.835], [5.9, 36.834], [5.899, 36.834], [5.887, 36.828], [5.88, 36.817], [5.881, 36.816], [5.882, 36.816], [5.882, 36.818], [5.884, 36.818], [5.885, 36.819], [5.888, 36.824], [5.894, 36.82], [5.896, 36.827], [5.899, 36.824], [5.916, 36.824], [5.946, 36.829], [5.977, 36.836], [5.995, 36.84], [6, 36.841], [6.033, 36.851], [6.06, 36.861], [6.065, 36.863], [6.07, 36.866], [6.093, 36.875], [6.098, 36.877], [6.1, 36.877], [6.113, 36.882], [6.117, 36.883], [6.13, 36.887], [6.146, 36.893], [6.147, 36.894], [6.147, 36.895], [6.149, 36.896], [6.15, 36.896], [6.152, 36.896], [6.154, 36.896], [6.155, 36.895], [6.156, 36.896], [6.157, 36.897], [6.159, 36.898], [6.162, 36.897], [6.163, 36.898], [6.166, 36.897], [6.175, 36.899], [6.185, 36.903], [6.187, 36.905], [6.189, 36.903], [6.193, 36.903], [6.199, 36.905], [6.201, 36.905], [6.204, 36.906], [6.213, 36.91], [6.22, 36.912], [6.239, 36.922], [6.243, 36.924], [6.244, 36.925], [6.249, 36.929], [6.251, 36.931], [6.251, 36.932], [6.251, 36.933], [6.25, 36.934], [6.252, 36.936], [6.253, 36.936], [6.254, 36.936], [6.254, 36.937], [6.257, 36.94], [6.264, 36.954], [6.264, 36.955], [6.258, 36.967], [6.258, 36.968], [6.263, 37.008], [6.263, 37.012], [6.264, 37.016], [6.263, 37.02], [6.263, 37.021], [6.263, 37.023], [6.264, 37.024], [6.265, 37.025], [6.27, 37.028], [6.272, 37.029], [6.276, 37.029], [6.279, 37.03], [6.279, 37.032], [6.287, 37.033], [6.291, 37.033], [6.293, 37.034], [6.295, 37.035], [6.295, 37.036], [6.297, 37.036], [6.298, 37.036], [6.301, 37.037], [6.302, 37.037], [6.303, 37.038], [6.309, 37.04], [6.313, 37.043], [6.318, 37.05], [6.319, 37.05], [6.321, 37.053], [6.327, 37.055], [6.329, 37.057], [6.329, 37.058], [6.33, 37.059], [6.33, 37.06], [6.331, 37.061], [6.335, 37.066], [6.337, 37.068], [6.338, 37.068], [6.347, 37.069], [6.417, 37.084], [6.417, 37.083], [6.573, 37.011], [6.574, 37.011], [6.573, 37.004], [6.566, 36.988], [6.566, 36.987], [6.572, 36.982], [6.573, 36.981], [6.593, 36.973], [6.603, 36.971], [6.615, 36.97], [6.616, 36.97], [6.883, 36.906], [6.883, 36.905], [6.976, 36.887], [6.977, 36.887], [6.981, 36.888], [6.997, 36.891], [6.999, 36.892], [7.003, 36.892], [7.005, 36.893], [7.015, 36.895], [7.174, 36.924], [7.174, 36.925], [7.199, 36.942], [7.205, 36.946], [7.212, 36.952], [7.216, 36.955], [7.218, 36.957], [7.227, 36.965], [7.234, 36.974], [7.237, 36.977], [7.241, 36.982], [7.245, 36.988], [7.247, 36.991], [7.25, 36.995], [7.25, 36.997], [7.251, 36.998], [7.252, 37], [7.252, 37.002], [7.253, 37.003], [7.246, 37.034], [7.246, 37.035], [7.192, 37.065], [7.191, 37.066], [7.176, 37.077], [7.175, 37.077], [7.246, 37.081], [7.288, 37.076], [7.297, 37.08], [7.297, 37.079], [7.296, 37.079], [7.331, 37.065], [7.342, 37.065], [7.347, 37.066], [7.348, 37.066], [7.35, 37.066], [7.351, 37.067], [7.352, 37.067], [7.364, 37.07], [7.372, 37.072], [7.373, 37.072], [7.374, 37.073], [7.373, 37.074], [7.374, 37.074], [7.372, 37.077], [7.372, 37.078], [7.371, 37.078], [7.376, 37.081], [7.377, 37.081], [7.378, 37.081], [7.379, 37.083], [7.381, 37.085], [7.381, 37.084], [7.381, 37.083], [7.382, 37.083], [7.385, 37.083], [7.386, 37.083], [7.388, 37.083], [7.386, 37.081], [7.386, 37.08], [7.393, 37.078], [7.393, 37.077], [7.391, 37.074], [7.381, 37.065], [7.51, 37.042], [7.517, 37.038], [7.526, 37.019], [7.528, 37.017], [7.529, 37.017], [7.536, 37.014], [7.537, 37.014], [7.539, 37.013], [7.541, 37.011], [7.556, 37.002], [7.558, 36.996], [7.65, 36.97], [7.785, 36.968], [7.774, 36.869], [7.775, 36.869], [7.776, 36.87], [7.773, 36.867], [7.777, 36.87], [7.777, 36.869], [7.795, 36.856], [7.8, 36.854], [7.811, 36.85], [7.815, 36.849], [7.816, 36.85], [7.816, 36.849], [7.817, 36.848], [7.821, 36.847], [7.823, 36.847], [7.826, 36.846], [7.836, 36.844], [7.841, 36.844], [7.844, 36.843], [7.858, 36.842], [7.86, 36.842], [7.862, 36.842], [7.873, 36.842], [7.879, 36.842], [7.883, 36.842], [7.905, 36.843], [8.323, 36.919], [8.324, 36.919], [8.323, 36.92], [8.42, 36.902], [8.425, 36.901], [8.425, 36.9], [8.421, 36.902], [8.422, 36.899], [8.427, 36.896], [8.429, 36.895], [8.445, 36.898], [8.446, 36.899], [8.444, 36.899], [8.44, 36.9], [8.441, 36.9], [8.505, 36.905], [8.506, 36.906], [8.507, 36.906], [8.508, 36.907], [8.593, 36.933], [8.594, 36.933], [8.642, 36.941]]], [[[6.705, 36.959], [6.705, 36.96], [6.706, 36.96], [6.707, 36.96], [6.705, 36.959]]]]}, "properties": {"name": "Algeria", "iso1": "DZ", "admin_level": 2, "osm_id": 192756, "countrylevel_id": "iso1:DZ", "osm_data": {"localname": "الجزائر", "official_name": "الجمهورية الجزائرية الديمقراطية الشعبية", "alltags": {"flag": "http://upload.wikimedia.org/wikipedia/commons/7/77/Flag_of_Algeria.svg", "name:af": "Algerië", "name:ak": "Algeria", "name:am": "አልጄሪያ", "name:an": "Alcheria", "name:ar": "الجزائر", "name:as": "আলজেৰিয়া", "name:ay": "Alhirya", "name:az": "Əlcəzair", "name:ba": "Алжи́р", "name:be": "Алжы́р", "name:bg": "Алжѝр", "name:bh": "अल्जीरिया", "name:bm": "Algeri", "name:bn": "আলজেরিয়া", "name:bo": "ཨཱལ་ཇི་རི་ཡ།", "name:br": "Aljeria", "name:bs": "Alžir", "name:ca": "Algèria", "name:ce": "Алжи́р", "name:cs": "Alžírsko", "name:cv": "Алжир", "name:cy": "Algeria", "name:da": "Algeriet", "name:dv": "ޖަޒާއިރު", "name:dz": "ཨཱལ་ཇི་རི་ཡ", "name:ee": "Ɔldzeria", "name:el": "Αλγερία", "name:en": "Algeria", "name:eo": "Alĝerio", "name:es": "Argelia", "name:et": "Alžeeria", "name:eu": "Aljeria", "name:fa": "الجزایر", "name:ff": "Aljeri", "name:fi": "Algeria", "name:fo": "Algeria", "name:fr": "Algérie", "name:fy": "Algerije", "name:ga": "An Ailgéir", "name:gd": "Aildiria", "name:gl": "Alxeria", "name:gn": "Ayhelia", "name:gu": "અલ્જીરિયા", "name:gv": "Yn Algear", "name:ha": "Aljeriya", "name:he": "אלג'יריה", "name:hi": "अल्जीरिया", "name:hr": "Alžir", "name:ht": "Aljeri", "name:hu": "Algéria", "name:hy": "Ալժիր", "name:ia": "Algeria", "name:id": "Aljazair", "name:ie": "Algeria", "name:ig": "Algeria", "name:io": "Aljeria", "name:is": "Alsír", "name:it": "Algeria", "name:ja": "アルジェリア", "name:jv": "Aljazair", "name:ka": "ალჟირი", "name:kg": "Algeria", "name:ki": "Algeria", "name:kk": "Алжир", "name:kl": "Algeriet", "name:km": "ប្រទេសអាល់ហ្សេរី", "name:kn": "ಅಲ್ಜೀರಿಯ", "name:ko": "알제리", "name:ks": "اٮ۪لجیرِیا", "name:ku": "Cezayir", "name:kw": "Aljeri", "name:ky": "Алжир", "name:la": "Algerium", "name:lb": "Algerien", "name:lg": "Algeria", "name:li": "Algerieë", "name:ln": "Aljeria", "name:lo": "ແອລຈິເລຍ", "name:lt": "Alžyras", "name:lv": "Alžīrija", "name:mg": "Aljeria", "name:mi": "Aratiria", "name:mk": "Алжир", "name:ml": "അൾജീറിയ", "name:mn": "Алжир", "name:mr": "अल्जीरिया", "name:ms": "Algeria", "name:mt": "Alġerija", "name:my": "အယ်လ်ဂျီးရီးယားနိုင်ငံ", "name:na": "Ardjiriya", "name:ne": "अल्जेरिया", "name:nl": "Algerije", "name:nn": "Algerie", "name:no": "Algerie", "name:nv": "Aljííya", "name:ny": "Algeria", "name:oc": "Argeria", "name:om": "Aljeeriyaa", "name:or": "ଆଲଜେରିଆ", "name:os": "Алжир", "name:pa": "ਅਲਜੀਰੀਆ", "name:pi": "अल्जीरिया", "name:pl": "Algieria", "name:ps": "الجزاير", "name:pt": "Argélia", "name:qu": "Alhirya", "name:rm": "Algeria", "name:rn": "Alijeriya", "name:ro": "Algeria", "name:ru": "Алжир", "name:rw": "Aligeriya", "name:sa": "अल्जीरिया", "name:sc": "Algerìa", "name:sd": "الجزائر", "name:se": "Algeria", "name:sg": "Alazëri", "name:sh": "Alžir", "name:si": "ඇල්ජීරියාව", "name:sk": "Alžírsko", "name:sl": "Alžirija", "name:sm": "Algeria", "name:sn": "Algeria", "name:so": "Aljeeriya", "name:sq": "Algjeria", "name:sr": "Алжир", "name:ss": "i-Alijeriya", "name:st": "Algeria", "name:su": "Aljazair", "name:sv": "Algeriet", "name:sw": "Algeria", "name:ta": "அல்சீரியா", "name:te": "అల్జీరియా", "name:tg": "Алҷазоир", "name:th": "ประเทศแอลจีเรีย", "name:ti": "አልጀሪያ", "name:tk": "Alžir", "name:tl": "Arhelya", "name:to": "ʻAisilia", "name:tr": "Cezayir", "name:ts": "Algeriya", "name:tt": "Әлҗәзаи́р", "name:tw": "Algeria", "name:ug": "ئالجىرىيە", "name:uk": "Алжир", "name:ur": "الجزائر", "name:uz": "Jazoir", "name:vi": "Algérie", "name:vo": "Laljerän", "name:wa": "Aldjereye", "name:wo": "Alseeri", "name:xh": "I-Algeria", "name:yi": "אַלזשיר", "name:yo": "Àlgéríà", "name:za": "Algeria", "name:zh": "阿尔及利亚", "name:zu": "iAljiriya", "currency": "DZD", "int_name": "Algeria", "name:ace": "Aljazair", "name:ady": "Алжир", "name:als": "Algerie", "name:ang": "Algeria", "name:arc": "ܓܙܐܐܪ", "name:arz": "الجزاير", "name:ast": "Arxelia", "name:azb": "اَلجَزاییر", "name:bar": "Algerien", "name:bcl": "Algerya", "name:ber": "ⵍⵣⵣⴰⵢⴻⵔ", "name:bjn": "Aljajair", "name:bpy": "আলজেরিয়া", "name:bug": "Aljazair", "name:bxr": "Алжир", "name:cdo": "Algeria", "name:ceb": "Arhelya", "name:chr": "ᎠᎵᏥᎵᏯ", "name:ckb": "جەزائیر", "name:crh": "Cezair", "name:diq": "Cezayir", "name:dsb": "Algeriska", "name:dty": "अल्जेरिया", "name:ext": "Argélia", "name:frp": "Alg·èrie", "name:frr": "Algeerien", "name:fur": "Alzerie", "name:gag": "Aljir", "name:gom": "आल्जेरिया", "name:hak": "Algeria", "name:haw": "ʻAlekelia", "name:hif": "Algeria", "name:hsb": "Algeriska", "name:ilo": "Arhelia", "name:jam": "Aljiiria", "name:jbo": "gugdeduzu", "name:kaa": "Aljir", "name:kab": "Dzayer", "name:kbd": "Алджазаир", "name:krc": "Алжи́р", "name:ksh": "Alljeerije", "name:lad": "Arjelia", "name:lez": "Алжир", "name:lij": "Algerîa", "name:lmo": "Algeria", "name:lzh": "阿爾及利亞", "name:mdf": "Алжир", "name:mhr": "Алжи́р", "name:min": "Aljazair", "name:mrj": "Алжир", "name:mzn": "الجزایر", "name:nah": "Argelia", "name:nan": "Algeria", "name:nds": "Algerien", "name:new": "अल्जेरिया", "name:nov": "Algeria", "name:nso": "Algeria", "name:olo": "Alžir", "name:pam": "Algeria", "name:pap": "Algeria", "name:pdc": "Altschieri", "name:pih": "Algeria", "name:pms": "Algerìa", "name:pnb": "الجزائر", "name:rue": "Алжір", "name:sah": "Алжир", "name:scn": "Algirìa", "name:sco": "Algerie", "name:stq": "Algerien", "name:szl": "Algeryjŏ", "name:tok": "ma Sasali", "name:tzl": "Eschaieir", "name:udm": "Алжир", "name:vec": "Algeria", "name:vep": "Alžir", "name:vls": "Algereye", "name:war": "Alherya", "name:wuu": "阿尔及利亚", "name:xal": "Алҗирмудин Улс Орн", "name:xmf": "ალჟირი", "name:yue": "阿爾及利亞", "name:zea": "Alherije", "name:zgh": "ⴷⵥⴰⵢⴻⵔ", "alt_name:qu": "Arhilya", "alt_name:sc": "Jasìria", "alt_name:so": "Jasaa'ir", "border_type": "nation", "reg_name:ar": "الدزاير;الجازاير;لدزاير", "alt_name:ilo": "Demokrata ken Popular a Republika ti Arhelia", "alt_name:kab": "Dzayer", "name:bat-smg": "Alžīrs", "name:fiu-vro": "Alžeeriä", "name:ku-Arab": "جەزایر", "name:roa-rup": "Algheria", "name:roa-tara": "Algerie", "official_name": "الجمهورية الجزائرية الديمقراطية الشعبية", "short_name:br": "R.A.D.P.", "short_name:fr": "RADP", "short_name:ru": "АНДР", "name:be-tarask": "Альжы́р", "name:zh_pinyin": "Āěrjílìyà", "default_language": "ar", "official_name:af": "Demokratiese Volksrepubliek van Algerië", "official_name:am": "የአልጄሪያ ሕዝባዊ ዲሞክራሲያዊ ሪፐብሊክ", "official_name:ar": "الجمهورية الجزائرية الديمقراطية الشعبية", "official_name:az": "Əlcəzair Xalq Demokratik Respublikası", "official_name:ba": "Алжир Халыҡ Демократик Республикаһы", "official_name:be": "Алжы́рская Наро́дная Дэмакраты́чная Рэспу́бліка", "official_name:bg": "Алжирска народно-демократична република", "official_name:bm": "Alizeri ka Foroba Bɛjɛfanga Fasojamana", "official_name:bn": "গণপ্রজাতন্ত্রী আলজেরিয়া", "official_name:br": "Republik Aljerian Demokratel ha Poblel", "official_name:bs": "Narodna Demokratska Republika Alžir", "official_name:ca": "República Democràtica Popular d'Algèria", "official_name:ce": "Алжир Халкъа куьйгаллийца йолу Пачхьалкх", "official_name:cs": "Alžírská demokratická a lidová republika", "official_name:cy": "Gweriniaeth Ddemocrataidd Pobl Algeria", "official_name:da": "Den Demokratiske Folkerepublik Algeriet", "official_name:de": "Demokratische Volksrepublik Algerien", "official_name:el": "Λαϊκή Δημοκρατία της Αλγερίας", "official_name:en": "People's Democratic Republic of Algeria", "official_name:eo": "Demokrata Popolrespubliko Alĝerio", "official_name:es": "República Argelina Democrática y Popular", "official_name:et": "Alžeeria Demokraatlik Rahvavabariik", "official_name:eu": "Aljeriako Herri Errepublika Demokratikoa", "official_name:fa": "جمهوری دموکراتیک خلق الجزایر", "official_name:fi": "Algerian demokraattinen kansantasavalta", "official_name:fr": "République algérienne démocratique et populaire", "official_name:fy": "Demokratyske Folksrepublyk Algerije", "official_name:ga": "Daonphoblacht Dhaonlathach na hAilgéire", "official_name:gd": "Sluagh-phoblachd Dheamocratach Aildiria", "official_name:gl": "República Democrática e Popular de Alxeria", "official_name:gn": "Tavakuairetã Ahélia Tekoha ha Jekopytyjojáva", "official_name:gv": "Deynphobblaght Gheynlagh ny h-Algear", "official_name:ha": "Jamhuriyar aljeriya", "official_name:he": "הרפובליקה האלג'יראית הדמוקרטית העממית", "official_name:hi": "अल्जीरिया का जन-लोकतंत्रीय गणराज्य", "official_name:hr": "Alžirska Narodna Demokratska Republika", "official_name:hu": "Algériai Népi Demokratikus Köztársaság", "official_name:hy": "Ալժիրի Ժողովրդական Ժողովրդավարական Հանրապետություն", "official_name:id": "Republik Demokratik Rakyat Aljazair", "official_name:io": "Populala Demokratiala Republio di Aljeria", "official_name:is": "Alþýðulýðveldið Alsír", "official_name:it": "Repubblica Algerina Democratica e Popolare", "official_name:ja": "アルジェリア民主人民共和国", "official_name:jv": "Républik Démokratik Rakyat Aljazair", "official_name:ka": "ალჟირის სახალხო დემოკრატიული რესპუბლიკა", "official_name:kk": "Алжир Халық Демократиялық Республикасы", "official_name:kn": "ಅಲ್ಜೀರಿಯ ಜನ ಪ್ರಜಾತಾಂತ್ರಿಕ ಗಣರಾಜ್ಯ", "official_name:ko": "알제리 인민민주공화국", "official_name:ku": "Komara Cezayira Demokratîk a Xelk", "official_name:ky": "Алжир Эл Демократиялык Республикасы", "official_name:lb": "Demokratesch Volleksrepublik Algerien", "official_name:lt": "Alžyro Liaudies Demokratinė Respublika", "official_name:lv": "Alžīrijas Tautas Demokrātiskā Republika", "official_name:mg": "Repoblika Aljeriana demôkratika sy entim-bahoaka", "official_name:mk": "Народна Демократска Република Алжир", "official_name:ml": "പീപ്പിൾസ് ഡെമോക്രാറ്റിക്ക് റിപ്പബ്ലിക്ക് ഓഫ് അൾജീരിയ", "official_name:mn": "Бүгд Найрамдах Ардчилсан Алжир Ард Улс", "official_name:mr": "अल्जीरियाचे जनतेचे प्रजासत्ताक", "official_name:ms": "Republik Demokratik Rakyat Algeria", "official_name:mt": "Repubblika Demokratika Popolari tal-Alġerija", "official_name:my": "အယ်လ်ဂျီးရီးယား ဒီမိုကရက်တစ် ပြည်သူ့သမ္မတ နိုင်ငံ", "official_name:ne": "जनवादी प्रजातान्त्रिक गणतन्त्र अल्जेरिया", "official_name:nl": "Democratische Volksrepubliek Algerije", "official_name:nn": "Den demokratiske folkerepublikken Algerie", "official_name:no": "Den demokratiske folkerepublikk Algerie", "official_name:nv": "Ghą́ą́ʼaskʼidii Biłikahii Bikéyah Ntsaaígíí", "official_name:ny": "Jamhuri ya Muungano wa Algeriais", "official_name:oc": "Republica Argeriana Democratica e Populara", "official_name:os": "Алжиры Адæмон Демократион Республикæ", "official_name:pa": "ਅਲਜੀਰੀਆ ਦਾ ਜਨ-ਲੋਕਤੰਤਰੀ ਗਣਰਾਜ", "official_name:pl": "Algierska Republika Ludowo-Demokratyczna", "official_name:ps": "الجزاير د خلکو ډيموکراټيک جمهوريت", "official_name:pt": "República Argelina Democrática e Popular", "official_name:qu": "Runallaqtap Runakamay Kaq Alhirya Ripuwlika", "official_name:ro": "Republica Algeriană Democratică și Populară", "official_name:ru": "Алжирская Народная Демократическая Республика", "official_name:sc": "Repùbrica Populare Democràtiga Jasira", "official_name:sg": "Alazëri Ködörösêse", "official_name:sh": "Narodna Demokratska Republika Alžir", "official_name:sk": "Alžírska demokratická a ľudová republika", "official_name:sl": "Ljudska demokratična republika Alžirija", "official_name:sm": "Sha’bīyah République Algérienne Démocratique et Populaire", "official_name:sr": "Народна Демократска Република Алжир", "official_name:su": "Républik Démokratik Rahayat Aljazair", "official_name:sv": "Demokratiska folkrepubliken Algeriet", "official_name:sw": "Jamhuri ya kidemokrasia ya watu wa Algeria", "official_name:ta": "அல்ஜீரிய மக்கள் சனநாயக குடியரசு", "official_name:te": "ప్రజాస్వామ్య గణతంత్ర్య అల్జీరియా", "official_name:tg": "Ҷумҳурии Халқии Демократии Алҷазоир", "official_name:th": "สาธารณรัฐประชาธิปไตยประชาชนแอลจีเรีย", "official_name:tk": "Alžir Halk Demokratik Respublikasy", "official_name:tl": "Demokratikong Republikang Bayan ng Algeria", "official_name:tr": "Cezayir Demokratik Halk Cumhuriyeti", "official_name:tt": "Әлҗәзаи́р Халы́к Демократи́к Җөмһүрия́те", "official_name:uk": "Алжи́рська Наро́дна Демократи́чна Респу́бліка", "official_name:ur": "عوامی جمہوری جمہوریہ الجزائر", "official_name:uz": "Jazoir Demokratik va Xalq Respublikasi", "official_name:vi": "Cộng hoà Dân chủ Nhân dân Algérie", "official_name:wa": "Republike Aldjeryinne Democratike et Populaire", "official_name:wo": "Republik Popileer Demokaraatik bu Alseeri", "official_name:xh": "urhulumente olawulwa sisininzi sabantu base-Algeria", "official_name:yi": "פֿאָלקס דעמאקראטישע רעפובליק פֿון אלזשיר", "official_name:yo": "Orile-ede Olominira Toseluarailu awon Eniyan ile Algeria", "official_name:zh": "阿爾及利亞人民民主共和國", "official_name:zu": "IRiphabliki Labantu yase-Aljiriya", "official_name:ace": "Republik Demokratik Rakyat Aljazair", "official_name:ady": "Алжир Республикэ", "official_name:als": "Demokratischi Volksrepublik Algerie", "official_name:arc": "ܩܘܛܢܝܘܬܐ ܓܙܐܐܪܝܬܐ ܕܝܡܘܩܪܛܝܬܐ ܥܡܡܝܬܐ", "official_name:arz": "الجمهورية الجزائرية الديموقراطية الشعبية", "official_name:ast": "República Democrática Popular d'Arxelia", "official_name:bar": "Demokratische Volksrepublik Algerien", "official_name:ber": "ⵜⴰⴳⴷⵓⴷⴰ ⵜⴰⵎⴻⴳⴷⴰⵢⵜ ⵜⴰⵖⴻⵔⴼⴰⵏⵜ ⵜⴰⵣⵣⴰⵢⵔⵉⵜ", "official_name:bpy": "গণ-গনতান্ত্রিক প্রজাতন্ত্রি আলজেরিয়া", "official_name:bxr": "Бүгэдэ Найрамдаха Арадшалаһан Алжир Арад Улас", "official_name:chr": "ᏴᏫ ᎤᎾᏤᎵ ᏥᏈᏍᏗ ᎠᎾᏓᏅᏖᏒᎬ ᏍᎦᏚᎩ ᏀᎿ ᎠᎵᏥᎵᏯ", "official_name:ckb": "کۆماری دیموکراتیکی گەلی جەزائیر", "official_name:dsb": "Algeriska ludowa demokratiska republika", "official_name:ext": "Repúbrica Argelina Democrática i Populal", "official_name:frp": "Rèpublica alg·èrièna dèmocratica et populèra", "official_name:frr": "Demokraatisk Fulksrepubliik faan Algeerien", "official_name:haw": "Lepupalika Kemokalaka o ka Poʻe o ʻAlekelia", "official_name:hif": "People's Democratic Republic of Algeria", "official_name:hsb": "Algeriska demokratiska a ludowa republika", "official_name:ilo": "Demokratiko a Republika ti Tattao ti Arhelia", "official_name:jam": "Piipl Dimokratik Ripoblik a hAljiiria", "official_name:kab": "Tagduda tamegdayt taɣerfant tazzayrit", "official_name:kbd": "Алджазаир Джылэр Демократ Республикэ", "official_name:krc": "Алжир Халкъ Демократ Республика", "official_name:lad": "Repuvlika Popular i Demokratika de Arjelia", "official_name:lez": "Алжирдин Халкьдин Демократиядин Республика", "official_name:lzh": "阿爾及利亞民主人民共和國", "official_name:mhr": "Алжи́р Ка‘лык Демокра́тий Респу́блик", "official_name:mzn": "الجمهورية الجزائرية الديمقراطية الشّعبية", "official_name:nah": "Argeliatlācatlahtohcāyōtl Tlācatēpacholiztli īhuān Āltepēhuahcāyōtl", "official_name:nan": "Algeria Jîn-bîn Bîn-chú Kiōng-hô-kok", "official_name:new": "प्रजातान्त्रिक व लोकंह्वागु गणतन्त्र अल्जेरिया", "official_name:nso": "People's Democratic Republiki ya Algeria", "official_name:olo": "Alžiran Rahvahan Demokrattine Tazavaldu", "official_name:pam": "Ing Pangmaldang Democraticung Republica ning Algeria", "official_name:pnb": "الجمهورية الجزائرية الديمقراطية الشعبية", "official_name:rue": "Алжірска демократічна і людова републіка", "official_name:sah": "Алжир Дьон Демократ Республиката", "official_name:sco": "Fowkdemocratic Republic o Algerie", "official_name:stq": "Demokratiske Foulksrepublik Algerien", "official_name:szl": "Algerskŏ Republika Ludowo-Dymokratycznŏ", "official_name:udm": "Алжир Калык Демократи Республика", "official_name:vec": "Republica Popolare Democratica de l'Algeria", "official_name:vep": "Alžiran Rahvahaline Demokratine Tazovaldkund", "official_name:vls": "Democratische Volksrepubliek Algereye", "official_name:xmf": "ალჟირიშ ჯარალუაშ დემოკრატიული რესპუბლიკა", "official_name:yue": "阿爾及利亞人民民主共和國", "official_name:bat-smg": "Alžīra Demuokratėnė Liaudėis Respoblėka", "official_name:fiu-vro": "Alžeeriä Demokraatlinõ Rahvavabariik", "official_name:roa-rup": "Republica Popularã Democraticã Algheria", "official_name:roa-tara": "Repubbleche Democrateche Populare de Algerie", "official_name:be-tarask": "Народная Дэмакратычная Рэспубліка Альжыр"}}, "center_lat": 28.15, "center_lon": 2.68, "area_m2": 2318493828239, "timezone": "Africa/Algiers", "population": 41318142, "wikidata_id": "Q262", "wikipedia_id": "ar:الجزائر"}}