{"type": "Feature", "geometry": {"type": "MultiPolygon", "coordinates": [[[[-80.866, -1.602], [-80.867, -1.602], [-80.867, -1.599], [-80.868, -1.599], [-80.87, -1.6], [-80.871, -1.599], [-80.87, -1.597], [-80.871, -1.596], [-80.871, -1.595], [-80.87, -1.594], [-80.869, -1.591], [-80.868, -1.592], [-80.866, -1.592], [-80.865, -1.592], [-80.865, -1.593], [-80.863, -1.593], [-80.863, -1.594], [-80.86, -1.595], [-80.86, -1.596], [-80.862, -1.599], [-80.864, -1.599], [-80.864, -1.601], [-80.865, -1.601], [-80.866, -1.602]]], [[[-80.023, -3.239], [-80.022, -3.241], [-80.018, -3.248], [-80.018, -3.249], [-80.011, -3.262], [-80.066, -3.287], [-80.059, -3.273], [-80.05, -3.244], [-80.05, -3.242], [-80.049, -3.24], [-80.049, -3.239], [-80.048, -3.238], [-80.044, -3.227], [-80.026, -3.215], [-80.026, -3.217], [-80.027, -3.217], [-80.026, -3.219], [-80.026, -3.22], [-80.028, -3.219], [-80.026, -3.22], [-80.024, -3.224], [-80.025, -3.225], [-80.025, -3.226], [-80.023, -3.229], [-80.025, -3.229], [-80.024, -3.233], [-80.024, -3.234], [-80.023, -3.239]]], [[[-80.237, -3.338], [-80.25, -3.333], [-80.246, -3.333], [-80.241, -3.333], [-80.237, -3.338]]], [[[-80.158, -3.339], [-80.158, -3.338], [-80.157, -3.337], [-80.142, -3.334], [-80.128, -3.337], [-80.123, -3.333], [-80.121, -3.333], [-80.12, -3.334], [-80.12, -3.333], [-80.12, -3.334], [-80.121, -3.335], [-80.121, -3.336], [-80.135, -3.366], [-80.158, -3.339]]], [[[-80.27, -2.999], [-80.221, -2.742], [-79.9, -2.744], [-80.196, -3.041], [-80.27, -2.999]]], [[[-91.59, 0.001], [-91.312, 0.133], [-91.179, -0.215], [-90.944, -0.465], [-90.787, -0.742], [-90.907, -0.955], [-91.155, -1.035], [-91.512, -0.908], [-91.302, -0.696], [-91.085, -0.587], [-91.381, -0.268], [-91.406, -0.059], [-91.59, 0.001]]], [[[-78.743, 1.376], [-78.741, 1.377], [-78.734, 1.371], [-78.51, 1.189], [-77.936, 0.816], [-77.713, 0.851], [-77.529, 0.653], [-77.521, 0.416], [-77.113, 0.372], [-76.848, 0.239], [-76.411, 0.242], [-76.228, 0.379], [-76.226, 0.377], [-76.009, 0.3], [-75.753, 0.037], [-75.258, -0.116], [-75.531, -0.181], [-75.263, -0.655], [-75.225, -0.862], [-75.386, -0.938], [-75.585, -1.55], [-76.044, -2.125], [-76.693, -2.609], [-77.812, -2.986], [-77.944, -3.066], [-78.368, -3.534], [-78.414, -3.793], [-78.566, -3.993], [-78.706, -4.624], [-78.843, -4.654], [-78.917, -4.892], [-79.21, -4.965], [-79.428, -4.749], [-79.477, -4.569], [-79.655, -4.434], [-79.814, -4.492], [-80.106, -4.291], [-80.388, -4.486], [-80.48, -4.08], [-80.127, -3.888], [-80.222, -3.44], [-79.999, -3.347], [-80, -3.347], [-80.001, -3.262], [-80.001, -3.254], [-79.999, -3.253], [-80, -3.253], [-80, -3.249], [-80.001, -3.248], [-80.001, -3.246], [-80.001, -3.245], [-79.999, -3.239], [-79.998, -3.24], [-79.996, -3.241], [-79.994, -3.239], [-79.997, -3.238], [-79.998, -3.237], [-80, -3.237], [-79.994, -3.225], [-79.992, -3.226], [-79.988, -3.22], [-79.987, -3.22], [-79.952, -3.192], [-79.954, -3.191], [-79.864, -3.049], [-79.852, -2.881], [-79.668, -2.527], [-79.922, -2.363], [-80.255, -2.743], [-80.563, -2.508], [-80.624, -2.45], [-80.626, -2.448], [-80.896, -2.316], [-80.756, -1.982], [-80.758, -1.983], [-80.759, -1.982], [-80.759, -1.983], [-80.76, -1.982], [-80.762, -1.979], [-80.763, -1.977], [-80.763, -1.976], [-80.745, -1.97], [-80.734, -1.961], [-80.738, -1.875], [-80.742, -1.864], [-80.768, -1.767], [-80.769, -1.764], [-80.802, -1.711], [-80.803, -1.711], [-80.804, -1.71], [-80.805, -1.708], [-80.805, -1.707], [-80.807, -1.706], [-80.806, -1.705], [-80.806, -1.704], [-80.806, -1.703], [-80.808, -1.7], [-80.809, -1.698], [-80.81, -1.697], [-80.809, -1.696], [-80.81, -1.695], [-80.81, -1.694], [-80.811, -1.694], [-80.811, -1.693], [-80.813, -1.693], [-80.811, -1.69], [-80.81, -1.688], [-80.811, -1.686], [-80.811, -1.685], [-80.812, -1.683], [-80.813, -1.681], [-80.837, -1.63], [-80.839, -1.631], [-80.839, -1.629], [-80.84, -1.629], [-80.843, -1.627], [-80.845, -1.627], [-80.844, -1.623], [-80.843, -1.623], [-80.844, -1.619], [-80.845, -1.619], [-80.854, -1.601], [-80.854, -1.6], [-80.855, -1.6], [-80.853, -1.598], [-80.851, -1.598], [-80.842, -1.568], [-80.842, -1.567], [-80.841, -1.567], [-80.84, -1.567], [-80.835, -1.561], [-80.834, -1.561], [-80.831, -1.562], [-80.83, -1.562], [-80.829, -1.562], [-80.828, -1.562], [-80.827, -1.562], [-80.825, -1.562], [-80.824, -1.562], [-80.822, -1.561], [-80.821, -1.562], [-80.82, -1.563], [-80.817, -1.562], [-80.813, -1.53], [-80.814, -1.529], [-80.814, -1.528], [-80.815, -1.527], [-80.816, -1.525], [-80.816, -1.524], [-80.817, -1.523], [-80.817, -1.521], [-80.818, -1.521], [-80.817, -1.52], [-80.817, -1.519], [-80.818, -1.519], [-80.817, -1.519], [-80.817, -1.518], [-80.817, -1.517], [-80.818, -1.517], [-80.818, -1.515], [-80.817, -1.514], [-80.817, -1.513], [-80.816, -1.512], [-80.816, -1.511], [-80.816, -1.51], [-80.815, -1.51], [-80.814, -1.51], [-80.813, -1.51], [-80.811, -1.511], [-80.807, -1.505], [-80.807, -1.502], [-80.808, -1.502], [-80.808, -1.501], [-80.804, -1.496], [-80.803, -1.496], [-80.801, -1.497], [-80.794, -1.489], [-80.795, -1.488], [-80.794, -1.487], [-80.79, -1.479], [-80.789, -1.48], [-80.764, -1.46], [-80.763, -1.459], [-80.765, -1.448], [-80.766, -1.445], [-80.766, -1.444], [-80.767, -1.442], [-80.767, -1.44], [-80.767, -1.439], [-80.759, -1.432], [-80.753, -1.424], [-80.752, -1.423], [-80.754, -1.411], [-80.754, -1.41], [-80.76, -1.392], [-80.762, -1.391], [-80.761, -1.389], [-80.757, -1.386], [-80.754, -1.385], [-80.754, -1.383], [-80.752, -1.382], [-80.751, -1.38], [-80.747, -1.375], [-80.745, -1.374], [-80.745, -1.373], [-80.743, -1.371], [-80.742, -1.37], [-80.739, -1.367], [-80.739, -1.362], [-80.747, -1.339], [-80.75, -1.332], [-80.82, -1.243], [-80.822, -1.239], [-80.865, -1.176], [-80.868, -1.172], [-80.881, -1.148], [-80.881, -1.146], [-80.912, -1.059], [-80.911, -1.059], [-80.911, -1.058], [-80.91, -1.058], [-80.907, -1.057], [-80.905, -1.052], [-80.904, -1.049], [-80.903, -1.045], [-80.903, -1.044], [-80.903, -1.043], [-80.903, -1.041], [-80.904, -1.039], [-80.902, -1.037], [-80.9, -1.036], [-80.899, -1.036], [-80.898, -1.036], [-80.897, -1.036], [-80.896, -1.036], [-80.896, -1.035], [-80.889, -1.033], [-80.886, -1.031], [-80.884, -1.029], [-80.882, -1.026], [-80.88, -1.022], [-80.876, -1.02], [-80.875, -1.019], [-80.874, -1.019], [-80.813, -0.955], [-80.804, -0.96], [-80.799, -0.96], [-80.73, -0.938], [-80.727, -0.937], [-80.724, -0.936], [-80.718, -0.947], [-80.72, -0.947], [-80.72, -0.95], [-80.719, -0.948], [-80.711, -0.95], [-80.677, -0.939], [-80.676, -0.938], [-80.664, -0.928], [-80.663, -0.929], [-80.662, -0.929], [-80.658, -0.927], [-80.656, -0.929], [-80.655, -0.929], [-80.655, -0.93], [-80.655, -0.931], [-80.656, -0.931], [-80.656, -0.935], [-80.656, -0.936], [-80.654, -0.938], [-80.654, -0.939], [-80.652, -0.941], [-80.649, -0.942], [-80.647, -0.943], [-80.645, -0.943], [-80.641, -0.944], [-80.639, -0.944], [-80.634, -0.946], [-80.632, -0.946], [-80.631, -0.947], [-80.623, -0.946], [-80.62, -0.945], [-80.594, -0.933], [-80.592, -0.932], [-80.586, -0.929], [-80.565, -0.907], [-80.562, -0.904], [-80.558, -0.899], [-80.553, -0.891], [-80.55, -0.888], [-80.523, -0.802], [-80.523, -0.801], [-80.516, -0.774], [-80.515, -0.772], [-80.507, -0.74], [-80.502, -0.73], [-80.501, -0.728], [-80.499, -0.724], [-80.497, -0.721], [-80.497, -0.719], [-80.494, -0.708], [-80.492, -0.705], [-80.469, -0.639], [-80.468, -0.639], [-80.451, -0.61], [-80.45, -0.61], [-80.449, -0.609], [-80.446, -0.61], [-80.425, -0.595], [-80.424, -0.595], [-80.41, -0.59], [-80.411, -0.59], [-80.411, -0.587], [-80.412, -0.587], [-80.412, -0.585], [-80.413, -0.585], [-80.413, -0.583], [-80.415, -0.581], [-80.422, -0.573], [-80.423, -0.572], [-80.427, -0.57], [-80.433, -0.57], [-80.463, -0.451], [-80.464, -0.452], [-80.465, -0.45], [-80.466, -0.45], [-80.467, -0.449], [-80.467, -0.448], [-80.468, -0.448], [-80.468, -0.447], [-80.469, -0.447], [-80.471, -0.444], [-80.473, -0.443], [-80.474, -0.443], [-80.475, -0.443], [-80.476, -0.441], [-80.478, -0.442], [-80.486, -0.414], [-80.486, -0.413], [-80.489, -0.408], [-80.491, -0.408], [-80.488, -0.365], [-80.487, -0.366], [-80.485, -0.366], [-80.476, -0.369], [-80.45, -0.351], [-80.449, -0.351], [-80.44, -0.341], [-80.44, -0.342], [-80.439, -0.341], [-80.437, -0.341], [-80.416, -0.314], [-80.414, -0.314], [-80.413, -0.314], [-80.412, -0.315], [-80.326, -0.171], [-80.325, -0.173], [-80.323, -0.173], [-80.309, -0.188], [-80.267, -0.163], [-80.266, -0.166], [-80.182, -0.083], [-80.181, -0.084], [-80.18, -0.085], [-80.177, -0.075], [-80.177, -0.076], [-80.116, -0.007], [-80.114, -0.004], [-80.113, -0.004], [-80.112, -0.003], [-80.101, 0.009], [-80.097, 0.017], [-80.094, 0.027], [-80.092, 0.036], [-80.088, 0.049], [-80.072, 0.047], [-80.068, 0.051], [-80.06, 0.067], [-80.058, 0.073], [-80.038, 0.136], [-80.036, 0.148], [-80.036, 0.152], [-80.032, 0.175], [-80.031, 0.192], [-80.031, 0.203], [-80.032, 0.236], [-80.033, 0.24], [-80.034, 0.259], [-80.034, 0.263], [-80.035, 0.273], [-80.04, 0.343], [-80.034, 0.369], [-79.934, 0.255], [-80.054, 0.468], [-80.053, 0.823], [-80.053, 0.824], [-80.052, 0.824], [-80.046, 0.818], [-80.045, 0.818], [-79.952, 0.827], [-79.882, 0.871], [-79.841, 0.878], [-79.84, 0.877], [-79.837, 0.877], [-79.835, 0.878], [-79.837, 0.879], [-79.837, 0.877], [-79.838, 0.877], [-79.839, 0.877], [-79.838, 0.88], [-79.416, 1.075], [-79.155, 1.103], [-78.933, 1.337], [-78.933, 1.335], [-78.743, 1.376]], [[-80.216, -3.336], [-80.216, -3.337], [-80.21, -3.338], [-80.211, -3.342], [-80.195, -3.342], [-80.195, -3.341], [-80.216, -3.336]]], [[[-81.085, -1.275], [-81.082, -1.272], [-81.083, -1.27], [-81.08, -1.269], [-81.08, -1.265], [-81.052, -1.286], [-81.085, -1.275]]], [[[-90.55, -0.63], [-90.25, -0.482], [-90.235, -0.742], [-90.397, -0.774], [-90.55, -0.63]]]]}, "properties": {"name": "Ecuador", "iso1": "EC", "admin_level": 2, "osm_id": 108089, "countrylevel_id": "iso1:EC", "osm_data": {"localname": "Ecuador", "official_name": "", "alltags": {"flag": "http://upload.wikimedia.org/wikipedia/commons/e/e8/Flag_of_Ecuador.svg", "name:am": "ኤኳዶር", "name:an": "Ecuador", "name:ar": "الإكوادور", "name:ay": "Ikwadur", "name:az": "Ekvador", "name:ba": "Эквадор", "name:be": "Эквадор", "name:bg": "Еквадор", "name:bn": "ইকুয়েডর", "name:bo": "ཨེ་ཁོའོ་ཌོར།", "name:br": "Ecuador", "name:bs": "Ekvador", "name:ca": "Equador", "name:ce": "Эквадор", "name:cs": "Ekvádor", "name:cv": "Эквадор", "name:cy": "Ecuador", "name:da": "Ecuador", "name:dv": "އިކުއެޑޯރު", "name:ee": "Ecuador", "name:el": "Ισημερινός (χώρα)", "name:en": "Ecuador", "name:eo": "Ekvadoro", "name:es": "Ecuador", "name:et": "Ecuador", "name:eu": "Ekuador", "name:fa": "اکوادور", "name:fi": "Ecuador", "name:fo": "Ekvador", "name:fr": "Équateur", "name:fy": "Ekwador", "name:ga": "Eacuadór", "name:gd": "Eacuador", "name:gl": "Ecuador", "name:gn": "Ekuator", "name:gu": "ઈક્વેડોર", "name:gv": "Ecuador", "name:he": "אקוודור", "name:hi": "ईक्वाडोर", "name:hr": "Ekvador", "name:ht": "Ekwatè", "name:hu": "Ecuador", "name:hy": "Էկվադոր", "name:ia": "Ecuador", "name:id": "Ekuador", "name:ie": "Ecuador", "name:io": "Equador", "name:is": "Ekvador", "name:it": "Ecuador", "name:ja": "エクアドル", "name:jv": "Ekuador", "name:ka": "ეკვადორი", "name:ki": "Ecuador", "name:kk": "Эквадор", "name:kl": "Ecuador", "name:kn": "ಎಕ್ವಡಾರ್", "name:ko": "에콰도르", "name:ku": "Ekuador", "name:kw": "Pow Ekwadorel", "name:la": "Aequatoria", "name:lb": "Ecuador", "name:li": "Ecuador", "name:ln": "Republíki ya Ekwatéli", "name:lt": "Ekvadoras", "name:lv": "Ekvadora", "name:mi": "Ekuatoa", "name:mk": "Еквадор", "name:ml": "ഇക്വഡോർ", "name:mn": "Эквадор", "name:mr": "इक्वेडोर", "name:ms": "Ecuador", "name:mt": "Ekwador", "name:my": "အီကွေဒေါနိုင်ငံ", "name:na": "Ekwador", "name:ne": "इक्वेडर", "name:nl": "Equador", "name:nn": "Ecuador", "name:no": "Ecuador", "name:nv": "Kéyah Nahasdzáán Ałníiʼgi Siʼánígíí", "name:oc": "Eqüator", "name:or": "ଏକ୍ଵାଡୋର", "name:os": "Эквадор", "name:pa": "ਏਕੁਆਦੋਰ", "name:pl": "Ekwador", "name:ps": "اېکوادور", "name:pt": "Equador", "name:qu": "Ikwadur", "name:rm": "Ecuador", "name:ro": "Ecuador", "name:ru": "Эквадор", "name:rw": "Ekwadoro", "name:sa": "एक्वाडोर", "name:se": "Ecuador", "name:sh": "Ekvador", "name:sk": "Ekvádor", "name:sl": "Ekvador", "name:so": "Ikwadoor", "name:sq": "Ekuadori", "name:sr": "Еквадор", "name:su": "Ékuador", "name:sv": "Ecuador", "name:sw": "Ekuador", "name:ta": "எக்குவடோர்", "name:te": "ఈక్వడార్", "name:tg": "Экуадор", "name:th": "ประเทศเอกวาดอร์", "name:tl": "Ecuador", "name:tr": "Ekvador", "name:tt": "Эквадор", "name:ug": "ئېكۋادور", "name:uk": "Еквадор", "name:ur": "ایکواڈور", "name:uz": "Ekvador", "name:vi": "Ecuador", "name:vo": "Lekvadorän", "name:wo": "Ekwadoor", "name:yi": "עקוואדאר", "name:yo": "Ẹ̀kùàdọ̀r", "name:zh": "厄瓜多尔", "name:als": "Ecuador", "name:ang": "Ecuador", "name:arz": "اكوادور", "name:ast": "Ecuador", "name:bcl": "Ekwador", "name:bpy": "ইকুয়াডর", "name:ceb": "Ecuador", "name:ckb": "ئێکوادۆر", "name:crh": "Ekvador", "name:diq": "Ekwador", "name:dsb": "Ekuador", "name:ext": "Equadol", "name:frp": "Èquator", "name:frr": "Ekwadoor", "name:gag": "Ekvador", "name:hif": "Ecuador", "name:hsb": "Ekwador", "name:ilo": "Ecuador", "name:jbo": "ekuador", "name:lad": "Ekvador", "name:lij": "Ecuadòr", "name:lmo": "Ecuador", "name:ltg": "Ekvadors", "name:mhr": "Эквадор", "name:mrj": "Эквадор", "name:mwl": "Eiquador", "name:mzn": "اکوادر", "name:nah": "Ecuador", "name:nan": "Ecuador", "name:nds": "Ecuador", "name:nov": "Equador", "name:pag": "Equador", "name:pam": "Ecuador", "name:pap": "Ecuador", "name:pih": "Ekwador", "name:pms": "Ecuador", "name:pnb": "ایکویڈار", "name:rmy": "Ekuador", "name:rue": "Еквадор", "name:sah": "Экуадор", "name:scn": "Ecuador", "name:sco": "Ecuador", "name:szl": "Ekwadůr", "name:tet": "Ekuadór", "name:tok": "ma Ekato", "name:tzl": "Ecuadour", "name:vec": "Ecuador", "name:war": "Ecuador", "name:wuu": "厄瓜多尔", "name:xal": "Эквадормудин Орн", "name:yue": "厄瓜多爾", "name:zea": "Ecuador", "border_type": "nation", "name:simple": "Ecuador", "name:bat-smg": "Ekvaduors", "name:fiu-vro": "Ecuador", "name:roa-rup": "Ecuador", "name:be-tarask": "Эквадор", "is_in:continent": "South America", "default_language": "es", "official_name:cs": "Ekvádorská republika", "official_name:de": "Die Republik Ecuador", "official_name:en": "Republic of Ecuador", "official_name:es": "Republica del Ecuador", "official_name:fr": "La République de l'Équateur", "official_name:ru": "Республика Эквадор"}}, "center_lat": -1.43, "center_lon": -78.77, "area_m2": 257797869650, "timezone": "America/Guayaquil", "population": 16624858, "wikidata_id": "Q736", "wikipedia_id": "es:Ecuador"}}