{"type": "Feature", "geometry": {"type": "MultiPolygon", "coordinates": [[[[-60.824, -51.999], [-60.574, -51.991], [-60.245, -51.494], [-59.907, -51.381], [-59.466, -51.464], [-59.458, -51.638], [-59.859, -51.964], [-60.281, -52.004], [-60.652, -52.259], [-60.824, -51.999]]], [[[-59.001, -51.812], [-59.159, -51.597], [-59.043, -51.434], [-58.528, -51.299], [-57.946, -51.366], [-57.77, -51.621], [-58.312, -51.88], [-58.734, -51.891], [-58.752, -52.044], [-59.072, -52.236], [-59.637, -52.008], [-59.498, -51.836], [-59.158, -51.708], [-59.001, -51.812]]]]}, "properties": {"name": "Falkland Islands", "iso1": "FK", "admin_level": 2, "osm_id": 2185374, "countrylevel_id": "iso1:FK", "osm_data": {"localname": "Falkland Islands", "official_name": "Falkland Islands", "alltags": {"flag": "http://upload.wikimedia.org/wikipedia/commons/8/83/Flag_of_the_Falkland_Islands.svg", "name:af": "Falklandeilande", "name:ak": "Fɔlkman Aeland", "name:am": "ፎክላንድ ደሴቶች (ኢስላስ ማልቪናስ)", "name:ar": "جزر الفولكلاند", "name:az": "Folkland Adaları", "name:be": "Фалклендскія астравы", "name:bg": "Фолкландски острови (Малвини)", "name:bm": "Maluwini Gun", "name:bn": "ফকল্যান্ড আইল্যান্ড (ইসল্যাস মাসভেনিস)", "name:bo": "ཕལྐ་ལནྜ་གླིང་ཕྲན།", "name:br": "Inizi Falkland (Inizi Maloù)", "name:bs": "Folklandska ostrva (Malvinska ostrva)", "name:ca": "Illes Malvines", "name:cs": "Falklandy", "name:cy": "Ynysoedd y Falklands", "name:da": "Falklandsøerne", "name:dz": "ཕལྐ་ལནྜ་གླིང་ཚོམ (ཨིས་ལཱས་མལ་བི་ཎཱས)", "name:ee": "Falkland ƒudomekpowo (Islas Malvinas) nutome", "name:el": "Νήσοι Φώκλαντ", "name:en": "Falkland Islands", "name:eo": "Falklandoj", "name:es": "Islas Malvinas", "name:et": "Falklandi saared", "name:eu": "Falkland uharteak (Malvina uharteak)", "name:fa": "جزایر فالکلند", "name:ff": "Duuɗe Falkland", "name:fi": "Falklandinsaaret", "name:fo": "Falklandsoyggjarnar", "name:fr": "Îles Malouines (Îles Falkland)", "name:fy": "Falklâneilannen", "name:ga": "Oileáin Fháclainne", "name:gd": "Na h-Eileanan Fàclainn", "name:gl": "Illas Malvinas", "name:gu": "ફૉકલેન્ડ આઇલેન્ડ્સ", "name:gv": "Ny Malveenaghyn", "name:ha": "Tsibiran Falkilan", "name:he": "איי פוקלנד (מלווינס)", "name:hi": "फ़ॉकलैंड आइलैंड (इज्लास माल्विनास)", "name:hr": "Falklandski Otoci", "name:hu": "Falkland-szigetek", "name:id": "Kepulauan Falkland", "name:is": "Falklandseyjar", "name:it": "Isole Falkland", "name:ja": "フォークランド諸島 (マルビナス諸島)", "name:ka": "ფალკლენდის კუნძულები", "name:ki": "Visiwa vya Falkland", "name:kl": "Falklandi qeqertaq", "name:km": "កោះ​ហ្វក់ឡែន (Islas Malvinas)", "name:kn": "ಫಾಲ್ಕ್‌ಲ್ಯಾಂಡ್ ದ್ವೀಪಗಳು (ಇಸ್ಲಾಸ್ ಮಾಲ್ವಿನಸ್)", "name:ko": "포클랜드 제도 (말비나스 군도)", "name:ks": "فٕلاکلینٛڑ جٔزیٖرٕ", "name:ku": "Giravên Malvîn", "name:la": "Insulae Malvinae", "name:lb": "Falkland Inselen", "name:lg": "Bizinga by'eFalikalandi", "name:ln": "Bisanga bya Falkland", "name:lo": "ຫມູ່ເກາະຟອກແລນ (ອິສລາສ ມາວິລນາສ)", "name:lt": "Folklando (Malvinų) Salos", "name:lv": "Folklenda salas", "name:mg": "Nosy Falkand", "name:mk": "Фолкландски Острови", "name:ml": "ഫോക്ൿലൻഡ് ദ്വീപുകൾ (മൽവിനാസ്)", "name:mn": "Фолклендийн Арлууд", "name:mr": "फॉकलंड बेटे (इस्लास मालविनास)", "name:ms": "Kepulauan Falkland (Islas Malvinas)", "name:mt": "Falkland Islands", "name:my": "ဖောက်ကလန် ကျွန်းစု", "name:ne": "फक्ल्याण्ड टापुहरू (इज्लास माल्भिनास)", "name:nl": "Falklandeilanden", "name:nn": "Falklandsøyane", "name:no": "Falklandsøyene", "name:or": "ଫଲ୍କଲ୍ୟାଣ୍ଡ ଦ୍ବୀପପୁଞ୍ଜ", "name:pl": "Falklandy", "name:pt": "Ilhas Malvinas", "name:rm": "Inslas dal Falkland", "name:rn": "Izinga rya Filikilandi", "name:ro": "Insulele Falkland", "name:ru": "Фолклендские острова", "name:se": "Falklandsullot", "name:sg": "Âzûâ tî Mälüîni", "name:si": "ෆෝක්ලන්ත දූපත් (අයිලස් මල්වියනාස්)", "name:sk": "Falklandy", "name:sl": "Falklandi", "name:sn": "Zvitsuwa zveFalklands", "name:so": "Jaziiradaha Fooklaan", "name:sr": "Фокландска (Малвинска) Острва", "name:sv": "Falklandsöarna", "name:sw": "Visiwa vya Falklandi (Islas Malvinas)", "name:ta": "ஃபாக்லாந்து தீவுகள் (இஸ்லாஸ் மால்வினஸ்)", "name:te": "ఫాక్ లేండ్ దీవులు (ఇస్లాస్ మాల్వినాస్)", "name:th": "หมู่เกาะฟอล์กแลนด์", "name:ti": "የፎልክላንድ ደሴቶች", "name:tl": "Kapuluang Falkland (Kapuluang Malvinas)", "name:to": "ʻOtumotu Fokuleni", "name:tr": "Falkland Adaları", "name:tt": "Фолкленд утраулары", "name:uk": "Фолклендські острови", "name:ur": "فاکلینڈ آئلینڈز (ازلاس مالوینس)", "name:vi": "Quần đảo Falkland", "name:yo": "Orílẹ́ède Etikun Fakalandi", "name:zh": "福克兰群岛", "name:zu": "i-Falkland Islands (i-Islas Malvinas)", "website": "https://www.falklands.gov.fk/", "disputed": "yes", "int_name": "Falkland Islands (Malvinas)", "maritime": "yes", "name:ast": "Islles Malvines", "name:chr": "ᏩᎩ ᎤᎦᏚᏛ (ᎢᏍᎳᏍ ᎹᎸᏫᎾᏍ)", "name:fur": "Isulis Falkland (Isulis Malvinas)", "name:kab": "Tigzirin n Falkland", "name:ksh": "de malleviinesche Enselle", "note:name": "OSM policy is that the 'name' to be used is that spoken by the inhabitants. Plural. Malvinas is the Spanish name, and is entered in name:es. The UN naming convention is shown as 'int_name'", "alt_name:cs": "Malvíny", "alt_name:de": "Malwinen", "alt_name:eo": "Malvinoj", "alt_name:it": "Isole Malvine", "alt_name:mk": "Малвински Острови", "alt_name:pl": "Malwiny", "capital_city": "Stanley", "country_code": "FLK", "official_name": "Falkland Islands", "short_name:cs": "Falklandy", "default_language": "en", "official_name:cs": "Falklandské ostrovy (Malvíny)", "official_name:en": "Falkland Islands", "official_name:eo": "Insuloj Falklandoj", "official_name:es": "Islas Malvinas", "official_name:fr": "Îles Falkland (Îles Malouines)", "official_name:lv": "Folklenda salas"}}, "center_lat": -51.74, "center_lon": -59.38, "area_m2": 12039153173, "timezone": "Atlantic/Stanley", "population": 4550, "wikidata_id": "Q9648", "wikipedia_id": "en:Falkland Islands"}}