{"type": "Feature", "geometry": {"type": "MultiPolygon", "coordinates": [[[[8.574, 42.382], [8.727, 42.562], [9.106, 42.724], [9.341, 42.729], [9.532, 42.549], [9.556, 42.143], [9.556, 42.142], [9.402, 41.859], [9.216, 41.368], [8.794, 41.556], [8.782, 41.924], [8.574, 42.382]]], [[[3.175, 42.435], [2.945, 42.48], [2.481, 42.341], [2.257, 42.439], [2.012, 42.353], [1.73, 42.492], [1.726, 42.503], [1.739, 42.555], [1.787, 42.574], [1.603, 42.626], [1.469, 42.606], [1.442, 42.604], [1.357, 42.72], [0.858, 42.826], [0.66, 42.691], [0.474, 42.7], [0.002, 42.686], [-0.313, 42.849], [-0.723, 42.918], [-1.354, 43.028], [-1.379, 43.25], [-1.73, 43.296], [-1.785, 43.35], [-1.524, 43.53], [-1.44, 43.697], [-1.254, 44.467], [-1.152, 45.484], [-0.708, 45.327], [-0.801, 45.474], [-1.238, 45.708], [-1.082, 45.898], [-1.132, 46.305], [-1.272, 46.282], [-1.813, 46.494], [-2.144, 46.822], [-1.984, 47.03], [-2.039, 47.077], [-2.5, 47.287], [-2.457, 47.448], [-2.781, 47.622], [-3.089, 47.565], [-3.341, 47.709], [-3.452, 47.696], [-3.53, 47.774], [-3.518, 47.803], [-3.524, 47.811], [-3.535, 47.813], [-3.533, 47.819], [-3.533, 47.82], [-3.538, 47.816], [-3.536, 47.813], [-3.524, 47.81], [-3.523, 47.801], [-3.54, 47.763], [-3.837, 47.797], [-3.96, 47.897], [-4.193, 47.795], [-4.367, 47.795], [-4.387, 47.926], [-4.502, 48.002], [-4.697, 48.026], [-4.573, 48.082], [-4.572, 48.081], [-4.529, 48.087], [-4.527, 48.086], [-4.457, 48.097], [-4.445, 48.097], [-4.306, 48.196], [-4.462, 48.239], [-4.554, 48.211], [-4.553, 48.295], [-4.383, 48.275], [-4.308, 48.297], [-4.26, 48.28], [-4.229, 48.297], [-4.231, 48.314], [-4.231, 48.313], [-4.244, 48.311], [-4.244, 48.31], [-4.609, 48.338], [-4.75, 48.544], [-4.036, 48.712], [-3.661, 48.656], [-3.586, 48.769], [-3.083, 48.813], [-2.633, 48.538], [-2.328, 48.674], [-2.123, 48.603], [-2.05, 48.625], [-2.049, 48.625], [-2.048, 48.624], [-2.047, 48.625], [-2.046, 48.625], [-2.006, 48.568], [-1.946, 48.54], [-1.571, 48.626], [-1.608, 49.197], [-1.808, 49.372], [-1.859, 49.649], [-1.289, 49.693], [-1.117, 49.345], [-0.227, 49.286], [0.296, 49.43], [0.363, 49.441], [0.069, 49.525], [0.206, 49.714], [0.572, 49.849], [1.107, 49.937], [1.38, 50.065], [1.646, 50.348], [1.557, 50.397], [1.579, 50.858], [2.079, 51.009], [2.082, 51.007], [2.089, 51.004], [2.545, 51.089], [2.635, 50.813], [2.863, 50.708], [3.019, 50.774], [3.179, 50.756], [3.191, 50.739], [3.195, 50.738], [3.196, 50.722], [3.276, 50.6], [3.275, 50.597], [3.276, 50.597], [3.28, 50.596], [3.279, 50.595], [3.277, 50.592], [3.278, 50.591], [3.276, 50.586], [3.276, 50.582], [3.277, 50.581], [3.278, 50.581], [3.279, 50.58], [3.279, 50.573], [3.279, 50.572], [3.278, 50.57], [3.278, 50.569], [3.278, 50.564], [3.28, 50.563], [3.282, 50.563], [3.283, 50.563], [3.285, 50.562], [3.281, 50.56], [3.279, 50.559], [3.28, 50.543], [3.28, 50.542], [3.279, 50.539], [3.282, 50.537], [3.43, 50.505], [3.674, 50.401], [3.801, 50.352], [3.804, 50.353], [3.805, 50.354], [3.806, 50.355], [3.962, 50.348], [3.968, 50.35], [3.968, 50.349], [3.989, 50.346], [3.997, 50.349], [3.999, 50.348], [4.001, 50.35], [4.003, 50.35], [4.004, 50.35], [4.006, 50.35], [4.034, 50.349], [4.036, 50.345], [4.037, 50.345], [4.036, 50.344], [4.104, 50.309], [4.116, 50.304], [4.141, 49.979], [4.174, 49.976], [4.175, 49.976], [4.176, 49.975], [4.176, 49.974], [4.183, 49.972], [4.184, 49.971], [4.185, 49.971], [4.233, 49.958], [4.433, 49.942], [4.685, 49.997], [4.969, 49.802], [5.394, 49.617], [5.471, 49.497], [5.819, 49.546], [5.894, 49.497], [6.241, 49.515], [6.368, 49.469], [6.369, 49.469], [6.711, 49.188], [7.067, 49.114], [7.369, 49.162], [7.635, 49.054], [8.233, 48.966], [7.803, 48.59], [7.577, 48.12], [7.589, 47.59], [7.555, 47.564], [7.51, 47.503], [7.446, 47.462], [7.421, 47.446], [7.381, 47.432], [7.327, 47.44], [7.13, 47.503], [6.94, 47.433], [6.859, 47.166], [6.46, 46.851], [6.138, 46.558], [6.064, 46.416], [6.126, 46.317], [5.956, 46.132], [6.242, 46.304], [6.805, 46.394], [6.798, 46.136], [7.044, 45.923], [6.871, 45.839], [6.862, 45.833], [6.854, 45.837], [6.838, 45.84], [6.803, 45.778], [7.104, 45.467], [7.081, 45.224], [6.63, 45.109], [6.75, 44.907], [7.065, 44.714], [6.948, 44.655], [6.887, 44.363], [7.357, 44.117], [7.713, 44.061], [7.53, 43.784], [7.439, 43.749], [7.412, 43.734], [7.419, 43.725], [7.377, 43.72], [7.376, 43.72], [7.366, 43.721], [7.365, 43.722], [6.931, 43.48], [6.734, 43.407], [6.681, 43.2], [6.126, 43.078], [5.672, 43.18], [5.452, 43.203], [5.341, 43.345], [4.757, 43.35], [4.23, 43.46], [4.101, 43.554], [3.908, 43.518], [3.509, 43.272], [3.24, 43.213], [3.044, 42.838], [3.052, 42.544], [3.175, 42.435]]]]}, "properties": {"name": "Metropolitan France", "iso1": "FX", "admin_level": 3, "osm_id": 1403916, "countrylevel_id": "iso1:FX", "osm_data": {"localname": "France métropolitaine", "official_name": "", "alltags": {"flag": "http://upload.wikimedia.org/wikipedia/commons/c/c3/Flag_of_France.svg", "name:ar": "فرنسا متروبوليتان", "name:az": "Fransa metropoliyası", "name:be": "Метраполія Францыі", "name:bh": "मेट्रोपॉलिटन फ्रांस", "name:bo": "ཧྥ་རན་སི་ཡི་གྲོང་ཁྱེར་ཆེན་པོ།", "name:bs": "Kontinentalna Francuska", "name:ca": "França metropolitana", "name:cs": "Metropolitní Francie", "name:el": "Μητροπολιτική Γαλλία", "name:en": "Metropolitan France", "name:eo": "Ĉeflanda Francio", "name:es": "Francia metropolitana", "name:et": "Prantsusmaa emamaa", "name:eu": "Metropolitar Frantzia", "name:fa": "فرانسه متروپل", "name:fr": "France métropolitaine", "name:gl": "Francia metropolitana", "name:he": "צרפת המטרופוליטנית", "name:hr": "Kontinentalna Francuska", "name:hu": "Európai Franciaország", "name:id": "Prancis Metropolitan", "name:it": "Francia metropolitana", "name:ja": "フランス・メトロポリテーヌ", "name:kl": "Franskit Nunaat", "name:ko": "프랑스 본토", "name:ms": "Perancis Metropolitan", "name:nl": "Metropolitaans Frankrijk", "name:nv": "Dáághahii Dinéʼiʼ Bikéyah", "name:oc": "França metropolitana", "name:pa": "ਮਹਾਂਨਗਰੀ ਫ਼ਰਾਂਸ", "name:pl": "Francja metropolitalna", "name:pt": "França metropolitana", "name:ro": "Franța metropolitană", "name:ru": "Метрополия Франции", "name:sc": "Frantza metropolitana", "name:sk": "Metropolitné Francúzsko", "name:sr": "Метрополитанска Француска", "name:sv": "Metropolitan Frankrike", "name:th": "ประเทศฝรั่งเศสแผ่นดินใหญ่", "name:tr": "Metropolitan Fransa", "name:uk": "Метрополія Франції", "name:ur": "میٹروپولیٹن فرانس", "name:vi": "Chính quốc Pháp", "name:zh": "法國本土/法国本土", "currency": "EUR", "name:yue": "法國本土", "population": "63070344", "border_type": "territorial", "description": "France, territoires régis par l’article 72 de la Constitution", "name:zh-Hans": "法国本土", "name:zh-Hant": "法國本土", "is_in:country": "France", "is_in:continent": "Europe", "is_in:country_code": "FR", "TMC:cid_58:tabcd_1:Class": "Area", "TMC:cid_58:tabcd_1:LCLversion": "8.00", "TMC:cid_58:tabcd_1:LocationCode": "2"}}, "center_lat": 46.56, "center_lon": 2.55, "area_m2": 548713687034, "timezone": "Europe/Paris", "population": 64897954, "wikidata_id": "Q212429", "wikipedia_id": "fr:France métropolitaine"}}