{"type": "Feature", "geometry": {"type": "MultiPolygon", "coordinates": [[[[-28.001, 70.58], [-27.076, 70.869], [-26.48, 70.898], [-25.698, 71.088], [-25.262, 70.656], [-26.004, 70.521], [-27.929, 70.412], [-28.001, 70.58]]], [[[-54.63, 70], [-54.825, 70.214], [-54.381, 70.33], [-53.504, 70.245], [-52.737, 69.928], [-52.038, 69.811], [-51.851, 69.642], [-52.175, 69.475], [-53.544, 69.249], [-53.896, 69.554], [-54.519, 69.558], [-54.976, 69.709], [-54.63, 70]]], [[[-53.846, 67.001], [-53.844, 67], [-53.844, 66.999], [-53.846, 66.999], [-53.846, 67], [-53.846, 67.001]]], [[[-53.802, 67.001], [-53.803, 67], [-53.811, 67.001], [-53.811, 67], [-53.811, 66.998], [-53.821, 67.004], [-53.821, 67.01], [-53.801, 67.004], [-53.802, 67.001]]], [[[-50.759, 67.54], [-50.755, 67.541], [-50.752, 67.54], [-50.754, 67.536], [-50.759, 67.54]]], [[[-34.004, 66.793], [-34.006, 66.865], [-33.999, 66.855], [-33.999, 66.791], [-34.004, 66.793]]], [[[-52.996, 66.9], [-52.986, 66.884], [-53.001, 66.882], [-53.001, 66.894], [-52.998, 66.894], [-53, 66.899], [-52.996, 66.9]]], [[[-34.001, 66.883], [-34.008, 66.891], [-34, 66.893], [-33.999, 66.883], [-34.001, 66.883]]], [[[-24.002, 72.472], [-24.51, 72.844], [-23.153, 72.834], [-22.727, 72.63], [-22.681, 72.174], [-24.002, 72.472]]], [[[-25.002, 73.313], [-23.018, 73.094], [-24.406, 73.022], [-25.421, 73.111], [-25.759, 73.195], [-25.248, 73.409], [-25.002, 73.313]]], [[[-21.998, 74.258], [-21.278, 74.454], [-20.543, 74.405], [-20.185, 74.167], [-21.039, 74.097], [-21.998, 74.258]]], [[[-17.415, 75.001], [-17.416, 75], [-17.423, 75], [-17.424, 74.999], [-18.846, 75], [-18.85, 75], [-18.843, 75.305], [-17.415, 75.001]]], [[[-61.002, 76.098], [-61, 76.098], [-60.994, 76.098], [-60.994, 76.094], [-60.999, 76.092], [-61.002, 76.098]]], [[[-18.566, 76], [-18.567, 76.002], [-19.154, 76.495], [-18.754, 76.506], [-18.566, 76]]], [[[-45.997, 81.947], [-47.625, 82.258], [-48.461, 82.566], [-46.781, 82.579], [-45.121, 82.231], [-45.855, 82.109], [-45.997, 81.947]]], [[[-38.999, 65.538], [-38.997, 65.531], [-39, 65.53], [-39.003, 65.538], [-38.999, 65.538]]], [[[-53.002, 65.429], [-53.001, 65.48], [-52.998, 65.478], [-52.998, 65.491], [-53.001, 65.491], [-53.001, 65.492], [-53.002, 65.492], [-53.001, 65.505], [-53, 65.505], [-52.868, 65.495], [-52.915, 65.403], [-53.001, 65.432], [-53.001, 65.43], [-53, 65.429], [-53.002, 65.429]]], [[[-53.002, 65.51], [-52.999, 65.511], [-53.001, 65.511], [-52.997, 65.511], [-52.995, 65.51], [-52.995, 65.509], [-53.001, 65.509], [-53.002, 65.51]]], [[[-53.002, 65.536], [-53.021, 65.644], [-53.001, 65.644], [-53.001, 65.645], [-52.994, 65.644], [-52.999, 65.537], [-53.002, 65.536]]], [[[-22.307, 70.007], [-22.313, 70], [-23.777, 69.517], [-25.024, 69.215], [-25.351, 69.005], [-26.371, 68.719], [-27.633, 68.496], [-28.45, 68.473], [-29.41, 68.232], [-30.031, 68.414], [-30.459, 68.09], [-31.116, 68.061], [-32.05, 68.146], [-32.355, 67.902], [-33.066, 67.679], [-33.541, 67.374], [-33.428, 67.26], [-33.792, 67.001], [-33.79, 67], [-33.974, 66.998], [-33.984, 67.001], [-34.003, 67.005], [-34, 66.99], [-33.992, 66.986], [-33.995, 66.956], [-34.002, 66.956], [-34.001, 66.938], [-33.993, 66.935], [-33.999, 66.91], [-34.005, 66.909], [-34.07, 66.888], [-34.008, 66.783], [-33.999, 66.781], [-34.716, 66.428], [-36.093, 65.918], [-37.774, 65.968], [-37.999, 65.908], [-38.005, 65.906], [-38.12, 65.676], [-38.996, 65.554], [-38.999, 65.554], [-38.999, 65.556], [-38.992, 65.563], [-38.986, 65.57], [-39.002, 65.582], [-39.469, 65.634], [-39.999, 65.503], [-40.014, 65.505], [-40.023, 65.466], [-39.999, 65.46], [-39.848, 65.177], [-40.219, 65.026], [-40.626, 65.122], [-41.052, 65.04], [-40.611, 64.639], [-40.768, 64.163], [-40.518, 63.687], [-40.775, 63.489], [-41.394, 63.363], [-41.433, 63.113], [-41.773, 62.871], [-42.715, 62.678], [-43.139, 62.757], [-43.146, 62.754], [-42.528, 62.606], [-42.21, 62.373], [-42.373, 62.064], [-42.13, 61.97], [-42.706, 61.262], [-42.83, 60.597], [-43.348, 60.358], [-43.246, 60.075], [-44.261, 60.189], [-44.564, 59.987], [-45.207, 60.188], [-44.888, 60.437], [-46.17, 60.722], [-46.564, 60.897], [-47.306, 60.943], [-47.455, 60.816], [-48.025, 60.822], [-47.842, 61.032], [-47.839, 61.032], [-48.251, 61.207], [-48.628, 61.222], [-49.426, 61.816], [-49.576, 62.22], [-50.248, 62.483], [-50.143, 62.69], [-50.596, 63.213], [-51.023, 63.138], [-51.186, 63.513], [-51.526, 63.628], [-51.391, 63.916], [-51.727, 64.192], [-51.135, 64.202], [-50.658, 64.502], [-51.056, 64.655], [-51.443, 64.511], [-51.765, 64.234], [-52.069, 64.179], [-52.155, 64.53], [-52.155, 64.531], [-52.162, 65.115], [-52.369, 65.397], [-52.004, 65.476], [-51.999, 65.476], [-52, 65.508], [-52.002, 65.508], [-52.527, 65.434], [-53, 65.66], [-53.002, 65.66], [-53.227, 65.919], [-53.668, 66.101], [-53.468, 66.648], [-53.017, 66.751], [-52.999, 66.754], [-52.999, 66.786], [-53.001, 66.786], [-53.004, 66.854], [-52.999, 66.854], [-52.997, 66.854], [-52.999, 66.857], [-53.001, 66.858], [-52.996, 66.859], [-52.461, 66.873], [-52.552, 66.92], [-52.796, 66.889], [-52.987, 66.909], [-53.005, 66.908], [-53.796, 66.998], [-53.798, 67], [-53.806, 67.069], [-53.941, 67.101], [-53.717, 67.448], [-53.302, 67.552], [-52.986, 67.725], [-52.987, 67.727], [-52.978, 67.73], [-52.975, 67.727], [-52.968, 67.728], [-52.956, 67.729], [-52.524, 67.768], [-52.463, 67.772], [-52.417, 67.772], [-52.411, 67.771], [-51.859, 67.635], [-51.347, 67.68], [-50.672, 67.503], [-50.644, 67.505], [-50.64, 67.503], [-50.61, 67.5], [-50.612, 67.506], [-51.184, 67.751], [-52.364, 67.81], [-53.024, 67.746], [-53.231, 67.622], [-53.235, 67.617], [-53.243, 67.612], [-53.252, 67.611], [-53.517, 67.52], [-53.52, 67.518], [-53.696, 67.492], [-53.697, 67.493], [-53.698, 67.494], [-53.662, 67.802], [-53.083, 68.057], [-53.14, 68.314], [-52.118, 68.64], [-51.643, 68.516], [-51.029, 68.578], [-51.218, 68.838], [-50.983, 68.935], [-50.982, 68.937], [-51.002, 68.932], [-51.014, 68.932], [-51.111, 68.937], [-51.112, 68.94], [-50.565, 68.971], [-50.565, 68.968], [-50.321, 68.904], [-50.293, 68.914], [-50.33, 69.122], [-50.917, 69.169], [-50.37, 69.755], [-50.269, 70.053], [-51.163, 69.962], [-52.329, 70.057], [-52.887, 70.288], [-54.056, 70.42], [-54.58, 70.718], [-54.126, 70.832], [-52.641, 70.732], [-51.637, 70.439], [-51.163, 70.569], [-51.313, 70.905], [-52.194, 71.137], [-52.269, 71.396], [-52.701, 71.682], [-53.48, 71.796], [-53.994, 71.682], [-53.895, 71.449], [-54.827, 71.36], [-55.508, 71.472], [-55.735, 71.755], [-55.528, 71.994], [-54.887, 72.265], [-54.674, 72.987], [-55.329, 73.038], [-55.13, 73.416], [-56.022, 73.644], [-56.059, 73.958], [-56.369, 74.267], [-56.224, 74.478], [-56.662, 74.827], [-57.814, 75.024], [-58.183, 75.466], [-59.56, 75.992], [-60.085, 75.998], [-60.08, 76], [-60.08, 76.001], [-60.998, 76.155], [-61, 76.154], [-60.997, 76.154], [-60.999, 76.154], [-62.395, 76.243], [-63.317, 76.428], [-63.999, 76.118], [-64.009, 76.119], [-65.541, 76.258], [-67.28, 76.247], [-68.519, 76.092], [-69.211, 76.462], [-67.909, 76.579], [-70.601, 76.796], [-71.361, 77.013], [-70.884, 77.192], [-69.415, 77.228], [-68.314, 77.374], [-66.706, 77.358], [-66.046, 77.443], [-66.752, 77.691], [-67.688, 77.515], [-69.159, 77.458], [-70.276, 77.573], [-72.216, 77.939], [-72.813, 78.142], [-72.421, 78.524], [-71.717, 78.557], [-69.834, 78.801], [-68.542, 79.043], [-67.117, 79.156], [-66.123, 79.11], [-64.235, 79.662], [-64.23, 79.878], [-64.892, 80.064], [-67.01, 80.055], [-67.464, 80.193], [-64.897, 80.977], [-63.787, 81.001], [-63.785, 80.999], [-62.763, 81.175], [-61.103, 80.913], [-60.767, 80.98], [-61.87, 81.344], [-61.333, 81.497], [-61.954, 81.731], [-59.338, 82.102], [-55.244, 82.339], [-53.882, 81.964], [-52.799, 81.86], [-50.436, 81.83], [-51.624, 82.146], [-51.791, 82.455], [-50.531, 82.453], [-48.421, 82.091], [-45.361, 81.658], [-45.841, 81.891], [-45.654, 82.079], [-44.577, 82.323], [-46.497, 82.701], [-45.369, 82.791], [-44.754, 83.085], [-43.242, 83.241], [-41.344, 82.943], [-39.339, 82.988], [-39.803, 83.442], [-38.624, 83.543], [-33.398, 83.66], [-27.158, 83.548], [-24.749, 83.253], [-24.394, 82.988], [-21.063, 82.816], [-19.842, 82.61], [-21.927, 82.282], [-24.53, 82.146], [-27.613, 82.193], [-28.414, 82.009], [-24.595, 81.998], [-24.661, 81.77], [-23.348, 81.71], [-23.18, 82.003], [-21.335, 82.053], [-20.997, 81.762], [-21.332, 81.451], [-20.728, 81.28], [-18.469, 81.49], [-17.116, 81.402], [-15.855, 81.848], [-13.72, 81.751], [-11.759, 81.519], [-11.521, 81.313], [-14.126, 80.771], [-15.416, 80.625], [-16.354, 80.222], [-18.126, 79.687], [-19.046, 79.741], [-19.813, 79.46], [-19.54, 79.088], [-20.774, 78.965], [-21.301, 78.247], [-21.963, 77.557], [-21.242, 77.606], [-20.837, 77.951], [-20.111, 77.798], [-20.425, 77.456], [-19.74, 77.335], [-18.209, 77.201], [-18.185, 77.002], [-18.185, 76.999], [-18.801, 76.76], [-19.778, 76.911], [-20.996, 76.952], [-21.003, 76.952], [-20.998, 76.925], [-21.002, 76.925], [-22.004, 76.607], [-22.002, 76.608], [-21.5, 76.226], [-20.951, 76.302], [-19.999, 76.068], [-20.003, 76.067], [-19.526, 75.757], [-19.355, 75.299], [-19.603, 75.132], [-20.564, 75.188], [-20.752, 74.683], [-18.973, 74.482], [-19.368, 74.276], [-20.223, 74.297], [-20.37, 74.443], [-21.27, 74.474], [-21.777, 74.443], [-22.264, 74.179], [-20.616, 73.879], [-20.554, 73.448], [-21.618, 73.46], [-22.342, 73.248], [-24.399, 73.551], [-25.385, 73.453], [-25.792, 73.249], [-26.467, 73.184], [-25.13, 73.074], [-25.007, 72.993], [-25.471, 72.828], [-24.706, 72.675], [-24.555, 72.416], [-22.538, 71.893], [-22.945, 71.758], [-22.524, 71.548], [-21.723, 71.412], [-21.747, 70.631], [-22.636, 70.442], [-23.372, 70.459], [-23.967, 70.626], [-24.304, 71.088], [-24.683, 71.299], [-25.447, 71.354], [-25.581, 71.169], [-26.722, 70.924], [-27.729, 70.925], [-28.352, 70.514], [-28.157, 70.354], [-26.717, 70.475], [-26.858, 70.249], [-26.298, 70.194], [-25.292, 70.413], [-23.566, 70.118], [-22.368, 70.115], [-22.307, 70.007]], [[-20.002, 75.001], [-19.998, 75], [-19.997, 75], [-20.002, 75.001]]]]}, "properties": {"name": "Greenland", "iso1": "GL", "admin_level": 2, "osm_id": 2184073, "countrylevel_id": "iso1:GL", "osm_data": {"localname": "Kalaallit Nunaat", "official_name": "", "alltags": {"flag": "http://upload.wikimedia.org/wikipedia/commons/0/09/Flag_of_Greenland.svg", "sqkm": "2166086", "name:af": "Groenland", "name:am": "ግሪንላንድ", "name:an": "Gronlandia", "name:ar": "غرينلاند", "name:az": "Qrenlandiya", "name:be": "Грэнландыя", "name:bg": "Гренландия", "name:bn": "গ্রিনল্যান্ড", "name:bo": "གེ་རེན་ལ", "name:br": "Greunland", "name:bs": "Grenland", "name:ca": "Grenlàndia", "name:cs": "Grónsko", "name:cv": "Гренланди", "name:cy": "Yr Ynys Las", "name:da": "Grønland", "name:dv": "ގުރީންލޭންޑު", "name:el": "Γροιλανδία", "name:en": "Greenland", "name:eo": "Gronlando", "name:es": "Groenlandia", "name:et": "Gröönimaa", "name:eu": "Groenlandia", "name:fa": "گرینلند", "name:fi": "Grönlanti", "name:fo": "Grønland", "name:fr": "Groenland", "name:fy": "Grienlân", "name:ga": "An Ghraonlainn", "name:gd": "A' Ghraonlainn", "name:gl": "Groenlandia", "name:gn": "Kyoẽlándia", "name:gv": "Greenlynn", "name:he": "גרינלנד", "name:hi": "ग्रीनलैण्ड", "name:hr": "Grenland", "name:hu": "Grönland", "name:hy": "Գրենլանդիա", "name:ia": "Groenlandia", "name:id": "Greenland", "name:ie": "Grenland", "name:io": "Grenlando", "name:is": "Grænland", "name:it": "Groenlandia", "name:iu": "ᐊᑯᑭᑦᑐᑦ", "name:ja": "グリーンランド", "name:jv": "Greenland", "name:ka": "გრენლანდია", "name:kk": "Гренландия", "name:kl": "Kalaallit Nunaat", "name:kn": "ಗ್ರೀನ್‍ಲ್ಯಾಂಡ್", "name:ko": "그린란드", "name:ku": "Grînlenda", "name:kv": "Гренландия", "name:kw": "Greunland", "name:la": "Groenlandia", "name:lb": "Grönland", "name:li": "Greunland", "name:ln": "Groenlandi", "name:lt": "Grenlandija", "name:lv": "Grenlande", "name:mg": "Groenlanda", "name:mi": "Greenland", "name:mk": "Гренланд", "name:ml": "ഗ്രീൻലാൻഡ്", "name:mn": "Гренланд", "name:mr": "ग्रीनलँड", "name:ms": "Greenland", "name:my": "ဂရင်းလန်ကျွန်း", "name:ne": "ग्रीनल्याण्ड", "name:nl": "Groenland", "name:nn": "Grønland", "name:no": "Grønland", "name:nv": "Haʼaʼaahjí Hakʼaz Dineʼé Bikéyah", "name:oc": "Groenlàndia", "name:or": "ଗ୍ରୀନଲାଣ୍ଡ", "name:os": "Гренланди", "name:pa": "ਗਰੀਨਲੈਂਡ", "name:pl": "Grenlandia", "name:pt": "Gronelândia", "name:qu": "Kalalit Nunat", "name:ro": "Groenlanda", "name:ru": "Гренландия", "name:rw": "Goronulande", "name:se": "Kalaallit Nunaat", "name:sh": "Grenland", "name:sk": "Grónsko", "name:sl": "Grenlandija", "name:so": "Griinland", "name:sq": "Groenlanda", "name:sr": "Гренланд", "name:su": "Lemah Héjo", "name:sv": "Grönland", "name:sw": "Greenland", "name:ta": "கிறீன்லாந்து", "name:te": "గ్రీన్‌లాండ్", "name:tg": "Гренландия", "name:th": "กรีนแลนด์", "name:tl": "Lupanlunti", "name:tr": "Grönland", "name:tt": "Гренландия", "name:ug": "گرېنلاندىيە", "name:uk": "Ґренландія", "name:ur": "گرین لینڈ", "name:vi": "Greenland", "name:vo": "Gröneän", "name:wo": "Groenlaand", "name:yi": "גרינלאנד", "name:yo": "Grínlándì", "name:zh": "格陵兰", "name:als": "Grönland", "name:ang": "Grēneland", "name:arz": "جرينلاند", "name:ast": "Groenlandia", "name:bar": "Grönland", "name:bpy": "গ্রীনল্যান্ড", "name:chr": "ᎢᏤᎢᏳᏍᏗ ᎦᏙᎯ", "name:diq": "Gronlanda", "name:dsb": "Grönlandska", "name:ext": "Groenlándia", "name:frp": "Grônlande", "name:frr": "Greenlun", "name:hif": "Greenland", "name:hsb": "Grönlandska", "name:ilo": "Kalaallit Nunaat", "name:lij": "Gròenlandia", "name:lzh": "格陵蘭", "name:mhr": "Гренландий", "name:nah": "Groentlālpan", "name:nan": "Chheⁿ-tē", "name:nds": "Gröönland", "name:nov": "Verdi-lande", "name:pih": "Griinland", "name:pms": "Groenlandia", "name:pnb": "گرینلینڈ", "name:rue": "Ґронсько", "name:sah": "Гренландия", "name:scn": "Groenlannia", "name:sco": "Greenland", "name:stq": "Gräinlound", "name:szl": "Grynlandyjo", "name:tok": "ma Kalalinuna", "name:tpi": "Greenland", "name:tzl": "Päts-Virt", "name:vec": "Groenlandia", "name:war": "Greenland", "name:wuu": "格陵兰", "name:xal": "Гринлэндин Арл", "name:yue": "格陵蘭", "name:zea": "Hroenland", "name:pt-BR": "Groelândia", "population": "57564", "alt_name:ar": "جرينلاند", "alt_name:eo": "Grenlando", "alt_name:fa": "گروئنلند", "alt_name:pt": "Groenlândia", "name:nds-nl": "Gruunlaand", "name:bat-smg": "Grenlandėjė", "name:be-tarask": "Грэнляндыя", "default_language": "kl"}}, "center_lat": 74.75, "center_lon": -41.29, "area_m2": 2153468911327, "timezone": "America/Nuuk", "population": 56081, "wikidata_id": "Q223", "wikipedia_id": "en:Greenland"}}