{"type": "Feature", "geometry": {"type": "Polygon", "coordinates": [[[-37.999, -54.014], [-36.992, -54.055], [-36.263, -54.293], [-35.82, -54.798], [-36.128, -54.852], [-36.463, -54.533], [-37.999, -54.014]]]}, "properties": {"name": "South Georgia and the South Sandwich Islands", "iso1": "GS", "admin_level": 2, "osm_id": 1983628, "countrylevel_id": "iso1:GS", "osm_data": {"localname": "South Georgia and South Sandwich Islands", "official_name": "", "alltags": {"flag": "http://upload.wikimedia.org/wikipedia/commons/e/ed/Flag_of_South_Georgia_and_the_South_Sandwich_Islands.svg", "name:az": "Cənubi Georgiya və Cənubi Sandviç adaları", "name:be": "Паўднёвая Джорджыя і Паўднёвыя Сандвічавы астравы", "name:bg": "Южна Джорджия и Южни Сандвичеви острови", "name:br": "Inizi Georgia ar Su hag Inizi Sandwich ar Su", "name:ca": "Illes Geòrgia del Sud i Sandwich del Sud", "name:cs": "Jižní Georgie a Jižní Sandwichovy ostrovy", "name:da": "South Georgia og South Sandwich Islands", "name:el": "Νήσοι Νότια Γεωργία και Νότιες Σάντουιτς", "name:en": "South Georgia and the South Sandwich Islands", "name:eo": "Sud-Georgio kaj Sud-Sandviĉinsuloj", "name:es": "Islas Georgias del Sur y Sandwich del Sur", "name:et": "Lõuna-Georgia ja Lõuna-Sandwichi saared", "name:fo": "Suðursandwichoyggjar og Suðurgeorgia", "name:fr": "Géorgie du Sud-et-les Îles Sandwich du Sud", "name:fy": "Súd-Georgje en de Súdlike Sandwicheilannen", "name:hi": "दक्षिण जॉर्जिया एवं दक्षिण सैंडविच द्वीप समूह", "name:hr": "Južna Georgija i Otočje Južni Sandwich", "name:it": "Georgia del Sud e Isole Sandwich Australi", "name:ja": "サウスジョージア・サウスサンドウィッチ諸島", "name:mk": "Јужна Џорџија и Јужни Сендвички Острови", "name:nl": "Zuid-Georgia en de Zuidelijke Sandwicheilanden", "name:nn": "Sør-Georgia og Sør-Sandwichøyane", "name:ru": "Южная Георгия и Южные Сандвичевы Острова", "name:sk": "Južná Georgia a Južné Sandwichove ostrovy", "name:sr": "Јужна Џорџија и Јужна Сендвичка Острва", "name:ta": "தெற்கு யோர்சியா மற்றும் தெற்கு சண்ட்விச் தீவுகள்", "name:tr": "Güney Georgia ve Güney Sandwich Adaları", "name:uk": "Південна Джорджія та Південні Сандвічеві острови", "name:zh": "南喬治亞和南桑威奇群島", "is_in:continent": "South America", "default_language": "en"}}, "center_lat": -54.72, "center_lon": -35.81, "area_m2": 3826552729, "timezone": "Atlantic/South_Georgia", "population": 30, "wikidata_id": "Q35086", "wikipedia_id": "en:South Georgia and the South Sandwich Islands"}}