{"type": "Feature", "geometry": {"type": "Polygon", "coordinates": [[[-157.483, 2.001], [-157.302, 1.965], [-157.329, 1.83], [-157.502, 1.859], [-157.483, 2.001]]]}, "properties": {"name": "Kiribati", "iso1": "KI", "admin_level": 2, "osm_id": 571178, "countrylevel_id": "iso1:KI", "osm_data": {"localname": "Kiribati", "official_name": "", "alltags": {"flag": "http://upload.wikimedia.org/wikipedia/commons/d/d3/Flag_of_Kiribati.svg", "name:cs": "Kiribati", "name:en": "Kiribati", "name:eo": "Kiribato", "name:fr": "Kiribati", "name:hr": "Kiribati", "name:lt": "Kiribatis", "name:oc": "Kiribati", "name:ru": "Кирибати", "name:sk": "Kiribati", "name:uk": "Кірибаті", "name:vo": "Kiribatuäns", "name:jbo": "kiribas", "driving_side": "left", "is_in:continent": "Oceania", "default_language": "en", "official_name:cs": "Republika Kiribati", "official_name:en": "Republic of Kiribati", "official_name:es": "República de Kiribati", "official_name:fr": "République de Kiribati", "official_name:pl": "Republika Kiribati", "official_name:ru": "Республика Кирибати"}}, "center_lat": 0.54, "center_lon": -39.85, "area_m2": 1093416109, "population": 116398, "wikidata_id": "Q710", "wikipedia_id": "en:Kiribati"}}