{"type": "Feature", "geometry": {"type": "MultiPolygon", "coordinates": [[[[-62.614, 17.196], [-62.588, 17.207], [-62.587, 17.206], [-62.584, 17.207], [-62.583, 17.207], [-62.581, 17.208], [-62.54, 17.142], [-62.577, 17.103], [-62.63, 17.134], [-62.629, 17.145], [-62.628, 17.151], [-62.629, 17.154], [-62.629, 17.156], [-62.629, 17.157], [-62.629, 17.163], [-62.628, 17.169], [-62.621, 17.183], [-62.621, 17.184], [-62.614, 17.196]]], [[[-62.681, 17.275], [-62.703, 17.284], [-62.704, 17.284], [-62.717, 17.294], [-62.718, 17.295], [-62.725, 17.293], [-62.726, 17.294], [-62.743, 17.291], [-62.747, 17.293], [-62.794, 17.311], [-62.812, 17.325], [-62.813, 17.326], [-62.843, 17.346], [-62.849, 17.358], [-62.85, 17.359], [-62.853, 17.362], [-62.862, 17.39], [-62.821, 17.417], [-62.765, 17.389], [-62.743, 17.377], [-62.741, 17.377], [-62.709, 17.34], [-62.692, 17.306], [-62.69, 17.303], [-62.688, 17.303], [-62.686, 17.302], [-62.683, 17.296], [-62.683, 17.292], [-62.683, 17.29], [-62.677, 17.283], [-62.677, 17.282], [-62.675, 17.279], [-62.674, 17.278], [-62.621, 17.24], [-62.658, 17.22], [-62.66, 17.26], [-62.682, 17.275], [-62.681, 17.275]]]]}, "properties": {"name": "Saint Kitts and Nevis", "iso1": "KN", "admin_level": 2, "osm_id": 536899, "countrylevel_id": "iso1:KN", "osm_data": {"localname": "Saint Kitts and Nevis", "official_name": "", "alltags": {"flag": "http://upload.wikimedia.org/wikipedia/commons/f/fe/Flag_of_Saint_Kitts_and_Nevis.svg", "name:br": "Saint Kitts-ha-Nevis", "name:cs": "Svatý Kryštof a Nevis", "name:el": "Άγιος Χριστόφορος και Νέβις", "name:en": "Saint Kitts and Nevis", "name:eo": "Sankta Kristoforo kaj Neviso", "name:es": "San Cristóbal y Nieves", "name:fr": "Saint-Christophe-et-Niévès", "name:hr": "Sveti Kristofor i Nevis", "name:hu": "Saint Kitts és Nevis", "name:ia": "Sancte Christophoro e Nevis", "name:io": "Santa Kitts e Nevis", "name:lt": "Sent Kitsas ir Nevis", "name:mk": "Свети Кристифер и Невис", "name:pl": "Saint Kitts i Nevis", "name:ru": "Сент-Китс и Невис", "name:ta": "செயிண்ட் கிட்சும் நெவிசும்", "name:uk": "Сент-Кіттс і Невіс", "name:vo": "Sankiteän e Neviseän", "name:jbo": "seint.kits.joik.nevis", "alt_name:eo": "Sankta-Kito kaj Neviso", "driving_side": "left", "is_in:continent": "North America", "default_language": "en", "official_name:cs": "Federace Svatý Kryštof a Nevis", "official_name:en": "Federation of Saint Kitts and Nevis", "official_name:es": "Federación de San Cristóbal y Nieves", "official_name:fr": "Fédération de Saint-Christophe-et-Niévès", "official_name:lt": "Sent Kristoferio ir Nevio Federacija"}}, "center_lat": 17.27, "center_lon": -62.7, "area_m2": 263738286, "timezone": "America/St_Kitts", "population": 55345, "wikidata_id": "Q763", "wikipedia_id": "en:Saint Kitts and Nevis"}}