{"type": "Feature", "geometry": {"type": "Polygon", "coordinates": [[[27.236, 48.373], [27.534, 48.47], [27.878, 48.385], [27.906, 48.354], [28.499, 48.115], [28.848, 48.079], [29.175, 47.994], [29.249, 47.751], [29.182, 47.449], [29.336, 47.377], [29.337, 47.37], [29.552, 47.251], [29.596, 46.964], [29.976, 46.755], [29.876, 46.547], [29.678, 46.361], [29.442, 46.493], [29.063, 46.513], [28.981, 46.489], [28.952, 46.259], [29.002, 46.232], [28.901, 45.99], [28.803, 45.975], [28.769, 45.885], [28.697, 45.818], [28.555, 45.736], [28.513, 45.719], [28.486, 45.66], [28.539, 45.596], [28.305, 45.547], [28.214, 45.467], [28.209, 45.467], [28.123, 46.105], [28.117, 46.112], [28.235, 46.39], [28.245, 46.637], [28.115, 46.847], [28.111, 46.923], [28.037, 47.029], [27.584, 47.376], [27.401, 47.585], [27.391, 47.589], [27.285, 47.757], [27.177, 47.944], [27.029, 48.136], [26.63, 48.26], [26.765, 48.354], [27.236, 48.373]]]}, "properties": {"name": "Moldova", "iso1": "MD", "admin_level": 2, "osm_id": 58974, "countrylevel_id": "iso1:MD", "osm_data": {"localname": "Moldova", "official_name": "Republica Moldova", "alltags": {"flag": "http://upload.wikimedia.org/wikipedia/commons/2/27/Flag_of_Moldova.svg", "int_ref": "MD", "name:ab": "Молдова", "name:af": "Moldowa", "name:am": "ሞልዶቫ", "name:an": "Moldavia", "name:ar": "مولدوفا", "name:az": "Moldova", "name:ba": "Молдова", "name:be": "Малдова", "name:bg": "Молдова", "name:bi": "Moldova", "name:bn": "মলদোভা", "name:bo": "མོལ་དོ་ཝ།", "name:br": "Moldova", "name:bs": "Moldavija", "name:ca": "Moldàvia", "name:ce": "Молдави", "name:co": "Moldavia", "name:cs": "Moldavsko", "name:cu": "Молдова", "name:cv": "Молдави", "name:cy": "Moldofa", "name:da": "Moldova", "name:dv": "މޮލްޑޯވާ", "name:ee": "Moldova", "name:el": "Μολδαβία", "name:en": "Moldova", "name:eo": "Moldavujo", "name:es": "Moldavia", "name:et": "Moldova", "name:eu": "Moldavia", "name:fa": "مولداوی", "name:fi": "Moldova", "name:fo": "Moldova", "name:fr": "Moldavie", "name:fy": "Moldaavje", "name:ga": "An Mholdóiv", "name:gd": "Moldàibhia", "name:gl": "Moldavia", "name:gu": "મોલ્દોવા", "name:gv": "Moldova", "name:he": "מולדובה", "name:hi": "मॉल्डोवा", "name:hr": "Moldova", "name:ht": "Moldavi", "name:hu": "Moldova", "name:hy": "Մոլդովա", "name:ia": "Moldova", "name:id": "Moldova", "name:ie": "Moldavia", "name:io": "Moldova", "name:is": "Moldóva", "name:it": "Moldavia", "name:ja": "モルドバ", "name:jv": "Moldova", "name:ka": "მოლდოვა", "name:kg": "Moldova", "name:kk": "Молдова", "name:kl": "Moldova", "name:kn": "ಮಾಲ್ಡೋವ", "name:ko": "몰도바", "name:ku": "Moldova", "name:kv": "Молдова", "name:kw": "Moldova", "name:ky": "Молдова", "name:la": "Moldavia", "name:lb": "Moldawien", "name:li": "Moldavië", "name:lt": "Moldavija", "name:lv": "Moldova", "name:mi": "Te Whenua o Morotawa", "name:mk": "Молдавија", "name:ml": "മൊൾഡോവ", "name:mn": "Молдав", "name:mo": "Молдова", "name:mr": "मोल्दोव्हा", "name:ms": "Moldova", "name:mt": "Moldova", "name:my": "မော်လ်ဒိုဗာနိုင်ငံ", "name:na": "Mordowa", "name:ne": "मोल्दोवा", "name:nl": "Moldavië", "name:nn": "Moldova", "name:no": "Moldova", "name:oc": "Moldàvia", "name:or": "ମାଲଡୋଭା", "name:os": "Молдави", "name:pa": "ਮੋਲਦੋਵਾ", "name:pl": "Mołdawia", "name:pt": "Moldávia", "name:qu": "Mulduwa", "name:ro": "Moldova", "name:ru": "Молдавия", "name:rw": "Molidova", "name:sa": "मोल्दोवा", "name:se": "Moldova", "name:sh": "Moldavija", "name:sk": "Moldavsko", "name:sl": "Moldavija", "name:so": "Moldofa", "name:sq": "Moldavia", "name:sr": "Молдавија", "name:ss": "IMolidiva", "name:st": "Moldova", "name:su": "Moldova", "name:sv": "Moldavien", "name:sw": "Moldova", "name:ta": "மல்தோவா", "name:te": "మోల్డోవా", "name:tg": "Молдова", "name:th": "ประเทศมอลโดวา", "name:tk": "Moldawiýa", "name:tl": "Moldavia", "name:tr": "Moldova", "name:tt": "Молдавия", "name:ug": "مولدوۋا", "name:uk": "Молдова", "name:ur": "مالدووا", "name:uz": "Moldova", "name:vi": "Moldova", "name:vo": "Moldovän", "name:wo": "Moldaawi", "name:yi": "מאלדאווע", "name:yo": "Móldófà", "name:zh": "摩尔多瓦", "currency": "MDL", "int_name": "Moldova", "name:ace": "Moldova", "name:als": "Moldawien", "name:ang": "Moldofa", "name:arc": "ܡܘܠܕܘܒܐ", "name:arz": "مولدوڤا", "name:ast": "Moldavia", "name:bar": "Moidowien", "name:bcl": "Moldoba", "name:bpy": "মোলদোভা", "name:bxr": "Молдав", "name:ceb": "Moldabya", "name:chr": "ᎼᎵᏙᏩ", "name:ckb": "مۆلدۆڤا", "name:csb": "Mòłdawskô", "name:diq": "Moldova", "name:dsb": "Moldawska", "name:ext": "Moldávia", "name:frp": "Moldavie", "name:frr": "Moldaawien", "name:gag": "Moldova", "name:haw": "Molodowa", "name:hif": "Moldova", "name:hsb": "Moldawska", "name:ilo": "Moldova", "name:jbo": "Moldovas", "name:kaa": "Moldaviya", "name:kbd": "Молдавиэ", "name:koi": "Молдова", "name:krc": "Молдавия", "name:lad": "Moldova", "name:lij": "Moldavia", "name:lmo": "Muldavia", "name:ltg": "Moldaveja", "name:mdf": "Молдова", "name:mhr": "Молдово", "name:nah": "Moldova", "name:nan": "Moldova", "name:nds": "Moldawien", "name:new": "मोल्दोवा", "name:nov": "Moldova", "name:pam": "Moldabya", "name:pcd": "Moldavie", "name:pih": "Moldoewa", "name:pms": "Moldavia", "name:pnb": "مولڈوا", "name:pnt": "Μολδαβία", "name:rue": "Молдавія", "name:sah": "Молдова", "name:scn": "Moldavia", "name:sco": "Moldovae", "name:stq": "Moldawien", "name:szl": "Mołdawijo", "name:tzl": "Moldova", "name:udm": "Молдавия", "name:vec": "Moldavia", "name:vep": "Moldov", "name:vls": "Moldavië", "name:war": "Moldavia", "name:wuu": "摩尔多瓦", "name:xal": "Молдавмудин Орн", "name:xmf": "მოლდოვა", "name:yue": "摩爾多瓦", "name:zea": "Moldâvië", "old_name": "Moldavia;Țara Moldovei;Principatul Moldovei;Gubernia Basarabiei;Republica Moldovenească;Republica Democratică Moldovenească;Republica Sovietică Socialistă Moldovenească;Republica Sovietică Socialistă Moldova", "population": "4128047", "short_name": "MD", "alt_name:en": "Moldavia", "alt_name:eo": "Moldavio", "alt_name:fr": "Moldova", "alt_name:gl": "Moldova", "border_type": "nation", "name:nds-nl": "Moldavië", "driving_side": "right", "name:bat-smg": "Moldavėjė", "name:cbk-zam": "Moldavia", "name:fiu-vro": "Moldova", "name:roa-rup": "Moldova", "name:roa-tara": "Moldavie", "official_name": "Republica Moldova", "name:be-tarask": "Малдова", "is_in:continent": "Europe", "default_language": "mo", "official_name:an": "Republica de Moldavia", "official_name:ca": "República de Moldàvia", "official_name:cs": "Moldavská republika", "official_name:de": "Republik Moldau", "official_name:en": "Republic of Moldova", "official_name:eo": "Moldava Respubliko", "official_name:es": "República de Moldovia", "official_name:fi": "Moldovan tasavalta", "official_name:fr": "République de Moldavie", "official_name:la": "Res publica Moldavica", "official_name:na": "Ripubrikin Mordowa", "official_name:ru": "Республика Молдова", "official_name:gag": "Moldova Republikası"}}, "center_lat": 47.2, "center_lon": 28.47, "area_m2": 33845362178, "timezone": "Europe/Chisinau", "population": 2550900, "wikidata_id": "Q217", "wikipedia_id": "en:Moldova"}}