{"type": "Feature", "geometry": {"type": "Polygon", "coordinates": [[[19.385, 42.079], [19.379, 42.065], [19.373, 41.849], [19.37, 41.849], [19.369, 41.848], [19.338, 41.867], [19.235, 41.907], [19.23, 41.911], [19.228, 41.912], [19.227, 41.913], [19.223, 41.915], [19.22, 41.917], [19.219, 41.917], [19.204, 41.924], [19.203, 41.924], [19.203, 41.923], [19.202, 41.923], [19.202, 41.922], [19.201, 41.922], [19.201, 41.923], [19.2, 41.923], [19.201, 41.924], [19.2, 41.924], [19.197, 41.927], [19.196, 41.927], [19.191, 41.929], [19.19, 41.929], [19.188, 41.928], [19.185, 41.929], [19.185, 41.932], [19.184, 41.931], [19.182, 41.931], [19.182, 41.932], [19.181, 41.934], [19.18, 41.934], [19.178, 41.934], [19.177, 41.935], [19.174, 41.937], [19.171, 41.936], [19.17, 41.937], [19.168, 41.939], [19.165, 41.94], [19.163, 41.94], [19.162, 41.942], [19.142, 41.991], [19.143, 41.991], [19.143, 41.992], [19.145, 41.993], [19.148, 41.993], [19.147, 42.028], [19.146, 42.028], [19.143, 42.04], [19.142, 42.042], [19.141, 42.043], [19.142, 42.044], [19.141, 42.044], [19.14, 42.045], [19.138, 42.047], [19.132, 42.049], [19.131, 42.049], [19.119, 42.056], [19.117, 42.057], [19.114, 42.058], [19.097, 42.069], [19.096, 42.07], [19.095, 42.071], [19.094, 42.071], [19.09, 42.095], [19.091, 42.095], [19.068, 42.122], [19.063, 42.123], [19.062, 42.123], [19.063, 42.128], [19.062, 42.129], [19.06, 42.134], [19.059, 42.135], [19.049, 42.138], [19.048, 42.138], [19.048, 42.137], [19.025, 42.14], [19.024, 42.141], [19.003, 42.15], [19.003, 42.151], [18.999, 42.161], [18.996, 42.161], [18.995, 42.16], [18.992, 42.16], [18.991, 42.159], [18.991, 42.16], [18.992, 42.161], [18.991, 42.162], [18.989, 42.164], [18.988, 42.164], [18.987, 42.163], [18.986, 42.162], [18.986, 42.163], [18.985, 42.163], [18.985, 42.164], [18.985, 42.165], [18.984, 42.165], [18.982, 42.166], [18.98, 42.167], [18.977, 42.168], [18.971, 42.187], [18.943, 42.203], [18.937, 42.206], [18.937, 42.205], [18.937, 42.206], [18.935, 42.206], [18.931, 42.207], [18.929, 42.207], [18.926, 42.209], [18.918, 42.213], [18.91, 42.219], [18.909, 42.219], [18.908, 42.219], [18.908, 42.22], [18.907, 42.22], [18.906, 42.221], [18.899, 42.234], [18.9, 42.237], [18.896, 42.247], [18.895, 42.247], [18.896, 42.247], [18.888, 42.271], [18.888, 42.273], [18.881, 42.276], [18.881, 42.277], [18.831, 42.275], [18.831, 42.274], [18.83, 42.274], [18.829, 42.274], [18.828, 42.274], [18.827, 42.274], [18.827, 42.275], [18.826, 42.275], [18.825, 42.276], [18.813, 42.284], [18.806, 42.284], [18.801, 42.281], [18.8, 42.28], [18.8, 42.279], [18.802, 42.278], [18.805, 42.273], [18.804, 42.273], [18.803, 42.273], [18.801, 42.274], [18.799, 42.275], [18.792, 42.279], [18.79, 42.28], [18.711, 42.331], [18.711, 42.332], [18.706, 42.355], [18.705, 42.356], [18.704, 42.356], [18.704, 42.357], [18.692, 42.369], [18.681, 42.384], [18.682, 42.384], [18.661, 42.386], [18.66, 42.385], [18.657, 42.385], [18.649, 42.363], [18.63, 42.362], [18.628, 42.363], [18.609, 42.367], [18.61, 42.368], [18.558, 42.405], [18.558, 42.407], [18.628, 42.417], [18.71, 42.406], [18.711, 42.406], [18.712, 42.406], [18.713, 42.406], [18.696, 42.429], [18.695, 42.43], [18.695, 42.431], [18.694, 42.431], [18.693, 42.477], [18.704, 42.473], [18.725, 42.469], [18.769, 42.422], [18.77, 42.422], [18.77, 42.423], [18.771, 42.422], [18.772, 42.422], [18.771, 42.422], [18.771, 42.423], [18.768, 42.427], [18.768, 42.428], [18.769, 42.429], [18.768, 42.429], [18.769, 42.429], [18.768, 42.429], [18.769, 42.429], [18.768, 42.429], [18.768, 42.43], [18.768, 42.431], [18.767, 42.431], [18.767, 42.432], [18.767, 42.433], [18.767, 42.434], [18.766, 42.435], [18.765, 42.436], [18.764, 42.436], [18.765, 42.437], [18.764, 42.438], [18.764, 42.439], [18.764, 42.438], [18.763, 42.439], [18.762, 42.442], [18.764, 42.443], [18.764, 42.444], [18.765, 42.445], [18.765, 42.45], [18.765, 42.451], [18.765, 42.454], [18.766, 42.455], [18.766, 42.456], [18.764, 42.464], [18.763, 42.466], [18.763, 42.467], [18.763, 42.468], [18.764, 42.47], [18.764, 42.472], [18.763, 42.473], [18.765, 42.473], [18.765, 42.475], [18.765, 42.476], [18.764, 42.476], [18.763, 42.478], [18.763, 42.479], [18.764, 42.48], [18.764, 42.482], [18.765, 42.484], [18.766, 42.485], [18.765, 42.485], [18.766, 42.486], [18.765, 42.486], [18.766, 42.486], [18.763, 42.49], [18.762, 42.49], [18.761, 42.49], [18.759, 42.49], [18.757, 42.49], [18.756, 42.49], [18.754, 42.49], [18.753, 42.49], [18.744, 42.486], [18.734, 42.484], [18.727, 42.484], [18.706, 42.484], [18.703, 42.485], [18.702, 42.485], [18.7, 42.485], [18.698, 42.486], [18.697, 42.487], [18.697, 42.488], [18.696, 42.488], [18.695, 42.488], [18.695, 42.489], [18.692, 42.498], [18.692, 42.502], [18.694, 42.503], [18.694, 42.505], [18.693, 42.506], [18.696, 42.508], [18.696, 42.51], [18.695, 42.511], [18.695, 42.512], [18.694, 42.514], [18.695, 42.513], [18.694, 42.515], [18.69, 42.517], [18.689, 42.517], [18.688, 42.517], [18.686, 42.516], [18.684, 42.515], [18.684, 42.514], [18.683, 42.514], [18.682, 42.514], [18.682, 42.513], [18.679, 42.51], [18.666, 42.503], [18.664, 42.502], [18.663, 42.501], [18.662, 42.501], [18.661, 42.5], [18.65, 42.489], [18.675, 42.484], [18.686, 42.478], [18.675, 42.467], [18.575, 42.448], [18.575, 42.449], [18.574, 42.449], [18.566, 42.453], [18.565, 42.453], [18.565, 42.454], [18.563, 42.454], [18.562, 42.454], [18.561, 42.454], [18.56, 42.454], [18.559, 42.454], [18.559, 42.453], [18.524, 42.42], [18.438, 42.556], [18.544, 42.573], [18.481, 42.753], [18.473, 42.757], [18.476, 42.77], [18.478, 42.772], [18.476, 42.772], [18.477, 42.775], [18.471, 42.778], [18.471, 42.787], [18.466, 42.791], [18.466, 42.813], [18.463, 42.817], [18.462, 42.82], [18.656, 43.102], [18.733, 43.281], [18.985, 43.263], [18.999, 43.254], [18.95, 43.504], [19.226, 43.528], [19.55, 43.245], [20.06, 43.008], [20.054, 43.005], [20.097, 42.971], [20.356, 42.832], [20.056, 42.778], [20.016, 42.71], [20.078, 42.556], [19.91, 42.507], [19.831, 42.466], [19.775, 42.592], [19.663, 42.629], [19.598, 42.529], [19.42, 42.33], [19.314, 42.251], [19.313, 42.25], [19.315, 42.247], [19.315, 42.244], [19.114, 42.294], [19.11, 42.295], [19.077, 42.307], [19.076, 42.305], [19.385, 42.079]]]}, "properties": {"name": "Montenegro", "iso1": "ME", "admin_level": 2, "osm_id": 53296, "countrylevel_id": "iso1:ME", "osm_data": {"localname": "Crna Gora / Црна Гора", "official_name": "Crna Gora", "alltags": {"flag": "http://upload.wikimedia.org/wikipedia/commons/6/64/Flag_of_Montenegro.svg", "name:af": "Montenegro", "name:am": "ሞንቴኔግሮ", "name:an": "Montenegro", "name:ar": "الجبل الأسود", "name:av": "Чеэраб Меэр", "name:az": "Monteneqro", "name:ba": "Черногория", "name:be": "Чарнагорыя", "name:bg": "Черна гора", "name:bi": "Montenegro", "name:bn": "মন্টিনিগ্রো", "name:bo": "མོན་ཊེནིག་རོ།", "name:br": "Montenegro", "name:bs": "Crna Gora", "name:ca": "Montenegro", "name:ce": "Iаьржалаьмни", "name:cs": "Černá Hora", "name:cu": "Чрьна Гора", "name:cv": "Черногори", "name:cy": "Montenegro", "name:da": "Montenegro", "name:dv": "މޮންޓެނީގުރޯ", "name:ee": "Montenegro", "name:el": "Μαυροβούνιο", "name:en": "Montenegro", "name:eo": "Montenegro", "name:es": "Montenegro", "name:et": "Montenegro", "name:eu": "Montenegro", "name:fa": "مونته‌نگرو", "name:fi": "Montenegro", "name:fo": "Montenegro", "name:fr": "Monténégro", "name:fy": "Montenegro", "name:ga": "Montainéagró", "name:gd": "Am Monadh Neagrach", "name:gl": "Montenegro", "name:gu": "મોન્ટેનીગ્રો", "name:gv": "Montenegro", "name:he": "מונטנגרו", "name:hr": "Crna Gora", "name:ht": "Montenegwo", "name:hu": "Montenegró", "name:hy": "Չեռնոգորիա", "name:ia": "Montenegro", "name:id": "Montenegro", "name:ie": "Montenegro", "name:io": "Montenegro", "name:is": "Svartfjallaland", "name:it": "Montenegro", "name:ja": "モンテネグロ", "name:jv": "Montenégro", "name:ka": "ჩერნოგორია", "name:kg": "Monte Negro", "name:kk": "Черногория", "name:kl": "Montenegro", "name:kn": "ಮಾಂಟೆನೆಗ್ರೊ", "name:ko": "몬테네그로", "name:ku": "Montenegro", "name:kv": "Черногория", "name:kw": "Montenegro", "name:ky": "Монтенегро", "name:la": "Mons Niger", "name:lb": "Montenegro", "name:li": "Montenegro", "name:ln": "Montenegro", "name:lt": "Juodkalnija", "name:lv": "Melnkalne", "name:mi": "Monotenīkoro", "name:mk": "Црна Гора", "name:ml": "മോണ്ടെനെഗ്രൊ", "name:mr": "माँटेनिग्रो", "name:ms": "Montenegro", "name:mt": "Montenegro", "name:my": "မွန်တီနီဂရိုးနိုင်ငံ", "name:na": "Montenegro", "name:ne": "मोन्टेनेग्रो", "name:nl": "Montenegro", "name:nn": "Montenegro", "name:no": "Montenegro", "name:nv": "Dziłizhin Bikéyah", "name:oc": "Montenegro", "name:or": "ମୋଣ୍ଟେନେଗ୍ରୋ", "name:os": "Черногори", "name:pa": "ਮੋਂਟੇਨੇਗਰੋ", "name:pl": "Czarnogóra", "name:ps": "مانتېنېګرو", "name:pt": "Montenegro", "name:qu": "Yanaurqu", "name:ro": "Muntenegru", "name:ru": "Черногория", "name:rw": "Montenegoro", "name:sc": "Montenegro", "name:se": "Montenegro", "name:sh": "Crna Gora", "name:sk": "Čierna Hora", "name:sl": "Črna gora", "name:sm": "Montenegro", "name:so": "Montenegro", "name:sq": "Mali i Zi", "name:sr": "Црна Гора", "name:ss": "IMonthenekho", "name:su": "Monténégro", "name:sv": "Montenegro", "name:sw": "Montenegro", "name:ta": "மொண்டெனேகுரோ", "name:tg": "Монтенегро", "name:th": "ประเทศมอนเตเนโกร", "name:tk": "Çernogoriýa", "name:tl": "Montenegro", "name:tr": "Karadağ", "name:tt": "Монтенегро", "name:ug": "چېرنوگورىيە", "name:uk": "Чорногорія", "name:ur": "مونٹینیگرو", "name:uz": "Chernogoriya", "name:vi": "Montenegro", "name:vo": "Montenegrän", "name:wo": "Montenegro", "name:yi": "מאנטענעגרא", "name:yo": "Montenẹ́grò", "name:zh": "蒙特內哥羅", "int_name": "Montenegro", "name:ace": "Monténègrô", "name:als": "Montenegro", "name:ang": "Sweartbeorg", "name:arc": "ܛܘܪܐ ܐܘܟܡܐ", "name:arz": "مونتينيجرو", "name:ast": "Montenegru", "name:bar": "Montenegro", "name:bcl": "Montenegro", "name:bpy": "মন্টিনিগ্রো", "name:bxr": "Монтенегро", "name:ceb": "Montenegro", "name:ckb": "مۆنتینیگرۆ", "name:crh": "Montenegro", "name:csb": "Czôrnogóra", "name:diq": "Montenegro", "name:dsb": "Carnogórska", "name:ext": "Montenegru", "name:frp": "Montènègro", "name:frr": "Montenegro", "name:gag": "Çernogoriya", "name:hak": "Mùng-thi̍t-nui-kô-lò", "name:haw": "Montenegero", "name:hif": "Montenegro", "name:hsb": "Čorna Hora", "name:ilo": "Montenegro", "name:jbo": "tsrnagoras", "name:kaa": "Shernogoriya", "name:kbd": "КъущхьэфӀыцӀэ", "name:koi": "Цӧрнагора", "name:krc": "Черногория", "name:lad": "Montenegro", "name:lij": "Monteneigro", "name:lmo": "Muntnegher", "name:ltg": "Malnkalneja", "name:mhr": "Шемкурык Эл", "name:nah": "Tlīltepēc", "name:nan": "O͘-soaⁿ Kiōng-hô-kok", "name:nap": "Montenegro", "name:nds": "Montenegro", "name:nov": "Montenegro", "name:nrm": "Crna Gora", "name:pap": "Montenegro", "name:pcd": "Noérmont", "name:pih": "Montiniegrow", "name:pms": "Montnèigr", "name:pnb": "مونٹی نیگرو", "name:pnt": "Μαυροβούνιον", "name:sah": "Монтенегро", "name:scn": "Montenegru", "name:sco": "Montenegro", "name:stq": "Montenegro", "name:szl": "Czorno Gůra", "name:tzl": "Muntnegreu", "name:vec": "Montenégro", "name:vep": "Mustmägi", "name:vls": "Montenegro", "name:war": "Montenegro", "name:wuu": "黑山共和国", "name:xal": "Хар Уулин Орн", "name:xmf": "ჩერნოგორია", "name:yue": "黑山", "name:zea": "Montenehro", "name:nds-nl": "Montenegro", "name:bat-smg": "Joudkalnėjė", "name:fiu-vro": "Montõnegro", "name:roa-rup": "Montenegro", "name:sr-Latn": "Crna Gora", "name:roa-tara": "Mondegnure", "official_name": "Crna Gora", "name:be-tarask": "Чарнагорыя", "is_in:continent": "Europe"}}, "center_lat": 42.8, "center_lon": 19.25, "area_m2": 13662675165, "timezone": "Europe/Podgorica", "population": 622359, "wikidata_id": "Q236", "wikipedia_id": "en:Montenegro"}}