{"type": "Feature", "geometry": {"type": "MultiPolygon", "coordinates": [[[[167.999, -47.117], [167.56, -47.091], [167.977, -46.724], [168.203, -46.989], [167.999, -47.117]]], [[[-176.658, -44], [-176.538, -43.943], [-176.328, -44.037], [-176.637, -44.118], [-176.658, -44]]], [[[171.12, -44.932], [171.117, -44.932], [171.117, -44.931], [171.118, -44.931], [171.12, -44.932]]], [[[170.898, -44.895], [170.899, -44.895], [170.9, -44.896], [170.901, -44.897], [170.903, -44.898], [170.91, -44.9], [170.971, -44.91], [170.972, -44.91], [170.973, -44.91], [170.97, -44.91], [170.969, -44.912], [170.977, -44.912], [170.988, -44.915], [170.989, -44.916], [171.068, -44.927], [171.071, -44.928], [171.098, -44.931], [171.141, -44.94], [171.144, -44.94], [170.919, -45.158], [170.831, -45.473], [170.65, -45.672], [170.739, -45.879], [170.295, -45.963], [170.17, -46.153], [169.789, -46.361], [169.592, -46.567], [169.279, -46.623], [168.266, -46.556], [168.092, -46.34], [167.828, -46.369], [167.536, -46.164], [167.217, -46.263], [166.657, -46.202], [166.433, -45.842], [166.731, -45.728], [166.669, -45.558], [166.807, -45.312], [167.271, -44.87], [167.782, -44.577], [168.053, -44.259], [168.388, -44.002], [168.813, -43.967], [169.21, -43.719], [169.671, -43.556], [170.26, -43.108], [170.855, -42.835], [171.158, -42.522], [171.453, -41.89], [171.846, -41.634], [172.088, -41.299], [172.11, -40.884], [172.218, -40.775], [172.631, -40.584], [172.735, -40.773], [173.012, -40.805], [173.087, -41.285], [173.199, -41.331], [173.206, -41.299], [173.594, -41.052], [174.2, -41.02], [174.03, -41.466], [174.275, -41.743], [174.05, -41.968], [173.938, -42.168], [173.509, -42.506], [173.32, -42.882], [172.729, -43.261], [172.716, -43.547], [173.109, -43.703], [173.102, -43.831], [172.287, -43.875], [171.427, -44.23], [171.171, -44.573], [171.153, -44.926], [170.898, -44.895]]], [[[176.333, -40.698], [175.959, -41.247], [175.323, -41.608], [175.217, -41.432], [174.66, -41.34], [175.135, -40.7], [175.225, -40.3], [175.163, -40.107], [174.785, -39.858], [174.558, -39.815], [173.779, -39.385], [173.792, -39.193], [174.2, -38.989], [174.439, -38.963], [174.615, -38.707], [174.691, -38.118], [174.842, -37.804], [174.66, -37.292], [174.478, -37.038], [174.443, -36.593], [174.341, -36.327], [174.481, -36.228], [174.052, -36.396], [173.817, -36.036], [173.056, -35.193], [173.085, -34.898], [172.658, -34.477], [172.968, -34.426], [173.121, -34.817], [173.292, -35.011], [173.55, -34.933], [173.84, -34.994], [174.38, -35.364], [174.511, -35.627], [174.479, -35.994], [174.617, -36.117], [174.835, -36.377], [174.702, -36.596], [174.775, -36.785], [175.291, -37.024], [175.489, -36.509], [175.816, -36.843], [175.941, -37.373], [175.949, -37.592], [177.109, -38.002], [177.533, -37.919], [177.724, -37.684], [178.085, -37.542], [178.55, -37.687], [178.411, -37.864], [178.281, -38.539], [177.944, -38.71], [177.899, -38.972], [177.049, -39.193], [176.9, -39.367], [177.016, -39.731], [176.874, -40.121], [176.623, -40.428], [176.333, -40.698]]]]}, "properties": {"name": "New Zealand", "iso1": "NZ", "admin_level": 2, "osm_id": 556706, "countrylevel_id": "iso1:NZ", "osm_data": {"localname": "New Zealand / Aotearoa", "official_name": "", "alltags": {"flag": "http://upload.wikimedia.org/wikipedia/commons/3/3e/Flag_of_New_Zealand.svg", "name:af": "Nieu-Seeland", "name:am": "ኒው ዚላንድ", "name:an": "Nueva Zelanda", "name:ar": "نيوزيلندا", "name:az": "Yeni Zelandiya", "name:ba": "Яңы Зеландия", "name:be": "Новая Зеландыя", "name:bg": "Нова Зеландия", "name:bi": "Niu Zilan", "name:bm": "New Zealand", "name:bn": "নিউজিল্যান্ড", "name:bo": "ནིའུ་ཛི་ལེན་ཌི།", "name:br": "Zeland-Nevez", "name:bs": "Novi Zeland", "name:ca": "Nova Zelanda", "name:cs": "Nový Zéland", "name:cv": "Çĕнĕ Зеланди", "name:cy": "Seland Newydd", "name:da": "New Zealand", "name:dv": "ނިއުޒިލޭންޑު", "name:dz": "ནིའུ་ཛི་ལེནཌ་", "name:el": "Νέα Ζηλανδία", "name:en": "New Zealand", "name:eo": "Nov-Zelando", "name:es": "Nueva Zelanda", "name:et": "Uus-Meremaa", "name:eu": "Zeelanda Berria", "name:fa": "نیوزیلند", "name:fi": "Uusi-Seelanti", "name:fo": "Nýsæland", "name:fr": "Nouvelle-Zélande", "name:fy": "Nij-Seelân", "name:ga": "An Nua-Shéalainn", "name:gd": "Sealainn Nuadh", "name:gl": "Nova Zelandia", "name:gv": "Yn Teelynn Noa", "name:he": "ניו זילנד", "name:hi": "न्यूज़ीलैण्ड", "name:hr": "Novi Zeland", "name:ht": "Nouvèl Zelann", "name:hu": "Új-Zéland", "name:hy": "Նոր Զելանդիա", "name:ia": "Nove Zelanda", "name:id": "Selandia Baru", "name:ie": "Nov-Zeland", "name:io": "Nova-Zelando", "name:is": "Nýja-Sjáland", "name:it": "Nuova Zelanda", "name:ja": "ニュージーランド", "name:jv": "Sélandia Anyar", "name:ka": "ახალი ზელანდია", "name:kk": "Жаңа Зеландия", "name:kl": "New Zealand", "name:km": "នូវែលសេឡង់", "name:kn": "ನ್ಯೂ ಜೀಲ್ಯಾಂಡ್", "name:ko": "뉴질랜드", "name:ku": "Nû Zelenda", "name:kv": "Выль Зеландия", "name:kw": "Mordir Nowydh", "name:la": "Nova Zelandia", "name:lb": "Neiséiland", "name:li": "Nui-Zieland", "name:lo": "ປະເທດນູແວນ ເຊລັງ", "name:lt": "Naujoji Zelandija", "name:lv": "Jaunzēlande", "name:mi": "Aotearoa", "name:mk": "Нов Зеланд", "name:ml": "ന്യൂസീലൻഡ്", "name:mn": "Шинэ Зеланд", "name:mr": "न्यू झीलँड", "name:ms": "New Zealand", "name:mt": "New Zealand", "name:my": "နယူးဇီလန်နိုင်ငံ", "name:na": "Niu Djiran", "name:ne": "न्यू जील्याण्ड", "name:nl": "Nieuw-Zeeland", "name:nn": "New Zealand", "name:no": "New Zealand", "name:oc": "Nòva Zelanda", "name:or": "ନିଉଜିଲ୍ୟାଣ୍ଡ", "name:os": "Ног Зеланди", "name:pa": "ਨਿਊਜ਼ੀਲੈਂਡ", "name:pl": "Nowa Zelandia", "name:pt": "Nova Zelândia", "name:qu": "Musuq Silanda", "name:rm": "Nova Zelanda", "name:ro": "Noua Zeelandă", "name:ru": "Новая Зеландия", "name:rw": "Nuveli Zelande", "name:sa": "न्यू-जीलैंड", "name:se": "Ođđa-Selánda", "name:sh": "Novi Zeland", "name:sk": "Nový Zéland", "name:sl": "Nova Zelandija", "name:sm": "Niu Sila", "name:so": "New Zealand", "name:sq": "Zelanda e Re", "name:sr": "Нови Зеланд", "name:su": "Selandia Anyar", "name:sv": "Nya Zeeland", "name:sw": "New Zealand", "name:ta": "நியூசிலாந்து", "name:te": "న్యూజీలాండ్", "name:tg": "Зеландияи Нав", "name:th": "ประเทศนิวซีแลนด์", "name:tk": "Täze Zelandiýa", "name:tl": "New Zealand", "name:tr": "Yeni Zelanda", "name:tt": "Яңа Зеландия", "name:ty": "Aotearoa", "name:ug": "يېڭى زېلاندىيە", "name:uk": "Нова Зеландія", "name:ur": "نیوزی لینڈ", "name:uz": "Yangi Zelandiya", "name:vi": "New Zealand", "name:vo": "Nula-Seleäns", "name:wa": "Nouve Zelande", "name:wo": "Seland-Gu-Bees", "name:yi": "ניו זילאנד", "name:yo": "New Zealand", "name:za": "Saen Saelanz", "name:zh": "新西兰", "name:zu": "INyuzilandi", "website": "https://www.govt.nz/", "name:ace": "Seulandia Barô", "name:als": "Neuseeland", "name:ang": "Nīwe Sǣland", "name:arc": "ܢܝܘ ܙܝܠܢܕ", "name:arz": "نيوزيلاندا", "name:ast": "Nueva Zelanda", "name:bar": "Neiseeland", "name:bcl": "Nueva Zelanda", "name:bpy": "নিউজিল্যান্ড", "name:bxr": "Шэнэ Зеланд", "name:cdo": "Sĭng-să̤-làng", "name:ceb": "New Zealand", "name:ckb": "نیوزیلاند", "name:crh": "Yañı Zelandiya", "name:csb": "Nowô Zelandzkô", "name:diq": "Zelandaya Newiye", "name:dsb": "Nowoseelandska", "name:ext": "Nueva Zelanda", "name:frp": "Novèla-Zèlande", "name:frr": "Nei-Sialun", "name:gag": "Eni Zelandiya", "name:hak": "Néu Sî-làn", "name:hif": "New Zealand", "name:hsb": "Nowoseelandska", "name:ilo": "Baro a Selanda", "name:jbo": "zis. poi cnino", "name:kbd": "Зелэнд ЩӀэ", "name:krc": "Джангы Зеландия", "name:lad": "Mueva Zelanda", "name:lez": "ЦӀийи Зеландия", "name:lij": "Neuva Selanda", "name:lmo": "Növa Zelanda", "name:lzh": "紐西蘭", "name:mrj": "У Зеланди", "name:nah": "Yancuīc Zetlālpan", "name:nan": "Sin Jia̍t-lân-jia", "name:nds": "Niegseeland", "name:new": "न्यु जिल्यान्द", "name:nrm": "Nouvelle Zélande", "name:pam": "New Zealand", "name:pih": "Nyuu Ziilan", "name:pms": "Neuva Zelanda", "name:pnb": "نیوزی لینڈ", "name:pnt": "Νέα Ζηλανδία", "name:rue": "Новый Зеланд", "name:sah": "Саҥа Зеландия", "name:scn": "Nova Zilanna", "name:sco": "New Zealand", "name:szl": "Nowo Zylandyjo", "name:tok": "ma Nusilan", "name:tpi": "Niu Silan", "name:tzl": "Noveu Zaiphäts", "name:vec": "Nova Zełanda", "name:vep": "Uz' Zelandii", "name:vls": "Nieuw-Zêeland", "name:war": "New Zealand", "name:wuu": "新西兰", "name:xal": "Шинзелендин Орн", "name:xmf": "ახალი ზელანდია", "name:yue": "紐西蘭", "name:zea": "Nieuw-Zeêland", "population": "4509900", "name:nds-nl": "Ni'j-Zeelaand", "name:simple": "New Zealand", "driving_side": "left", "name:bat-smg": "Naujuojė Zelandėjė", "name:fiu-vro": "Vahtsõnõ Meremaa", "name:roa-rup": "Naua Zeelanda", "name:roa-tara": "Nuève Zelanne", "name:be-tarask": "Новая Зэляндыя", "is_in:continent": "Oceania", "website:tourism": "http://www.newzealand.com"}}, "center_lat": -41.8, "center_lon": 171.51, "area_m2": 268117155083, "timezone": "Pacific/Auckland", "population": 4942500, "wikidata_id": "Q664", "wikipedia_id": "en:New Zealand"}}