{"type": "Feature", "geometry": {"type": "Polygon", "coordinates": [[[51.301, 24.505], [50.928, 24.547], [50.812, 24.744], [50.829, 24.75], [50.83, 24.75], [50.829, 24.937], [50.828, 24.938], [50.773, 25.13], [50.76, 25.457], [50.828, 25.464], [50.829, 25.464], [50.828, 25.462], [50.829, 25.462], [50.849, 25.466], [50.829, 25.519], [50.829, 25.52], [50.829, 25.544], [50.829, 25.545], [50.829, 25.588], [50.97, 25.602], [50.969, 25.607], [50.904, 25.73], [50.909, 25.756], [50.981, 25.825], [51.067, 26.055], [51.199, 26.14], [51.4, 26.003], [51.4, 25.996], [51.413, 25.96], [51.573, 25.892], [51.563, 25.891], [51.565, 25.891], [51.573, 25.891], [51.575, 25.891], [51.565, 25.891], [51.563, 25.89], [51.575, 25.89], [51.568, 25.774], [51.571, 25.774], [51.57, 25.769], [51.569, 25.769], [51.569, 25.727], [51.569, 25.679], [51.569, 25.68], [51.512, 25.607], [51.509, 25.606], [51.49, 25.55], [51.532, 25.387], [51.542, 25.385], [51.528, 25.381], [51.52, 25.308], [51.558, 25.309], [51.561, 25.303], [51.569, 25.295], [51.569, 25.296], [51.609, 25.302], [51.601, 25.234], [51.612, 25.159], [51.612, 25.158], [51.568, 24.918], [51.57, 24.919], [51.568, 24.917], [51.573, 24.913], [51.573, 24.912], [51.568, 24.917], [51.482, 24.761], [51.384, 24.633], [51.384, 24.631], [51.384, 24.628], [51.344, 24.562], [51.344, 24.561], [51.336, 24.56], [51.337, 24.561], [51.301, 24.505]]]}, "properties": {"name": "Qatar", "iso1": "QA", "admin_level": 2, "osm_id": 305095, "countrylevel_id": "iso1:QA", "osm_data": {"localname": "‏قطر", "official_name": "", "alltags": {"flag": "http://upload.wikimedia.org/wikipedia/commons/6/65/Flag_of_Qatar.svg", "capital": "Doha", "name:af": "Katar", "name:am": "ቃጣር", "name:an": "Qatar", "name:ar": "‏قطر", "name:as": "কাটাৰ", "name:az": "Qətər", "name:be": "Катар", "name:bg": "Катар", "name:bn": "কাতার", "name:bo": "ཁ་ཏར།", "name:br": "Katar", "name:bs": "Katar", "name:ca": "Qatar", "name:ce": "Катар", "name:cs": "Katar", "name:cv": "Катар", "name:cy": "Qatar", "name:da": "Qatar", "name:dv": "ޤަޠަރު", "name:dz": "ཀ་ཏར་", "name:ee": "Qatar", "name:el": "Κατάρ", "name:en": "Qatar", "name:eo": "Kataro", "name:es": "Catar", "name:et": "Katar", "name:eu": "Qatar", "name:fa": "قطر", "name:fi": "Qatar", "name:fo": "Katar", "name:fr": "Qatar", "name:fy": "Katar", "name:ga": "Catar", "name:gd": "Catar", "name:gl": "Qatar - قطر", "name:gu": "કતાર (અરબસ્તાન)", "name:gv": "Yn Chatar", "name:he": "קטאר", "name:hi": "क़तर", "name:hr": "Katar", "name:ht": "Katar", "name:hu": "Katar", "name:hy": "Քաթար", "name:id": "Qatar", "name:ie": "Katar", "name:io": "Katar", "name:is": "Katar", "name:it": "Qatar", "name:ja": "カタール", "name:jv": "Qatar", "name:ka": "კატარი", "name:kk": "Катар", "name:kl": "Qatar", "name:kn": "ಕಟಾರ್", "name:ko": "카타르", "name:ku": "Qeter", "name:kv": "Катар", "name:kw": "Katar", "name:la": "Quataria", "name:lb": "Katar", "name:li": "Katar", "name:ln": "Katar", "name:lt": "Kataras", "name:lv": "Katara", "name:mi": "Katā", "name:mk": "Катар", "name:ml": "ഖത്തർ", "name:mn": "Катар", "name:mr": "कतार", "name:ms": "Qatar", "name:mt": "Qatar", "name:my": "ကာတာနိုင်ငံ", "name:na": "Qatar", "name:nl": "Qatar", "name:nn": "Qatar", "name:no": "Qatar", "name:nv": "Kʼatár", "name:oc": "Qatar", "name:or": "କତର", "name:os": "Катар", "name:pa": "ਕਤਰ", "name:pl": "Katar", "name:ps": "قطر", "name:pt": "Catar", "name:qu": "Qatar", "name:ro": "Qatar", "name:ru": "Катар", "name:rw": "Katari", "name:sa": "कतार", "name:se": "Qatar", "name:sk": "Katar (štát)", "name:sl": "Katar", "name:so": "Qatar", "name:sq": "Katari", "name:sr": "Катар", "name:ss": "IKhathari", "name:su": "Qatar", "name:sv": "Qatar", "name:sw": "Qatar", "name:ta": "கத்தார்", "name:te": "కతర్", "name:tg": "Қатар", "name:th": "ประเทศกาตาร์", "name:tk": "Katar", "name:tl": "Katar", "name:tr": "Katar", "name:tt": "Катар", "name:ug": "قاتار", "name:uk": "Катар", "name:ur": "قطر", "name:uz": "Qatar", "name:vi": "Qatar", "name:vo": "Katarän", "name:wo": "Kataar", "name:yi": "קאטאר", "name:yo": "Katar", "name:zh": "卡塔尔", "name:tzl": "Qatar", "state_code": "QA", "border_type": "nation", "is_in:continent": "Asia", "default_language": "ar", "official_name:cs": "Stát Katar", "official_name:en": "State of Qatar", "official_name:es": "Estado de Catar", "official_name:ru": "Государство Катар"}}, "center_lat": 25.29, "center_lon": 51.19, "area_m2": 11610171348, "timezone": "Asia/Qatar", "population": 2639211, "wikidata_id": "Q846", "wikipedia_id": "ar:قطر"}}