{"type": "Feature", "geometry": {"type": "Polygon", "coordinates": [[[-72.308, 21.756], [-72.351, 21.798], [-72.328, 21.862], [-72.257, 21.791], [-72.308, 21.756]]]}, "properties": {"name": "Turks and Caicos Islands", "iso1": "TC", "admin_level": 2, "osm_id": 547479, "countrylevel_id": "iso1:TC", "osm_data": {"localname": "Turks and Caicos Islands", "official_name": "", "alltags": {"flag": "http://upload.wikimedia.org/wikipedia/commons/a/a0/Flag_of_the_Turks_and_Caicos_Islands.svg", "name:cs": "Turks a Caicos", "name:en": "Turks and Caicos Islands", "name:eo": "Turkoj kaj Kajkoj", "name:fr": "Îles Turques-et-Caïques", "name:hr": "Otočje Turks i Caicos", "name:lt": "Terksas ir Kaikosas", "name:ru": "Тёркс и Кайкос", "name:sk": "Turks a Caicos", "name:sr": "Туркс и Кајкос", "name:uk": "Острови Теркс і Кайкос", "description": "british overseas territory", "is_in:continent": "North America", "default_language": "en", "official_name:cs": "Ostrovy Turks a Caicos"}}, "center_lat": 21.77, "center_lon": -71.88, "area_m2": 566771544, "timezone": "America/Grand_Turk", "population": 33098, "wikidata_id": "Q18221", "wikipedia_id": "en:Turks and Caicos Islands"}}