{"type": "Feature", "geometry": {"type": "MultiPolygon", "coordinates": [[[[-61.164, 10.077], [-61.165, 10.077], [-61.183, 10.077], [-61.385, 10.07], [-61.42, 10.075], [-61.508, 10.073], [-61.548, 10.073], [-61.708, 10.162], [-61.676, 10.189], [-61.675, 10.189], [-61.644, 10.206], [-61.638, 10.242], [-61.637, 10.243], [-61.599, 10.243], [-61.59, 10.241], [-61.524, 10.234], [-61.509, 10.243], [-61.502, 10.246], [-61.465, 10.309], [-61.468, 10.523], [-61.464, 10.538], [-61.497, 10.635], [-61.509, 10.644], [-61.541, 10.672], [-61.558, 10.674], [-61.56, 10.673], [-61.606, 10.69], [-61.666, 10.694], [-61.616, 10.744], [-61.548, 10.747], [-61.547, 10.747], [-61.49, 10.755], [-61.484, 10.754], [-61.452, 10.766], [-61.452, 10.767], [-61.443, 10.762], [-61.441, 10.76], [-61.436, 10.758], [-61.435, 10.758], [-61.356, 10.812], [-61.356, 10.813], [-61.292, 10.798], [-61.292, 10.797], [-61.177, 10.808], [-61.037, 10.84], [-60.973, 10.835], [-60.971, 10.744], [-61.019, 10.706], [-61.037, 10.688], [-61.037, 10.66], [-61.037, 10.659], [-61.034, 10.645], [-61.034, 10.643], [-61.033, 10.438], [-60.998, 10.161], [-61.164, 10.077]]], [[[-60.84, 11.157], [-60.841, 11.17], [-60.84, 11.171], [-60.807, 11.18], [-60.807, 11.181], [-60.764, 11.231], [-60.753, 11.24], [-60.753, 11.241], [-60.682, 11.291], [-60.65, 11.3], [-60.65, 11.301], [-60.6, 11.322], [-60.599, 11.322], [-60.557, 11.32], [-60.555, 11.32], [-60.552, 11.32], [-60.549, 11.324], [-60.519, 11.32], [-60.532, 11.293], [-60.591, 11.241], [-60.591, 11.24], [-60.736, 11.182], [-60.737, 11.182], [-60.739, 11.182], [-60.74, 11.182], [-60.74, 11.181], [-60.741, 11.181], [-60.762, 11.166], [-60.764, 11.165], [-60.84, 11.157]]]]}, "properties": {"name": "Trinidad and Tobago", "iso1": "TT", "admin_level": 2, "osm_id": 555717, "countrylevel_id": "iso1:TT", "osm_data": {"localname": "Trinidad and Tobago", "official_name": "", "alltags": {"flag": "http://upload.wikimedia.org/wikipedia/commons/6/64/Flag_of_Trinidad_and_Tobago.svg", "name:br": "Trinidad-ha-Tobago", "name:cs": "Trinidad a Tobago", "name:en": "Trinidad and Tobago", "name:eo": "Trinidado kaj Tobago", "name:es": "Trinidad y Tobago", "name:fr": "Trinité-et-Tobago", "name:fy": "Trinidad en Tobago", "name:hr": "Trinidad i Tobago", "name:lt": "Trinidadas ir Tobagas", "name:nl": "Trinidad en Tobago", "name:pl": "Trynidad i Tobago", "name:pt": "Trindade e Tobago", "name:ru": "Тринидад и Тобаго", "name:sk": "Trinidad a Tobago", "name:ta": "டிரினிடாட் மற்றும் டொபாகோ", "name:uk": "Тринідад і Тобаго", "name:vo": "Trinidadeän e Tobageäns", "name:tzl": "Þriadia-es-Tobago", "driving_side": "left", "is_in:continent": "North America", "default_language": "en", "official_name:cs": "Republika Trinidad a Tobago", "official_name:en": "Republic of Trinidad and Tobago", "official_name:es": "República de Trinidad y Tobago", "official_name:fr": "République de Trinité-et-Tobago", "official_name:lt": "Trinidado ir Tobago Respublika", "official_name:ru": "Республика Тринидад и Тобаго"}}, "center_lat": 10.47, "center_lon": -61.26, "area_m2": 5168830227, "timezone": "America/Port_of_Spain", "population": 1369125, "wikidata_id": "Q754", "wikipedia_id": "en:Trinidad and Tobago"}}