{"type": "Feature", "geometry": {"type": "MultiPolygon", "coordinates": [[[[179.469, -10.788], [179.473, -10.786], [179.477, -10.787], [179.478, -10.789], [179.477, -10.791], [179.474, -10.791], [179.472, -10.791], [179.469, -10.789], [179.469, -10.788]]], [[[179.811, -9.368], [179.81, -9.371], [179.809, -9.375], [179.812, -9.377], [179.811, -9.38], [179.809, -9.378], [179.809, -9.375], [179.807, -9.373], [179.808, -9.369], [179.811, -9.368]]], [[[179.826, -9.349], [179.826, -9.347], [179.831, -9.348], [179.835, -9.349], [179.838, -9.351], [179.84, -9.353], [179.841, -9.358], [179.841, -9.363], [179.84, -9.363], [179.84, -9.356], [179.838, -9.351], [179.834, -9.35], [179.83, -9.349], [179.826, -9.349]]], [[[179.856, -9.433], [179.855, -9.431], [179.858, -9.431], [179.86, -9.432], [179.858, -9.434], [179.856, -9.433]]], [[[179.864, -9.43], [179.864, -9.429], [179.867, -9.427], [179.87, -9.416], [179.87, -9.413], [179.869, -9.406], [179.868, -9.403], [179.866, -9.4], [179.866, -9.395], [179.87, -9.403], [179.871, -9.407], [179.871, -9.414], [179.87, -9.42], [179.867, -9.431], [179.864, -9.43]]], [[[179.075, -8.633], [179.075, -8.636], [179.076, -8.64], [179.074, -8.641], [179.073, -8.638], [179.075, -8.633]]], [[[179.099, -8.632], [179.101, -8.634], [179.099, -8.635], [179.099, -8.632]]], [[[179.1, -8.598], [179.101, -8.606], [179.101, -8.608], [179.097, -8.613], [179.097, -8.616], [179.097, -8.618], [179.099, -8.622], [179.102, -8.628], [179.103, -8.631], [179.1, -8.63], [179.1, -8.628], [179.099, -8.626], [179.096, -8.62], [179.096, -8.616], [179.097, -8.612], [179.1, -8.607], [179.099, -8.6], [179.1, -8.598]]], [[[179.118, -8.429], [179.121, -8.427], [179.123, -8.429], [179.118, -8.429]]], [[[178.331, -8.039], [178.328, -8.041], [178.326, -8.041], [178.326, -8.038], [178.331, -8.04], [178.331, -8.039]]], [[[178.311, -8.027], [178.31, -8.029], [178.31, -8.031], [178.312, -8.031], [178.313, -8.034], [178.311, -8.035], [178.307, -8.033], [178.306, -8.031], [178.306, -8.029], [178.309, -8.026], [178.311, -8.027]]], [[[178.314, -8.025], [178.317, -8.03], [178.315, -8.031], [178.315, -8.029], [178.313, -8.03], [178.311, -8.028], [178.311, -8.027], [178.314, -8.025]]], [[[178.396, -8.024], [178.394, -8.027], [178.39, -8.033], [178.387, -8.036], [178.386, -8.039], [178.386, -8.046], [178.385, -8.05], [178.381, -8.054], [178.38, -8.058], [178.38, -8.061], [178.381, -8.068], [178.38, -8.072], [178.378, -8.074], [178.376, -8.073], [178.374, -8.07], [178.375, -8.069], [178.374, -8.066], [178.372, -8.064], [178.375, -8.063], [178.379, -8.06], [178.38, -8.054], [178.385, -8.046], [178.385, -8.041], [178.386, -8.037], [178.389, -8.033], [178.391, -8.029], [178.396, -8.024]]], [[[179.183, -8.537], [179.191, -8.529], [179.194, -8.525], [179.196, -8.52], [179.198, -8.518], [179.199, -8.514], [179.198, -8.511], [179.195, -8.502], [179.192, -8.488], [179.192, -8.48], [179.191, -8.476], [179.19, -8.473], [179.186, -8.468], [179.184, -8.459], [179.179, -8.45], [179.18, -8.451], [179.184, -8.459], [179.187, -8.468], [179.191, -8.473], [179.193, -8.479], [179.193, -8.489], [179.196, -8.501], [179.199, -8.509], [179.203, -8.518], [179.203, -8.52], [179.202, -8.523], [179.19, -8.532], [179.186, -8.535], [179.183, -8.537]]], [[[179.08, -8.466], [179.078, -8.462], [179.081, -8.461], [179.081, -8.464], [179.08, -8.466]]], [[[178.428, -7.979], [178.429, -7.979], [178.431, -7.974], [178.432, -7.969], [178.432, -7.967], [178.431, -7.965], [178.43, -7.962], [178.433, -7.963], [178.436, -7.969], [178.437, -7.973], [178.436, -7.975], [178.434, -7.976], [178.431, -7.977], [178.43, -7.979], [178.428, -7.979]]], [[[178.411, -7.999], [178.412, -8.001], [178.409, -8.004], [178.408, -8.004], [178.411, -7.999]]], [[[178.383, -7.931], [178.384, -7.933], [178.379, -7.933], [178.378, -7.931], [178.378, -7.929], [178.381, -7.93], [178.383, -7.931]]], [[[177.145, -7.248], [177.144, -7.244], [177.147, -7.243], [177.147, -7.24], [177.149, -7.239], [177.151, -7.243], [177.151, -7.246], [177.154, -7.247], [177.158, -7.25], [177.163, -7.249], [177.162, -7.246], [177.163, -7.244], [177.164, -7.243], [177.166, -7.245], [177.164, -7.25], [177.16, -7.253], [177.158, -7.253], [177.153, -7.252], [177.148, -7.25], [177.145, -7.248]]], [[[177.165, -7.24], [177.162, -7.24], [177.162, -7.235], [177.162, -7.233], [177.165, -7.235], [177.166, -7.239], [177.165, -7.24]]], [[[177.15, -7.189], [177.149, -7.191], [177.152, -7.194], [177.15, -7.198], [177.15, -7.202], [177.147, -7.206], [177.146, -7.202], [177.144, -7.197], [177.145, -7.193], [177.147, -7.19], [177.15, -7.189]]], [[[176.321, -6.274], [176.324, -6.275], [176.327, -6.283], [176.326, -6.292], [176.323, -6.301], [176.322, -6.302], [176.319, -6.3], [176.316, -6.297], [176.314, -6.292], [176.313, -6.287], [176.316, -6.282], [176.319, -6.276], [176.321, -6.274]]], [[[177.338, -6.103], [177.344, -6.104], [177.35, -6.104], [177.352, -6.105], [177.353, -6.108], [177.353, -6.111], [177.351, -6.113], [177.341, -6.114], [177.338, -6.114], [177.332, -6.109], [177.331, -6.106], [177.331, -6.104], [177.334, -6.103], [177.338, -6.103]]], [[[176.069, -5.644], [176.071, -5.645], [176.077, -5.649], [176.078, -5.653], [176.072, -5.652], [176.064, -5.649], [176.06, -5.647], [176.059, -5.644], [176.059, -5.643], [176.065, -5.643], [176.069, -5.644]]], [[[176.122, -5.683], [176.118, -5.678], [176.115, -5.676], [176.11, -5.67], [176.114, -5.671], [176.115, -5.673], [176.117, -5.674], [176.118, -5.677], [176.121, -5.679], [176.123, -5.682], [176.124, -5.682], [176.126, -5.679], [176.124, -5.675], [176.121, -5.671], [176.121, -5.668], [176.119, -5.663], [176.12, -5.662], [176.124, -5.666], [176.127, -5.673], [176.131, -5.684], [176.132, -5.691], [176.136, -5.7], [176.133, -5.698], [176.129, -5.692], [176.122, -5.683]]], [[[176.119, -5.663], [176.113, -5.661], [176.111, -5.66], [176.112, -5.658], [176.117, -5.661], [176.119, -5.663]]], [[[177.161, -7.213], [177.163, -7.212], [177.163, -7.215], [177.161, -7.217], [177.161, -7.213]]], [[[177.153, -7.198], [177.154, -7.197], [177.157, -7.199], [177.158, -7.203], [177.16, -7.203], [177.16, -7.207], [177.158, -7.209], [177.157, -7.205], [177.157, -7.203], [177.154, -7.203], [177.151, -7.201], [177.15, -7.198], [177.153, -7.198]]], [[[178.692, -7.495], [178.687, -7.499], [178.681, -7.498], [178.679, -7.494], [178.678, -7.489], [178.671, -7.477], [178.663, -7.464], [178.666, -7.465], [178.667, -7.464], [178.667, -7.462], [178.67, -7.46], [178.671, -7.462], [178.676, -7.468], [178.679, -7.469], [178.681, -7.472], [178.679, -7.475], [178.681, -7.477], [178.679, -7.48], [178.677, -7.481], [178.679, -7.484], [178.682, -7.491], [178.685, -7.49], [178.687, -7.487], [178.685, -7.482], [178.683, -7.482], [178.682, -7.48], [178.683, -7.478], [178.686, -7.48], [178.688, -7.478], [178.695, -7.484], [178.696, -7.489], [178.692, -7.495]]]]}, "properties": {"name": "Tuvalu", "iso1": "TV", "admin_level": 2, "osm_id": 2177266, "countrylevel_id": "iso1:TV", "osm_data": {"localname": "Tuvalu", "official_name": "", "alltags": {"url": "http://www.timelesstuvalu.com/", "flag": "http://upload.wikimedia.org/wikipedia/commons/3/38/Flag_of_Tuvalu.svg", "name:am": "ቱቫሉ", "name:ar": "توفالو", "name:be": "Тувалу", "name:bg": "Тувалу", "name:bn": "টুভালু", "name:bo": "ཐུ་ཝ་ལུ།", "name:br": "Tuvalu", "name:ca": "Tuvalu", "name:cs": "Tuvalu", "name:cy": "Twfalw", "name:da": "Tuvalu", "name:dz": "ཏུ་ཝ་ལུ", "name:ee": "Tuvalu nutome", "name:el": "Τουβαλού", "name:en": "Tuvalu", "name:eo": "Tuvalo", "name:es": "Tuvalu", "name:fa": "تووالو", "name:ff": "Tuwaluu", "name:fi": "Tuvalu", "name:fr": "Tuvalu", "name:fy": "Tûvalû", "name:ga": "Tuvalu", "name:gd": "Tubhalu", "name:gu": "તુવાલુ", "name:gv": "Tuvalu", "name:ha": "Tubalu", "name:he": "טובלו", "name:hi": "तुवालु", "name:hr": "Tuvalu", "name:hu": "Tuvalu", "name:hy": "Տուվալու", "name:is": "Túvalú", "name:ja": "ツバル", "name:ka": "ტუვალუ", "name:km": "ទូវ៉ាលូ", "name:kn": "ಟುವಾಲು", "name:ko": "투발루", "name:ks": "توٗوالوٗ", "name:ku": "Tûvalû", "name:lo": "ຕູວາລູ", "name:lt": "Tuvalu", "name:lv": "Tuvalu", "name:mg": "Tovalò", "name:mk": "Тувалу", "name:ml": "തുവാലു", "name:mn": "Тувалу", "name:mr": "टुवालु", "name:ne": "तुभालु", "name:no": "Tuvalu", "name:oc": "Tuvalu", "name:or": "ଟୁଭାଲୁ", "name:pl": "Tuvalu", "name:pt": "Tuvalu", "name:ru": "Тувалу", "name:sg": "Tüvalü", "name:si": "ටුවාලූ", "name:sk": "Tuvalu", "name:sr": "Тувалу", "name:sv": "Tuvalu", "name:ta": "துவாலூ", "name:te": "టువాలు", "name:th": "ประเทศตูวาลู", "name:ti": "ቱቫሉ", "name:to": "Tūvalu", "name:uk": "Тувалу", "name:ur": "ٹووالو", "name:vo": "Tuvaluäns", "name:yo": "Orílẹ́ède Tufalu", "name:zh": "吐瓦鲁", "name:zu": "i-Tuvalu", "int_name": "Tuvalu", "name:jbo": "tuvalus", "name:kab": "Ṭuvalu", "name:tzl": "Tuvalù", "old_name": "Ellice Islands", "population": "10000", "driving_side": "left", "default_language": "en", "country_code_fips": "TV"}}, "center_lat": -7.24, "center_lon": 177.78, "area_m2": 25251310, "timezone": "Pacific/Funafuti", "population": 11192, "wikidata_id": "Q672", "wikipedia_id": "de:Tuvalu"}}