{"type": "Feature", "geometry": {"type": "MultiPolygon", "coordinates": [[[[-61.401, 12.587], [-61.401, 12.588], [-61.399, 12.59], [-61.397, 12.589], [-61.395, 12.588], [-61.393, 12.587], [-61.392, 12.587], [-61.392, 12.586], [-61.395, 12.584], [-61.396, 12.583], [-61.401, 12.587]]], [[[-61.435, 12.591], [-61.434, 12.591], [-61.436, 12.593], [-61.437, 12.592], [-61.438, 12.59], [-61.439, 12.59], [-61.434, 12.606], [-61.427, 12.604], [-61.426, 12.605], [-61.416, 12.598], [-61.416, 12.597], [-61.417, 12.592], [-61.428, 12.592], [-61.431, 12.588], [-61.435, 12.587], [-61.434, 12.587], [-61.434, 12.59], [-61.435, 12.589], [-61.435, 12.591]]], [[[-61.246, 12.997], [-61.245, 12.998], [-61.237, 13.024], [-61.207, 13.031], [-61.219, 13], [-61.246, 12.997]]], [[[-61.143, 13.167], [-61.196, 13.131], [-61.216, 13.141], [-61.217, 13.141], [-61.237, 13.157], [-61.267, 13.192], [-61.272, 13.203], [-61.272, 13.253], [-61.273, 13.254], [-61.263, 13.274], [-61.176, 13.381], [-61.143, 13.167]]]]}, "properties": {"name": "Saint Vincent and the Grenadines", "iso1": "VC", "admin_level": 2, "osm_id": 550725, "countrylevel_id": "iso1:VC", "osm_data": {"localname": "Saint Vincent and the Grenadines", "official_name": "", "alltags": {"flag": "http://upload.wikimedia.org/wikipedia/commons/6/6d/Flag_of_Saint_Vincent_and_the_Grenadines.svg", "name:br": "Sant-Visant hag ar Grenadinez", "name:cs": "Svatý Vincent a Grenadiny", "name:el": "Άγιος Βικέντιος και Γρεναδίνες", "name:en": "Saint Vincent and the Grenadines", "name:eo": "Sankta Vincento kaj Grenadinoj", "name:fr": "Saint-Vincent-et-les Grenadines", "name:hr": "Sveti Vincent i Grenadini", "name:lt": "Sent Vinsentas ir Grenadinai", "name:nl": "Saint Vincent en de Grenadines", "name:pl": "Saint Vincent i Grenadyny", "name:ru": "Сент-Винсент и Гренадины", "name:sk": "Svätý Vincent a Grenadíny", "name:ta": "செயின்ட் வின்செண்டு மற்றும் கிரெனடீன்கள்", "name:uk": "Сент-Вінсент і Гренадини", "name:vo": "Saluda-Vinsenteän e Grenadineäns", "alt_name:cs": "Svatý Vincenc a Grenadiny", "driving_side": "left", "is_in:continent": "North America"}}, "center_lat": 13.2, "center_lon": -61.2, "area_m2": 391622739, "timezone": "America/St_Vincent", "population": 109897, "wikidata_id": "Q757", "wikipedia_id": "en:Saint Vincent and the Grenadines"}}