{"type": "Feature", "geometry": {"type": "Polygon", "coordinates": [[[25.593, 51.924], [25.571, 51.55], [26.068, 51.177], [26.107, 51.005], [25.824, 50.647], [25.475, 50.672], [25.15, 50.445], [25.113, 50.287], [24.767, 50.338], [24.516, 50.556], [24.098, 50.637], [23.998, 50.928], [23.636, 51.319], [23.618, 51.508], [23.995, 51.58], [24.389, 51.882], [24.934, 51.891], [25.264, 51.969], [25.593, 51.924]]]}, "properties": {"name": "Volyn Oblast", "iso2": "UA-07", "admin_level": 4, "osm_id": 71064, "countrylevel_id": "iso2:UA-07", "osm_data": {"localname": "Волинська область", "official_name": "", "alltags": {"flag": "http://upload.wikimedia.org/wikipedia/commons/5/52/Volyn_flag.svg", "koatuu": "0700000000", "ref:en": "VOL", "ref:ru": "ВОЛ", "name:ar": "فولين أوبلاست", "name:be": "Валынская вобласць", "name:bg": "Волинска област", "name:bs": "Volinjska oblast", "name:ca": "Província de Volínia", "name:cs": "Volyňská oblast", "name:cv": "Волынь облаçĕ", "name:en": "Volyn Oblast", "name:eo": "Volina provinco", "name:es": "Óblast de Volinia", "name:et": "Volõõnia oblast", "name:eu": "Voliniako oblasta", "name:fa": "استان ولین", "name:fi": "Volynian alue", "name:fr": "Oblast de Volhynie", "name:hr": "Volinjska oblast", "name:hu": "Volinyi terület", "name:hy": "Վոլինի մարզ", "name:id": "Oblast Volyn", "name:it": "Oblast' di Volinia", "name:ja": "ヴォルィーニ州", "name:ka": "ვოლინის ოლქი", "name:ko": "볼린 주", "name:lt": "Voluinės sritis", "name:lv": "Volīnijas apgabals", "name:mk": "Волинска област", "name:mr": "व्होलिन ओब्लास्त", "name:ms": "Oblast Volyn", "name:nl": "Oblast Wolynië", "name:nn": "Volyn oblast", "name:no": "Volyn oblast", "name:pl": "Obwód wołyński", "name:pt": "Oblast de Volínia", "name:ro": "Regiunea Volîn", "name:ru": "Волынская область", "name:sh": "Volinjska oblast", "name:sk": "Volynská oblasť", "name:sr": "Волињска област", "name:sv": "Volyn oblast", "name:tr": "Volın Oblastı", "name:uk": "Волинська область", "name:vi": "Volyn (tỉnh)", "name:yi": "וואהלינער גובערניע", "name:zh": "沃倫州", "name:crh": "Volın vilâyeti", "name:nan": "Volyn séng", "name:pnb": "ولین اوبلاست", "name:rue": "Волиньска область", "name:sco": "Volyn Oblast", "name:szl": "Wołyński uobwůd", "name:war": "Volyn Oblast", "name:xmf": "ვოლინიშ ოლქი", "is_in:country": "Ukraine", "name:be-tarask": "Валынская вобласьць", "is_in:continent": "Europe", "is_in:country_code": "UA"}}, "center_lat": 51.19, "center_lon": 24.87, "area_m2": 20121597180, "timezone": "Europe/Kiev", "population": 1038457, "wikidata_id": "Q167859", "wikipedia_id": "uk:Волинська область"}}