{"type": "Feature", "geometry": {"type": "Polygon", "coordinates": [[[23.547, 48.725], [23.566, 48.975], [23.764, 49.122], [24.235, 49.145], [24.401, 49.495], [24.721, 49.497], [24.857, 49.178], [25.137, 48.871], [25.367, 48.859], [25.628, 48.673], [25.621, 48.38], [25.312, 48.367], [24.912, 48.027], [24.922, 47.727], [24.563, 47.969], [24.488, 48.28], [23.98, 48.465], [23.547, 48.725]]]}, "properties": {"name": "Ivano-Frankivsk Oblast", "iso2": "UA-26", "admin_level": 4, "osm_id": 72488, "countrylevel_id": "iso2:UA-26", "osm_data": {"localname": "Івано-Франківська область", "official_name": "", "alltags": {"flag": "http://upload.wikimedia.org/wikipedia/commons/a/a2/Flag_of_Ivano-Frankivsk_Oblast.svg", "koatuu": "2600000000", "ref:en": "IVF", "ref:ru": "ИВФ", "name:ar": "إيفانو فرانكيفسك أوبلاست", "name:be": "Івана-Франкоўская вобласць", "name:bg": "Ивано-Франковска област", "name:ca": "Província d'Ivano-Frankivsk", "name:cs": "Ivanofrankivská oblast", "name:en": "Ivano-Frankivsk Oblast", "name:eo": "Ivano-Frankivska provinco", "name:es": "Óblast de Ivano-Frankivsk", "name:et": "Ivano-Frankivski oblast", "name:eu": "Ivano-Frankivskeko oblasta", "name:fa": "استان ایوانو فرانکیسوک", "name:fi": "Ivano-Frankivskin alue", "name:fr": "Oblast d'Ivano-Frankivsk", "name:hr": "Ivano-Frankivska oblast", "name:hu": "Ivano-frankivszki terület", "name:hy": "Իվանո-Ֆրանկովսկի մարզ", "name:id": "Oblast Ivano-Frankivsk", "name:it": "Oblast' di Ivano-Frankivs'k", "name:ja": "イヴァーノ＝フランキーウシク州", "name:ka": "ივანო-ფრანკოვსკის ოლქი", "name:ko": "이바노프란키우시크 주", "name:lt": "Ivano Frankivsko sritis", "name:lv": "Ivanofrankivskas apgabals", "name:mk": "Ивано-Франковска област", "name:mr": "इव्हानो-फ्रांकिव्ह्स्क ओब्लास्त", "name:nl": "Oblast Ivano-Frankivsk", "name:nn": "Ivano-Frankivsk oblast", "name:no": "Ivano-Frankivsk oblast", "name:pl": "Obwód iwanofrankiwski", "name:pt": "Oblast de Ivano-Frankivsk", "name:ro": "Regiunea Ivano-Frankivsk", "name:ru": "Ивано-Франковская область", "name:sh": "Ivano-Frankivska oblast", "name:sk": "Ivanofrankivská oblasť", "name:sv": "Ivano-Frankivsk oblast", "name:tr": "İvano-Frankivsk Oblastı", "name:uk": "Івано-Франківська область", "name:vi": "Ivano-Frankivsk (tỉnh)", "name:zh": "伊万诺-弗兰科夫斯克州", "name:crh": "İvano-Frankivsk vilâyeti", "name:nan": "Ivano-Frankivsk séng", "name:pnb": "ایوانو فرانکیوسک اوبلاست", "name:rue": "Івано-Франківска область", "name:sco": "Ivano-Frankivsk Oblast", "name:szl": "Iwanofrankiwski uobwůd", "name:war": "Ivano-Frankivsk Oblast", "name:be-tarask": "Івана-Франкоўская вобласьць"}}, "center_lat": 48.7, "center_lon": 24.62, "area_m2": 13907334140, "timezone": "Europe/Kiev", "population": 1377496, "wikidata_id": "Q178269", "wikipedia_id": "uk:Івано-Франківська область"}}