{"type": "Feature", "geometry": {"type": "Polygon", "coordinates": [[[33.762, 44.389], [33.827, 44.571], [33.567, 44.838], [33.602, 45.004], [32.97, 45.352], [32.652, 45.315], [32.5, 45.423], [32.9, 45.634], [33.678, 45.905], [33.615, 46.135], [33.759, 46.192], [34.036, 46.114], [34.037, 46.114], [34.474, 45.945], [34.775, 45.732], [34.967, 45.759], [34.975, 45.762], [35.39, 45.345], [35.825, 45.438], [36.53, 45.427], [36.444, 45.087], [35.841, 44.999], [35.618, 45.127], [35.158, 44.894], [34.457, 44.71], [34.128, 44.429], [33.762, 44.389]]]}, "properties": {"name": "Autonomous Republic of Crimea", "iso2": "UA-43", "admin_level": 4, "osm_id": 72639, "countrylevel_id": "iso2:UA-43", "osm_data": {"localname": "Автономна Республіка Крим", "official_name": "", "alltags": {"flag": "http://upload.wikimedia.org/wikipedia/commons/a/aa/Flag_of_Crimea.svg", "koatuu": "0100000000", "ref:en": "CRI", "ref:ru": "КРЫ", "ref:uk": "КРИ", "name:ar": "جمهورية القرم ذاتية الحكم", "name:az": "Krım Muxtar Respublikası", "name:ba": "Ҡырым Автономиялы Республикаһы", "name:be": "Аўтаномная Рэспубліка Крым", "name:ca": "República Autònoma de Crimea", "name:cs": "Autonomní republika Krym", "name:cu": "Кꙑрꙑмьска Аѵтономьна Димократїꙗ", "name:el": "Αυτόνομη Δημοκρατία της Κριμαίας", "name:en": "Autonomous Republic of Crimea", "name:eo": "Aŭtonoma Respubliko Krimeo", "name:es": "República Autónoma de Crimea", "name:fi": "Krimin autonominen tasavalta", "name:fr": "République Autonome de Crimée", "name:hu": "Krími Autonóm Köztársaság", "name:hy": "Ղրիմի Ինքնավար Հանրապետություն", "name:it": "Repubblica autonoma di Crimea", "name:ja": "クリミア自治共和国", "name:ko": "크림자치공화국", "name:lt": "Krymo autonominė respublika", "name:mk": "Автономна Република Крим", "name:nl": "Autonome Republiek van de Krim", "name:os": "Хъырымы Автономон Республикæ", "name:pl": "Republika Autonomiczna Krymu", "name:pt": "República Autônoma da Crimeia", "name:ru": "Автономная Республика Крым", "name:sk": "Krymská autonómna republika", "name:sv": "Autonoma republiken Krim", "name:tr": "Kırım Özerk Cumhuriyeti", "name:tt": "Кырым Автономияле Җөмһүрияте", "name:uk": "Автономна Республіка Крим", "name:vi": "Cộng hòa Tự trị Crưm", "name:zh": "克里米亚自治共和国", "name:crh": "Qırım Muhtar Cumhuriyeti", "name:szl": "Autōnōmicznŏ Republika Krymu", "alt_name:vi": "Cộng hoà Tự trị Crưm,Cộng hòa Tự trị Krym,Cộng hoà Tự trị Krym", "name:be-tarask": "Аўтаномная Рэспубліка Крым", "is_in:country_code": "UA"}}, "center_lat": 45.32, "center_lon": 34.35, "area_m2": 24963474093, "timezone": "Europe/Simferopol", "population": 1957801, "wikidata_id": "Q756294", "wikipedia_id": "uk:Автономна Республіка Крим"}}