{"type": "Feature", "geometry": {"type": "Polygon", "coordinates": [[[33.429, 52.346], [33.785, 52.367], [34.386, 51.843], [34.13, 51.689], [34.308, 51.515], [34.238, 51.292], [34.951, 51.227], [35.352, 50.973], [35.392, 50.642], [35.658, 50.351], [35.33, 50.319], [34.94, 50.152], [34.701, 50.15], [34.4, 50.318], [34.246, 50.524], [33.717, 50.468], [33.065, 50.52], [33.201, 50.723], [32.96, 51.163], [33.069, 51.255], [33.165, 51.692], [33.429, 52.346]]]}, "properties": {"name": "Sumy Oblast", "iso2": "UA-59", "admin_level": 4, "osm_id": 71250, "countrylevel_id": "iso2:UA-59", "osm_data": {"localname": "Сумська область", "official_name": "", "alltags": {"koatuu": "5900000000", "ref:en": "SUM", "ref:ru": "СУМ", "name:ar": "سومي أوبلاست", "name:be": "Сумская вобласць", "name:bg": "Сумска област", "name:ca": "Província de Sumy", "name:cs": "Sumská oblast", "name:en": "Sumy Oblast", "name:eo": "Sumia provinco", "name:es": "Óblast de Sumy", "name:et": "Sumõ oblast", "name:eu": "Sumyko oblasta", "name:fa": "استان سومی", "name:fi": "Sumyn alue", "name:fr": "Oblast de Soumy", "name:ga": "Cúige Shumy", "name:hr": "Sumska oblast", "name:hu": "Szumi terület", "name:hy": "Սումիի մարզ", "name:id": "Oblast Sumy", "name:it": "Oblast' di Sumy", "name:ja": "スームィ州", "name:ka": "სუმის ოლქი", "name:ko": "수미 주", "name:lt": "Sumų sritis", "name:lv": "Sumu apgabals", "name:mk": "Сумска област", "name:mr": "सुमी ओब्लास्त", "name:nl": "Oblast Soemy", "name:nn": "Sumy oblast", "name:no": "Sumy oblast", "name:os": "Сумыйы облæст", "name:pl": "Obwód sumski", "name:pt": "Oblast de Sumi", "name:ro": "Regiunea Sumî", "name:ru": "Сумская область", "name:sh": "Sumska oblast", "name:sk": "Sumská oblasť", "name:sr": "Сумска област", "name:sv": "Sumy oblast", "name:tr": "Sumi Oblastı", "name:uk": "Сумська область", "name:vi": "Sumi (tỉnh)", "name:zh": "蘇梅州", "name:crh": "Sumı vilâyeti", "name:nan": "Sumy séng", "name:pnb": "سومی اوبلاست", "name:rue": "Сумска область", "name:sco": "Sumy Oblast", "name:war": "Sumy Oblast", "name:xmf": "სუმაშ ოლქი", "name:be-tarask": "Сумская вобласьць"}}, "center_lat": 51.11, "center_lon": 34.12, "area_m2": 23804996919, "timezone": "Europe/Kiev", "population": 1094284, "wikidata_id": "Q170446", "wikipedia_id": "uk:Сумська область"}}