{"type": "Feature", "geometry": {"type": "Polygon", "coordinates": [[[32.143, 50.349], [32.33, 50.426], [32.73, 50.356], [33.065, 50.52], [33.717, 50.468], [34.246, 50.524], [34.4, 50.318], [34.701, 50.15], [34.94, 50.152], [34.856, 49.987], [35.219, 49.83], [35.486, 49.572], [35.288, 49.296], [35.018, 49.151], [34.857, 49.191], [34.332, 49.009], [34.247, 48.746], [33.894, 48.902], [33.325, 48.961], [33.287, 49.084], [32.859, 49.245], [32.658, 49.247], [32.705, 49.655], [32.118, 50.228], [32.143, 50.349]]]}, "properties": {"name": "Poltava Oblast", "iso2": "UA-53", "admin_level": 4, "osm_id": 91294, "countrylevel_id": "iso2:UA-53", "osm_data": {"localname": "Полтавська область", "official_name": "", "alltags": {"flag": "http://upload.wikimedia.org/wikipedia/commons/d/d3/Flag_of_Poltava_Oblast.svg", "koatuu": "5300000000", "ref:en": "POL", "ref:ru": "ПОЛ", "name:ar": "بولتافا أوبلاست", "name:az": "Poltava vilayəti", "name:be": "Палтаўская вобласць", "name:bg": "Полтавска област", "name:ca": "Província de Poltava", "name:cs": "Poltavská oblast", "name:cv": "Полтава облаçĕ", "name:en": "Poltava Oblast", "name:eo": "Poltava provinco", "name:es": "Óblast de Poltava", "name:et": "Poltava oblast", "name:eu": "Poltavako oblasta", "name:fa": "استان پولتاوا", "name:fi": "Pultavan alue", "name:fr": "Oblast de Poltava", "name:gl": "Oblast de Poltava", "name:hr": "Poltavska oblast", "name:hu": "Poltavai terület", "name:hy": "Պոլտավայի մարզ", "name:id": "Oblast Poltava", "name:it": "Oblast' di Poltava", "name:ja": "ポルタヴァ州", "name:ka": "პოლტავის ოლქი", "name:ko": "폴타바 주", "name:lt": "Poltavos sritis", "name:lv": "Poltavas apgabals", "name:mk": "Полтавска област", "name:mr": "पोल्ताव्हा ओब्लास्त", "name:nl": "Oblast Poltava", "name:nn": "Poltava oblast", "name:no": "Poltava oblast", "name:pl": "Obwód połtawski", "name:pt": "Oblast de Poltava", "name:ro": "Regiunea Poltava", "name:ru": "Полтавская область", "name:sh": "Poltavska oblast", "name:sk": "Poltavská oblasť", "name:sr": "Полтавска област", "name:sv": "Poltava oblast", "name:tr": "Poltava Oblastı", "name:uk": "Полтавська область", "name:vi": "Poltava (tỉnh)", "name:zh": "波尔塔瓦州", "name:crh": "Poltava vilâyeti", "name:nan": "Poltava séng", "name:pnb": "پولتاوا اوبلاست", "name:rue": "Полтавска область", "name:sco": "Poltava Oblast", "name:war": "Poltava Oblast", "name:xmf": "პოლტავაშ ოლქი", "name:be-tarask": "Палтаўская вобласьць"}}, "center_lat": 49.73, "center_lon": 33.78, "area_m2": 28681064138, "timezone": "Europe/Kiev", "population": 1413829, "wikidata_id": "Q169501", "wikipedia_id": "uk:Полтавська область"}}