{"type": "Feature", "geometry": {"type": "Polygon", "coordinates": [[[66.752, 41.142], [67.965, 41.149], [68.248, 40.676], [68.213, 40.42], [68.624, 40.166], [68.858, 40.046], [68.524, 39.532], [67.704, 39.658], [67.5, 39.584], [67.401, 39.912], [67.098, 39.941], [66.887, 40.239], [66.851, 40.489], [66.654, 40.492], [66.768, 40.708], [66.655, 40.907], [66.752, 41.142]]]}, "properties": {"name": "Jizzakh Region", "iso2": "UZ-JI", "admin_level": 4, "osm_id": 196254, "countrylevel_id": "iso2:UZ-JI", "osm_data": {"localname": "Jizzax Viloyati", "official_name": "", "alltags": {"name:en": "Jizzakh Region", "name:es": "Provincia de Djizaks", "name:fr": "Province de Djizak", "name:ja": "ジザフ州", "name:lt": "Džizako vilajetas", "name:ru": "Джизакская область", "is_in:country": "Uzbekistan", "is_in:continent": "Asia", "is_in:country_code": "UZ"}}, "center_lat": 40.36, "center_lon": 67.68, "area_m2": 20928769849, "timezone": "Asia/Tashkent", "population": 1250100, "wikidata_id": "Q488811", "wikipedia_id": "ru:Джизакская область"}}