{"type": "Feature", "geometry": {"type": "Polygon", "coordinates": [[[66.597, 38.002], [66.832, 38.275], [67.105, 38.418], [67.367, 38.716], [67.488, 38.98], [67.683, 39.021], [68.094, 39.023], [68.204, 38.925], [68.064, 38.532], [68.405, 38.181], [68.27, 37.913], [68.133, 37.929], [67.852, 37.611], [67.787, 37.186], [67.517, 37.265], [67.27, 37.182], [67.045, 37.38], [66.551, 37.354], [66.597, 38.002]]]}, "properties": {"name": "Surxondaryo Region", "iso2": "UZ-SU", "admin_level": 4, "osm_id": 196248, "countrylevel_id": "iso2:UZ-SU", "osm_data": {"localname": "Surxondaryo Viloyati", "official_name": "", "alltags": {"name:en": "Surxondaryo Region", "name:es": "Provincia de Surjandarín", "name:fa": "سرخان‌در", "name:fr": "Province de Sourkhan-Daria", "name:ja": "スルハンダリヤ州", "name:lt": "Surchandarjos vilajetas", "name:ru": "Сурхандарьинская область", "is_in:country": "Uzbekistan", "is_in:continent": "Asia", "is_in:country_code": "UZ"}}, "center_lat": 38.04, "center_lon": 67.47, "area_m2": 20041724596, "timezone": "Asia/Samarkand", "wikidata_id": "Q487537", "wikipedia_id": "ru:Сурхандарьинская область"}}