{"type": "Feature", "geometry": {"type": "Polygon", "coordinates": [[[35.575, 31.685], [35.628, 31.698], [35.642, 31.712], [35.643, 31.75], [35.667, 31.775], [35.722, 31.778], [35.75, 31.786], [35.81, 31.788], [35.834, 31.8], [35.847, 31.789], [35.844, 31.752], [35.848, 31.701], [35.815, 31.677], [35.826, 31.624], [35.836, 31.607], [35.881, 31.575], [35.877, 31.537], [35.895, 31.52], [35.872, 31.483], [35.846, 31.425], [35.819, 31.402], [35.77, 31.418], [35.72, 31.418], [35.684, 31.406], [35.605, 31.418], [35.567, 31.44], [35.567, 31.441], [35.573, 31.483], [35.555, 31.517], [35.554, 31.585], [35.573, 31.628], [35.575, 31.684], [35.575, 31.685]]]}, "properties": {"name": "Madaba", "iso2": "JO-MD", "admin_level": 4, "osm_id": 2926348, "countrylevel_id": "iso2:JO-MD", "osm_data": {"localname": "مادبا", "official_name": "", "alltags": {"name:ar": "مادبا", "name:cs": "governorát Madaba", "name:el": "Μάνταμπα", "name:en": "Madaba", "name:es": "Gobernación de Madaba", "name:fr": "Gouvernorat de Madaba", "name:he": "מידבא", "name:ru": "Мадаба", "sorting_name:cs": "Madaba"}}, "center_lat": 31.58, "center_lon": 35.72, "area_m2": 1048370666, "timezone": "Asia/Amman", "population": 189192, "wikidata_id": "Q750447", "wikipedia_id": "ar:مادبا"}}