{"type": "Feature", "geometry": {"type": "MultiPolygon", "coordinates": [[[[-170.693, -14.306], [-170.733, -14.356], [-170.762, -14.367], [-170.785, -14.357], [-170.795, -14.331], [-170.837, -14.325], [-170.834, -14.312], [-170.809, -14.294], [-170.724, -14.282], [-170.702, -14.254], [-170.675, -14.25], [-170.627, -14.259], [-170.594, -14.258], [-170.564, -14.249], [-170.565, -14.27], [-170.602, -14.284], [-170.608, -14.269], [-170.641, -14.287], [-170.663, -14.287], [-170.693, -14.306]]], [[[-169.488, -14.273], [-169.518, -14.22], [-169.454, -14.212], [-169.419, -14.22], [-169.422, -14.253], [-169.463, -14.249], [-169.488, -14.273]]]]}, "properties": {"name": "American Samoa", "iso1": "AS", "admin_level": 4, "osm_id": 2177187, "countrylevel_id": "iso1:AS", "osm_data": {"localname": "American Samoa", "official_name": "", "alltags": {"flag": "http://upload.wikimedia.org/wikipedia/commons/8/87/Flag_of_American_Samoa.svg", "name:ca": "Samoa Nord-americana", "name:cs": "Americká Samoa", "name:el": "Αμερικανική Σαμόα", "name:en": "American Samoa", "name:eo": "Samoo Usona", "name:fr": "Samoa américaines", "name:hr": "Američka Samoa", "name:sl": "Ameriška Samoa", "name:sr": "Америчка Самоа", "name:uk": "Американське Самоа", "name:uz": "Amerika Samoasi", "name:vi": "Samoa thuộc Mỹ", "is_in:country": "United States", "is_in:continent": "Oceania"}}, "center_lat": -14.22, "center_lon": -170.37, "area_m2": 199581490, "timezone": "Pacific/Pago_Pago", "population": 55689, "wikidata_id": "Q16641", "wikipedia_id": "en:American Samoa"}}