{"type": "Feature", "geometry": {"type": "Polygon", "coordinates": [[[32.648, 34.658], [32.637, 34.663], [32.635, 34.664], [32.631, 34.665], [32.629, 34.665], [32.555, 34.698], [32.516, 34.707], [32.494, 34.703], [32.414, 34.755], [32.408, 34.755], [32.393, 34.79], [32.391, 34.831], [32.389, 34.838], [32.384, 34.845], [32.383, 34.846], [32.35, 34.856], [32.317, 34.901], [32.325, 34.926], [32.311, 34.949], [32.312, 34.987], [32.312, 34.988], [32.309, 35.006], [32.276, 35.037], [32.272, 35.057], [32.272, 35.059], [32.271, 35.06], [32.271, 35.063], [32.27, 35.064], [32.27, 35.065], [32.27, 35.066], [32.285, 35.106], [32.342, 35.06], [32.363, 35.046], [32.413, 35.042], [32.414, 35.042], [32.472, 35.069], [32.499, 35.099], [32.519, 35.137], [32.519, 35.138], [32.52, 35.138], [32.521, 35.139], [32.559, 35.171], [32.56, 35.17], [32.569, 35.17], [32.57, 35.17], [32.594, 35.179], [32.598, 35.179], [32.627, 35.191], [32.649, 35.195], [32.65, 35.195], [32.653, 35.195], [32.653, 35.194], [32.654, 35.194], [32.656, 35.193], [32.661, 35.194], [32.661, 35.193], [32.666, 35.192], [32.669, 35.194], [32.67, 35.193], [32.67, 35.192], [32.674, 35.188], [32.684, 35.186], [32.689, 35.185], [32.708, 35.184], [32.786, 35.161], [32.803, 35.149], [32.807, 35.148], [32.849, 35.148], [32.85, 35.148], [32.882, 35.162], [32.902, 35.18], [32.903, 35.182], [32.922, 35.221], [32.935, 35.266], [32.936, 35.271], [32.94, 35.297], [32.935, 35.344], [32.926, 35.351], [32.92, 35.398], [32.968, 35.387], [32.992, 35.369], [33.048, 35.358], [33.1, 35.356], [33.103, 35.357], [33.106, 35.36], [33.107, 35.36], [33.117, 35.364], [33.18, 35.35], [33.197, 35.359], [33.249, 35.345], [33.284, 35.348], [33.284, 35.347], [33.319, 35.343], [33.32, 35.343], [33.32, 35.342], [33.348, 35.335], [33.378, 35.338], [33.431, 35.332], [33.481, 35.332], [33.607, 35.357], [33.649, 35.358], [33.675, 35.365], [33.755, 35.409], [33.756, 35.409], [33.757, 35.408], [33.758, 35.409], [33.759, 35.41], [33.76, 35.409], [33.762, 35.409], [33.764, 35.409], [33.768, 35.411], [33.77, 35.411], [33.771, 35.412], [33.772, 35.414], [33.773, 35.413], [33.774, 35.413], [33.777, 35.413], [33.778, 35.413], [33.779, 35.413], [33.781, 35.413], [33.782, 35.413], [33.791, 35.412], [33.792, 35.412], [33.793, 35.411], [33.794, 35.412], [33.795, 35.412], [33.796, 35.413], [33.799, 35.413], [33.799, 35.412], [33.8, 35.412], [33.802, 35.414], [33.803, 35.415], [33.805, 35.415], [33.805, 35.414], [33.807, 35.413], [33.81, 35.413], [33.811, 35.414], [33.816, 35.413], [33.816, 35.412], [33.821, 35.412], [33.822, 35.413], [33.824, 35.412], [33.825, 35.412], [33.826, 35.412], [33.827, 35.412], [33.829, 35.412], [33.829, 35.411], [33.83, 35.411], [33.835, 35.412], [33.835, 35.413], [33.875, 35.419], [33.889, 35.427], [33.896, 35.427], [33.899, 35.425], [33.902, 35.428], [33.907, 35.429], [33.909, 35.429], [33.908, 35.429], [33.909, 35.428], [33.91, 35.428], [33.911, 35.428], [34.009, 35.458], [34.009, 35.459], [34.048, 35.474], [34.075, 35.493], [34.121, 35.503], [34.147, 35.528], [34.148, 35.528], [34.154, 35.538], [34.173, 35.559], [34.214, 35.556], [34.249, 35.571], [34.299, 35.581], [34.337, 35.602], [34.348, 35.622], [34.384, 35.636], [34.401, 35.634], [34.443, 35.656], [34.444, 35.656], [34.49, 35.659], [34.537, 35.677], [34.56, 35.692], [34.577, 35.682], [34.576, 35.658], [34.557, 35.642], [34.513, 35.633], [34.444, 35.605], [34.443, 35.605], [34.415, 35.577], [34.415, 35.576], [34.409, 35.557], [34.358, 35.535], [34.299, 35.489], [34.298, 35.488], [34.183, 35.444], [34.134, 35.416], [34.08, 35.366], [34.063, 35.327], [34.009, 35.321], [33.975, 35.325], [33.945, 35.307], [33.907, 35.258], [33.903, 35.241], [33.903, 35.233], [33.904, 35.188], [33.905, 35.186], [33.915, 35.16], [33.944, 35.128], [33.945, 35.128], [33.96, 35.111], [33.96, 35.11], [33.999, 35.071], [34, 35.071], [33.999, 35.07], [33.999, 35.069], [34.009, 35.061], [34.016, 35.055], [34.017, 35.055], [34.018, 35.055], [34.052, 35.024], [34.068, 35], [34.067, 35], [34.076, 34.964], [34.005, 34.983], [34.002, 34.981], [33.972, 34.987], [33.968, 34.988], [33.968, 34.987], [33.958, 34.987], [33.955, 34.982], [33.955, 34.981], [33.957, 34.981], [33.907, 34.974], [33.866, 34.975], [33.816, 35.041], [33.794, 35.05], [33.819, 35.07], [33.841, 35.06], [33.868, 35.076], [33.896, 35.07], [33.917, 35.087], [33.884, 35.124], [33.868, 35.095], [33.873, 35.082], [33.841, 35.062], [33.818, 35.071], [33.764, 35.039], [33.706, 35.076], [33.68, 35.059], [33.678, 35.04], [33.699, 35.031], [33.714, 35.004], [33.706, 34.98], [33.667, 34.966], [33.643, 34.937], [33.635, 34.877], [33.64, 34.866], [33.608, 34.835], [33.602, 34.816], [33.554, 34.82], [33.498, 34.784], [33.429, 34.764], [33.415, 34.751], [33.319, 34.718], [33.277, 34.719], [33.262, 34.706], [33.14, 34.709], [33.139, 34.709], [33.119, 34.706], [33.118, 34.705], [33.113, 34.704], [33.061, 34.684], [33.06, 34.684], [33.044, 34.671], [33.044, 34.67], [33.043, 34.668], [33.024, 34.651], [32.969, 34.639], [32.948, 34.659], [32.987, 34.667], [32.955, 34.684], [32.944, 34.671], [32.9, 34.665], [32.862, 34.688], [32.86, 34.706], [32.827, 34.706], [32.794, 34.679], [32.761, 34.676], [32.756, 34.651], [32.692, 34.645], [32.648, 34.658]]]}, "properties": {"name": "Cyprus", "iso1": "CY", "admin_level": 2, "osm_id": 307787, "countrylevel_id": "iso1:CY", "osm_data": {"localname": "Κύπρος - Kıbrıs", "official_name": "Κυπριακή Δημοκρατία - Kıbrıs Cumhuriyeti", "alltags": {"flag": "http://upload.wikimedia.org/wikipedia/commons/d/d4/Flag_of_Cyprus.svg", "name:af": "Siprus", "name:am": "ቆጵሮስ", "name:an": "Chipre", "name:ar": "قبرص", "name:az": "Kipr", "name:be": "Кіпр", "name:bg": "Кипър", "name:bi": "Cyprus", "name:bn": "সাইপ্রাস", "name:bo": "སེ་པི་རི་སི།", "name:br": "Kiprenez", "name:bs": "Kipar", "name:ca": "Xipre", "name:ce": "Кипр", "name:co": "Cipru", "name:cs": "Kypr", "name:cu": "Кѷпръ", "name:cv": "Кипр", "name:cy": "Cyprus", "name:da": "Cypern", "name:ee": "Cyprus", "name:el": "Κύπρος", "name:en": "Cyprus", "name:eo": "Kipro", "name:es": "Chipre", "name:et": "Küpros", "name:eu": "Zipre", "name:fa": "قبرس", "name:fi": "Kypros", "name:fo": "Kýpros", "name:fr": "Chypre", "name:fy": "Syprus", "name:ga": "An Chipir", "name:gd": "Cìopras", "name:gl": "Chipre", "name:gn": "Chipre", "name:gu": "સાયપ્રસ", "name:gv": "Yn Cheeprey", "name:he": "קפריסין", "name:hi": "साइप्रस", "name:hr": "Cipar", "name:ht": "Chip", "name:hu": "Ciprus", "name:hy": "Կիպրոս", "name:ia": "Cypro", "name:id": "Siprus", "name:ie": "Cypria", "name:io": "Chipro", "name:is": "Kýpur", "name:it": "Cipro", "name:ja": "キプロス", "name:jv": "Siprus", "name:ka": "კვიპროსი", "name:kg": "Kipros", "name:kk": "Кипр", "name:kl": "Cyperni", "name:kn": "ಕಿಪ್ರೊಸ್", "name:ko": "키프로스", "name:ku": "Kîpros", "name:kv": "Кипр", "name:kw": "Kobros", "name:la": "Cyprus", "name:lb": "Zypern", "name:li": "Cyprus", "name:lt": "Kipras", "name:lv": "Kipra", "name:mg": "Kipra", "name:mi": "Haipara", "name:mk": "Кипар", "name:ml": "സൈപ്രസ്", "name:mn": "Кипр", "name:mr": "सायप्रस", "name:ms": "Cyprus", "name:mt": "Ċipru", "name:my": "ဆိုက်ပရပ်စ်နိုင်ငံ", "name:na": "Taiprus", "name:nb": "Kypros", "name:ne": "साइप्रस", "name:nl": "Cyprus", "name:nn": "Kypros", "name:no": "Kypros", "name:nv": "Béésh Łichíiʼii Bikéyah", "name:oc": "Chipre", "name:or": "ସାଇପ୍ରସ", "name:os": "Кипр", "name:pa": "ਸਾਇਪ੍ਰਸ", "name:pl": "Cypr", "name:pt": "Chipre", "name:qu": "Kipru", "name:rm": "Cipra", "name:ro": "Cipru", "name:ru": "Кипр", "name:rw": "Shipure", "name:sc": "Tzipru", "name:se": "Kypros", "name:sh": "Cipar", "name:si": "සයිප්‍රස්", "name:sk": "Cyprus", "name:sl": "Ciper", "name:sm": "Cyprus", "name:so": "Qabrus", "name:sq": "Qiproja", "name:sr": "Кипар", "name:ss": "ISayiphro", "name:su": "Siprus", "name:sv": "Cypern", "name:sw": "Kupro", "name:ta": "சைப்பிரஸ்", "name:te": "సైప్రస్", "name:tg": "Кипр", "name:th": "ประเทศไซปรัส", "name:tk": "Kipr", "name:tl": "Tsipre", "name:tr": "Kıbrıs", "name:tt": "Кипр", "name:ug": "سىپرۇس", "name:uk": "Кіпр", "name:ur": "قبرص", "name:uz": "Qibris", "name:vi": "Síp", "name:vo": "Sipreän", "name:wo": "Ciipër", "name:yi": "קיפראס", "name:yo": "Kíprù", "name:zh": "赛普勒斯/塞浦路斯/塞浦路斯", "name:ace": "Siprus", "name:ang": "Cipros", "name:arc": "ܩܘܦܪܘܣ", "name:arz": "قبرص", "name:ast": "Xipre", "name:bar": "Zypern", "name:bcl": "Siprus", "name:bpy": "সাইপ্রাস", "name:bxr": "Кипр", "name:ceb": "Tsipre", "name:ckb": "قوبرس", "name:crh": "Qıbrız", "name:csb": "Cyper", "name:diq": "Qıbrısi", "name:dsb": "Cypern", "name:ext": "Chipri", "name:frp": "Ch·ipre", "name:frr": "Zypern", "name:fur": "Cipri", "name:gsw": "Zypern", "name:hak": "Set-phû-lu-sṳ̂", "name:haw": "Kupelo", "name:hif": "Cyprus", "name:hsb": "Cypernska", "name:ilo": "Cyprus", "name:kaa": "Kipr", "name:krc": "Кипр", "name:lad": "Kipre", "name:lez": "Кипр", "name:lij": "Çipro", "name:lmo": "Cipru", "name:ltg": "Kipra", "name:mdf": "Кипра", "name:mhr": "Кипр", "name:nah": "Chipre", "name:nan": "Ku-pí-lō͘", "name:nap": "Cipro", "name:nds": "Zypern", "name:new": "साइप्रस", "name:nov": "Kiprus", "name:nrm": "Chypre", "name:pag": "Kiprô", "name:pam": "Sipre", "name:pih": "Siipris", "name:pms": "Cipro", "name:pnb": "قبرص", "name:pnt": "Κύπρος", "name:rue": "Ціпрус", "name:sah": "Кипр", "name:scn": "Cipru", "name:sco": "Cyprus", "name:srn": "Sipruskondre", "name:stq": "Zypern", "name:szl": "Cypr", "name:tet": "Xipre", "name:tpi": "Saipras", "name:tzl": "Cüpris", "name:udm": "Кипр", "name:vec": "Sipro", "name:vep": "Kipr", "name:vls": "Cyprus", "name:vro": "Küprüs", "name:war": "Tsipre", "name:wuu": "塞浦路斯", "name:xal": "Кипр", "name:xmf": "კვიპროსი", "name:yue": "塞浦路斯", "name:zea": "Cyprus", "border_type": "nation", "description": "This is the full country, de jure, as recognized by the United Nations", "name:nds-nl": "Cyprus", "driving_side": "left", "name:zh-Hans": "赛普勒斯", "name:zh-Hant": "塞浦路斯", "official_name": "Κυπριακή Δημοκρατία - Kıbrıs Cumhuriyeti", "is_in:continent": "Europe", "official_name:az": "Kipr Respublikası", "official_name:br": "Republik Kiprenez", "official_name:cs": "Kyperská republika", "official_name:cv": "Кипр Республики", "official_name:de": "Republik Zypern", "official_name:el": "Κυπριακή Δημοκρατία", "official_name:en": "Republic of Cyprus", "official_name:eo": "Respubliko Kipro", "official_name:fi": "Kyproksen tasavalta", "official_name:fr": "République de Chypre", "official_name:hu": "Ciprusi Köztársaság", "official_name:mg": "Repoblikan'i Kipra", "official_name:nb": "Republikken Kypros", "official_name:nn": "Republikken Kypros", "official_name:no": "Republikken Kypros", "official_name:ru": "Республика Кипр", "official_name:so": "Jasiirada Qabrus", "official_name:tk": "Kipr Respublikasy", "official_name:tr": "Kıbrıs Cumhuriyeti", "official_name:tt": "Кипр Республикасы", "official_name:uz": "Qibris Respublikasi", "official_name:vi": "Cộng hòa Síp", "official_name:ast": "República de Xipre", "official_name:bar": "Republik Zypern", "official_name:crh": "Qıbrız Cumhuriyeti", "official_name:diq": "Cumhuriyetê Qıbrısi", "official_name:gsw": "Republik Zypern", "official_name:lad": "Repuvlika Kipriyota", "official_name:nds": "Republiek Zypern", "official_name:xal": "Кипрудин Орн"}}, "center_lat": 35.06, "center_lon": 33.22, "area_m2": 9012190695, "timezone": "Europe/Nicosia", "population": 1141166, "wikidata_id": "Q229", "wikipedia_id": "en:Cyprus"}}