{"type": "Feature", "geometry": {"type": "Polygon", "coordinates": [[[-61.258, 15.261], [-61.278, 15.243], [-61.305, 15.245], [-61.334, 15.212], [-61.368, 15.212], [-61.365, 15.234], [-61.376, 15.271], [-61.389, 15.316], [-61.391, 15.318], [-61.397, 15.361], [-61.421, 15.39], [-61.436, 15.433], [-61.454, 15.462], [-61.471, 15.497], [-61.475, 15.53], [-61.476, 15.532], [-61.477, 15.533], [-61.456, 15.573], [-61.467, 15.59], [-61.459, 15.639], [-61.444, 15.639], [-61.42, 15.637], [-61.395, 15.6], [-61.303, 15.584], [-61.296, 15.553], [-61.272, 15.532], [-61.273, 15.519], [-61.257, 15.508], [-61.244, 15.474], [-61.253, 15.403], [-61.247, 15.342], [-61.246, 15.316], [-61.247, 15.288], [-61.258, 15.262], [-61.258, 15.261]]]}, "properties": {"name": "Dominica", "iso1": "DM", "admin_level": 2, "osm_id": 307823, "countrylevel_id": "iso1:DM", "osm_data": {"localname": "Dominica", "official_name": "", "alltags": {"flag": "http://upload.wikimedia.org/wikipedia/commons/c/c4/Flag_of_Dominica.svg", "name:br": "Republik Dominikan", "name:cs": "Dominika", "name:el": "Δομινίκα", "name:en": "Dominica", "name:eo": "Dominiko", "name:fr": "Dominique", "name:fy": "Dominika", "name:hr": "Dominika", "name:lt": "Dominika", "name:nl": "Dominica", "name:ru": "Доминика", "name:sk": "Dominika", "name:uk": "Домініка", "name:vo": "Dominikeän", "name:zh": "多米尼克", "name:jbo": "dominik.ka'ijec", "name:tzl": "Dominica", "population": "70739", "border_type": "nation", "driving_side": "left", "is_in:continent": "North America", "default_language": "en", "official_name:cs": "Dominické společenství", "official_name:el": "Κοινοπολιτεία της Δομινίκας", "official_name:en": "Commonwealth of Dominica", "official_name:eo": "Dominika Komunumo", "official_name:lt": "Dominikos Sandrauga"}}, "center_lat": 15.43, "center_lon": -61.35, "area_m2": 754857912, "timezone": "America/Dominica", "population": 73925, "wikidata_id": "Q784", "wikipedia_id": "en:Dominica"}}