{"type": "Feature", "geometry": {"type": "Polygon", "coordinates": [[[35.954, 4.57], [35.945, 4.575], [35.944, 4.619], [35.949, 4.631], [35.818, 4.774], [35.819, 5.1], [35.856, 5.15], [35.866, 5.184], [35.855, 5.213], [35.828, 5.245], [35.828, 5.261], [35.864, 5.301], [35.865, 5.311], [35.84, 5.336], [35.771, 5.351], [35.755, 5.368], [35.72, 5.388], [35.651, 5.394], [35.628, 5.383], [35.617, 5.404], [35.598, 5.4], [35.585, 5.419], [35.568, 5.412], [35.505, 5.423], [35.471, 5.408], [35.452, 5.39], [35.411, 5.365], [35.377, 5.359], [35.321, 5.336], [35.302, 5.35], [35.289, 5.378], [35.295, 5.427], [35.309, 5.464], [35.306, 5.504], [35.126, 5.624], [35.13, 5.687], [35.041, 5.838], [35.006, 5.89], [35.011, 5.918], [34.993, 5.945], [34.996, 5.976], [35.007, 5.994], [35.001, 6.027], [34.994, 6.043], [35, 6.081], [34.973, 6.101], [34.964, 6.136], [34.975, 6.187], [34.974, 6.203], [34.95, 6.246], [34.964, 6.258], [34.974, 6.307], [34.986, 6.313], [35.001, 6.35], [34.992, 6.394], [35.013, 6.408], [35.022, 6.435], [35.009, 6.475], [34.982, 6.486], [34.98, 6.499], [34.95, 6.528], [34.939, 6.558], [34.927, 6.556], [34.89, 6.579], [34.89, 6.6], [34.851, 6.609], [34.817, 6.607], [34.793, 6.596], [34.765, 6.603], [34.74, 6.639], [34.718, 6.653], [34.705, 6.691], [34.677, 6.7], [34.652, 6.733], [34.625, 6.743], [34.589, 6.728], [34.557, 6.735], [34.53, 6.755], [34.535, 6.805], [34.543, 6.816], [34.526, 6.842], [34.53, 6.852], [34.46, 6.92], [34.394, 6.924], [34.372, 6.913], [34.341, 6.929], [34.311, 6.951], [34.303, 6.972], [34.271, 7.003], [34.219, 7.017], [34.216, 7.036], [34.194, 7.041], [34.189, 7.087], [34.192, 7.109], [34.19, 7.132], [34.16, 7.148], [34.14, 7.147], [34.128, 7.166], [34.105, 7.17], [34.074, 7.218], [34.062, 7.218], [34.024, 7.243], [34.016, 7.256], [34.04, 7.272], [34.03, 7.329], [34.037, 7.356], [34.007, 7.383], [34.004, 7.419], [33.971, 7.444], [33.9, 7.513], [33.898, 7.537], [33.866, 7.559], [33.831, 7.564], [33.786, 7.587], [33.739, 7.628], [33.724, 7.656], [33.677, 7.673], [33.666, 7.686], [33.629, 7.695], [33.582, 7.689], [33.541, 7.703], [33.52, 7.728], [33.484, 7.736], [33.467, 7.749], [33.448, 7.74], [33.437, 7.753], [33.403, 7.734], [33.39, 7.742], [33.323, 7.708], [33.32, 7.721], [33.294, 7.749], [33.256, 7.764], [33.25, 7.778], [33.206, 7.779], [33.179, 7.789], [33.125, 7.79], [33.105, 7.78], [33.093, 7.799], [33.071, 7.791], [33.049, 7.799], [33.046, 7.814], [33.006, 7.856], [33, 7.916], [32.998, 7.946], [33.038, 7.968], [33.04, 8.009], [33.078, 8.024], [33.085, 8.073], [33.123, 8.068], [33.118, 8.107], [33.193, 8.137], [33.171, 8.203], [33.199, 8.216], [33.199, 8.248], [33.176, 8.254], [33.173, 8.301], [33.197, 8.3], [33.204, 8.331], [33.187, 8.383], [33.214, 8.427], [33.241, 8.431], [33.245, 8.448], [33.274, 8.462], [33.288, 8.44], [33.309, 8.466], [33.336, 8.448], [33.351, 8.45], [33.397, 8.426], [33.423, 8.453], [33.452, 8.447], [33.488, 8.463], [33.498, 8.481], [33.518, 8.469], [33.561, 8.473], [33.569, 8.451], [33.601, 8.453], [33.619, 8.472], [33.676, 8.446], [33.68, 8.409], [33.689, 8.388], [33.714, 8.371], [33.75, 8.379], [33.768, 8.368], [33.809, 8.402], [33.828, 8.398], [33.845, 8.411], [33.876, 8.412], [33.884, 8.434], [33.876, 8.456], [33.901, 8.483], [33.931, 8.496], [33.971, 8.502], [34.021, 8.489], [34.045, 8.53], [34.101, 8.556], [34.127, 8.59], [34.146, 8.608], [34.146, 9.033], [34.13, 9.205], [34.107, 9.5], [34.086, 9.553], [34.14, 9.758], [34.207, 9.905], [34.231, 10.03], [34.323, 10.117], [34.321, 10.164], [34.336, 10.182], [34.335, 10.212], [34.348, 10.246], [34.293, 10.522], [34.282, 10.537], [34.302, 10.572], [34.357, 10.639], [34.44, 10.784], [34.594, 10.888], [34.674, 10.835], [34.718, 10.795], [34.733, 10.769], [34.766, 10.753], [34.777, 10.729], [34.772, 10.693], [34.784, 10.684], [34.798, 10.719], [34.831, 10.733], [34.853, 10.726], [34.874, 10.76], [34.869, 10.786], [34.975, 10.864], [34.979, 10.915], [34.933, 10.957], [35.006, 11.174], [35.008, 11.198], [34.97, 11.232], [34.94, 11.249], [34.947, 11.268], [34.972, 11.286], [35.004, 11.349], [35.056, 11.469], [35.088, 11.536], [35.096, 11.583], [35.064, 11.654], [35.065, 11.699], [35.058, 11.721], [35.066, 11.768], [35.081, 11.801], [35.111, 11.846], [35.134, 11.864], [35.168, 11.878], [35.227, 11.896], [35.268, 11.936], [35.271, 11.976], [35.314, 12.002], [35.347, 12.038], [35.347, 12.084], [35.386, 12.17], [35.412, 12.179], [35.437, 12.21], [35.438, 12.251], [35.614, 12.538], [35.649, 12.594], [35.678, 12.595], [35.7, 12.622], [35.699, 12.666], [36.006, 12.724], [36.044, 12.716], [36.081, 12.724], [36.099, 12.699], [36.116, 12.694], [36.14, 12.704], [36.165, 12.875], [36.149, 12.891], [36.133, 12.923], [36.154, 12.969], [36.17, 12.984], [36.155, 13.024], [36.206, 13.212], [36.249, 13.368], [36.398, 13.568], [36.412, 13.609], [36.408, 13.652], [36.427, 13.702], [36.454, 13.767], [36.487, 13.839], [36.446, 13.957], [36.529, 14.212], [36.56, 14.257], [36.563, 14.284], [36.59, 14.286], [36.633, 14.314], [36.695, 14.302], [36.744, 14.322], [36.819, 14.317], [36.843, 14.31], [36.853, 14.322], [36.965, 14.295], [37.014, 14.251], [37.044, 14.269], [37.065, 14.264], [37.092, 14.272], [37.107, 14.293], [37.102, 14.336], [37.135, 14.41], [37.155, 14.419], [37.186, 14.42], [37.209, 14.44], [37.23, 14.445], [37.246, 14.435], [37.312, 14.447], [37.349, 14.404], [37.373, 14.383], [37.404, 14.334], [37.406, 14.29], [37.447, 14.261], [37.471, 14.251], [37.467, 14.215], [37.497, 14.196], [37.528, 14.185], [37.913, 14.894], [37.945, 14.86], [37.949, 14.839], [37.967, 14.832], [37.971, 14.812], [37.991, 14.792], [37.991, 14.776], [38.022, 14.758], [38.016, 14.746], [38.057, 14.715], [38.092, 14.716], [38.134, 14.692], [38.143, 14.676], [38.189, 14.693], [38.233, 14.692], [38.262, 14.674], [38.274, 14.64], [38.271, 14.617], [38.291, 14.614], [38.319, 14.579], [38.319, 14.557], [38.359, 14.514], [38.367, 14.49], [38.39, 14.484], [38.429, 14.453], [38.431, 14.435], [38.455, 14.413], [38.479, 14.421], [38.525, 14.416], [38.596, 14.442], [38.647, 14.443], [38.69, 14.464], [38.733, 14.462], [38.772, 14.472], [38.795, 14.467], [38.818, 14.484], [38.862, 14.498], [38.901, 14.505], [38.936, 14.54], [38.978, 14.545], [38.998, 14.57], [39.03, 14.637], [39.052, 14.64], [39.099, 14.636], [39.154, 14.653], [39.157, 14.608], [39.178, 14.585], [39.205, 14.565], [39.241, 14.563], [39.262, 14.515], [39.264, 14.49], [39.234, 14.452], [39.243, 14.417], [39.266, 14.413], [39.273, 14.437], [39.301, 14.47], [39.325, 14.471], [39.338, 14.483], [39.36, 14.483], [39.356, 14.509], [39.371, 14.537], [39.403, 14.537], [39.448, 14.505], [39.489, 14.505], [39.495, 14.486], [39.526, 14.488], [39.524, 14.506], [39.507, 14.522], [39.509, 14.552], [39.55, 14.587], [39.587, 14.609], [39.612, 14.598], [39.639, 14.604], [39.7, 14.574], [39.713, 14.555], [39.765, 14.548], [39.79, 14.512], [39.821, 14.484], [39.838, 14.49], [39.873, 14.467], [39.904, 14.435], [39.93, 14.415], [39.957, 14.418], [39.982, 14.448], [40.009, 14.449], [40.014, 14.469], [40.032, 14.478], [40.037, 14.505], [40.066, 14.533], [40.091, 14.548], [40.134, 14.546], [40.148, 14.539], [40.213, 14.387], [40.259, 14.411], [40.365, 14.366], [40.374, 14.354], [40.452, 14.307], [40.573, 14.269], [40.687, 14.224], [40.81, 14.172], [40.873, 14.135], [40.943, 14.08], [40.995, 14.017], [41.073, 13.887], [41.116, 13.828], [41.172, 13.728], [41.196, 13.702], [41.251, 13.61], [41.309, 13.579], [41.403, 13.501], [41.449, 13.488], [41.503, 13.446], [41.642, 13.385], [41.669, 13.324], [41.722, 13.274], [41.738, 13.237], [41.81, 13.166], [41.891, 13.074], [41.929, 13.011], [41.966, 12.923], [42.03, 12.868], [42.057, 12.801], [42.132, 12.777], [42.219, 12.762], [42.279, 12.635], [42.404, 12.469], [42.385, 12.433], [42.337, 12.372], [42.317, 12.305], [42.258, 12.255], [42.205, 12.184], [42.183, 12.146], [42.16, 12.118], [42.147, 12.077], [42.133, 12.067], [42.095, 12.009], [42.067, 11.98], [42.04, 11.932], [41.955, 11.812], [41.9, 11.793], [41.895, 11.756], [41.836, 11.733], [41.807, 11.655], [41.804, 11.572], [41.787, 11.546], [41.771, 11.494], [41.795, 11.397], [41.808, 11.318], [41.805, 11.267], [41.772, 11.282], [41.757, 11.268], [41.733, 11.275], [41.724, 11.249], [41.703, 11.237], [41.708, 11.221], [41.676, 11.203], [41.69, 11.18], [41.708, 11.131], [41.754, 11.077], [41.779, 11.069], [41.804, 11.077], [41.803, 11.006], [41.794, 10.99], [41.794, 10.979], [41.831, 10.963], [41.917, 10.939], [41.943, 10.937], [41.946, 10.916], [41.991, 10.924], [42.068, 10.925], [42.074, 10.949], [42.103, 10.957], [42.11, 10.971], [42.19, 10.974], [42.198, 10.965], [42.268, 10.971], [42.283, 10.985], [42.337, 10.998], [42.368, 10.998], [42.426, 10.983], [42.507, 11.04], [42.604, 11.07], [42.629, 11.096], [42.664, 11.079], [42.688, 11.057], [42.712, 11.061], [42.753, 11.079], [42.783, 11.033], [42.79, 10.989], [42.858, 10.981], [42.868, 10.969], [42.962, 10.984], [42.93, 10.947], [42.909, 10.913], [42.875, 10.87], [42.766, 10.722], [42.719, 10.647], [42.71, 10.622], [42.709, 10.578], [42.72, 10.534], [42.747, 10.512], [42.763, 10.456], [42.792, 10.404], [42.805, 10.352], [42.833, 10.278], [42.86, 10.229], [42.887, 10.19], [42.97, 10.102], [42.997, 10.084], [43.036, 10.034], [43.086, 9.908], [43.116, 9.889], [43.138, 9.886], [43.15, 9.899], [43.257, 9.843], [43.284, 9.684], [43.298, 9.606], [43.33, 9.602], [43.406, 9.545], [43.414, 9.513], [43.439, 9.447], [43.464, 9.416], [43.516, 9.382], [43.544, 9.377], [43.593, 9.359], [43.643, 9.357], [43.841, 9.158], [43.87, 9.124], [43.972, 9.026], [43.997, 9], [44.033, 8.989], [44.235, 8.922], [44.414, 8.864], [44.69, 8.773], [45.268, 8.579], [45.626, 8.462], [46.226, 8.263], [46.993, 8.002], [47.012, 8.001], [47.92, 8], [47.982, 8], [47.557, 7.561], [47.338, 7.383], [46.873, 6.908], [46.521, 6.531], [46.511, 6.52], [45.845, 5.957], [45.411, 5.536], [44.998, 4.946], [44.978, 4.923], [44.933, 4.927], [44.901, 4.923], [44.73, 4.929], [44.678, 4.923], [44.625, 4.933], [44.59, 4.932], [44.549, 4.926], [44.385, 4.941], [44.202, 4.942], [44.154, 4.95], [44.079, 4.94], [44.032, 4.943], [43.809, 4.902], [43.79, 4.889], [43.756, 4.886], [43.683, 4.867], [43.552, 4.835], [43.435, 4.795], [43.232, 4.695], [43.157, 4.652], [43.079, 4.602], [43.045, 4.573], [43.026, 4.542], [43.007, 4.468], [42.969, 4.403], [42.925, 4.348], [42.884, 4.307], [42.849, 4.28], [42.816, 4.265], [42.736, 4.264], [42.669, 4.249], [42.587, 4.216], [42.526, 4.202], [42.475, 4.203], [42.37, 4.189], [42.194, 4.179], [42.087, 4.179], [42.061, 4.161], [42, 4.094], [41.979, 4.095], [41.946, 4.055], [41.943, 4.017], [41.913, 3.996], [41.907, 3.983], [41.877, 3.967], [41.851, 3.961], [41.844, 3.949], [41.797, 3.959], [41.773, 3.972], [41.724, 3.987], [41.693, 3.978], [41.674, 3.96], [41.632, 3.982], [41.618, 3.974], [41.567, 3.967], [41.551, 3.982], [41.48, 3.952], [41.46, 3.957], [41.427, 3.945], [41.391, 3.963], [41.379, 3.952], [41.355, 3.96], [41.33, 3.939], [41.282, 3.949], [41.271, 3.958], [41.215, 3.954], [41.201, 3.938], [41.169, 3.943], [41.105, 3.985], [41.092, 4.013], [41.073, 4.023], [41.057, 4.048], [41.026, 4.071], [41.001, 4.103], [40.982, 4.111], [40.965, 4.132], [40.904, 4.155], [40.883, 4.193], [40.882, 4.213], [40.856, 4.227], [40.844, 4.246], [40.814, 4.255], [40.785, 4.273], [40.759, 4.279], [40.748, 4.261], [40.717, 4.245], [40.698, 4.247], [40.652, 4.225], [40.418, 4.127], [40.388, 4.105], [40.376, 4.106], [40.234, 4.05], [40.192, 4.044], [40.172, 4.027], [39.87, 3.875], [39.857, 3.851], [39.785, 3.699], [39.774, 3.666], [39.759, 3.659], [39.606, 3.503], [39.588, 3.492], [39.554, 3.397], [39.515, 3.407], [39.498, 3.462], [39.429, 3.451], [39.412, 3.463], [39.331, 3.464], [39.32, 3.496], [39.304, 3.476], [39.266, 3.47], [39.224, 3.479], [39.191, 3.478], [39.104, 3.522], [39.09, 3.536], [39.055, 3.519], [39.036, 3.526], [39.021, 3.51], [38.966, 3.53], [38.96, 3.515], [38.906, 3.512], [38.849, 3.532], [38.715, 3.572], [38.688, 3.624], [38.666, 3.593], [38.625, 3.604], [38.58, 3.604], [38.56, 3.614], [38.551, 3.642], [38.522, 3.652], [38.523, 3.626], [38.448, 3.602], [38.412, 3.605], [38.191, 3.62], [38.13, 3.606], [38.114, 3.624], [38.055, 3.67], [38.019, 3.703], [38.009, 3.726], [37.994, 3.729], [37.903, 3.783], [37.708, 3.91], [37.633, 3.964], [37.556, 4.016], [37.502, 4.057], [37.137, 4.293], [37.114, 4.304], [37.09, 4.341], [37.065, 4.346], [37.055, 4.364], [37.031, 4.379], [37.021, 4.369], [36.988, 4.39], [36.911, 4.422], [36.88, 4.429], [36.845, 4.447], [36.715, 4.44], [36.662, 4.44], [36.626, 4.452], [36.547, 4.442], [36.265, 4.448], [36.247, 4.455], [36.213, 4.449], [36.216, 4.486], [36.226, 4.501], [36.22, 4.521], [36.198, 4.528], [36.174, 4.592], [36.2, 4.598], [36.187, 4.644], [36.151, 4.653], [36.14, 4.636], [36.159, 4.626], [36.169, 4.593], [36.171, 4.54], [36.156, 4.537], [36.158, 4.578], [36.121, 4.576], [36.139, 4.551], [36.106, 4.542], [36.073, 4.499], [36.015, 4.474], [35.955, 4.537], [35.954, 4.57]]]}, "properties": {"name": "Ethiopia", "iso1": "ET", "admin_level": 2, "osm_id": 192800, "countrylevel_id": "iso1:ET", "osm_data": {"localname": "ኢትዮጵያ", "official_name": "የኢትዮጵያ ፌዴራላዊ ዴሞክራሲያዊ ሪፐብሊክ", "alltags": {"flag": "http://upload.wikimedia.org/wikipedia/commons/7/71/Flag_of_Ethiopia.svg", "name:aa": "Otobbia", "name:af": "Ethiopië", "name:ak": "Ithiopia", "name:am": "ኢትዮጵያ", "name:an": "Etiopia", "name:ar": "إثيوبيا", "name:av": "Хабашистан", "name:az": "Efiopiya", "name:ba": "Эфио́пия", "name:be": "Эфіопія", "name:bg": "Етиопия", "name:bh": "इथियोपिया", "name:bm": "Etiopia", "name:bn": "ইথিওপিয়া", "name:bo": "ཨི་ཐི་ཨོ་པི་ཡ།", "name:br": "Etiopia", "name:bs": "Etiopija", "name:ca": "Etiòpia", "name:ce": "Эфио́пи", "name:cs": "Etiopie", "name:cu": "Єѳїопі́ꙗ", "name:cv": "Эфиопи", "name:cy": "Ethiopia", "name:da": "Etiopien", "name:dv": "ޙަބުޝްކަރަ", "name:dz": "ཨི་ཐི་ཡོ་པི་ཡ", "name:ee": "Etiopia", "name:el": "Αιθιοπία", "name:en": "Ethiopia", "name:eo": "Etiopujo", "name:es": "Etiopía", "name:et": "Etioopia", "name:eu": "Etiopia", "name:fa": "اتیوپی", "name:fi": "Etiopia", "name:fo": "Etiopia", "name:fr": "Éthiopie", "name:fy": "Etioopje", "name:ga": "an Aetóip", "name:gd": "An Aetiòp", "name:gl": "Etiopía - Ityop'iya", "name:gn": "Etiopia", "name:gu": "ઇથિયોપિયા", "name:gv": "yn Eetoip", "name:ha": "Ethiopia", "name:he": "אתיופיה", "name:hi": "इथियोपिया", "name:hr": "Etiopija", "name:ht": "Etyopi", "name:hu": "Etiópia", "name:hy": "Եթովպիա", "name:ia": "Ethiopia", "name:id": "Ethiopia", "name:ie": "Etiopia", "name:ig": "Ethiopia", "name:io": "Etiopia", "name:is": "Eþíópía", "name:it": "Etiopia", "name:ja": "エチオピア", "name:jv": "Étiopia", "name:ka": "ეთიოპია", "name:kg": "Itiopia", "name:ki": "Ethiopia", "name:kk": "Ефиопия", "name:km": "អេត្យូពី", "name:kn": "ಇತಿಯೋಪಿಯ", "name:ko": "에티오피아", "name:ks": "اِتھوپِیا", "name:ku": "Etiyopya", "name:kv": "Эфиопия", "name:kw": "Ethiopi", "name:ky": "Эфиопия", "name:la": "Aethiopia", "name:lb": "Ethiopien", "name:lg": "Ethiopia", "name:li": "Ethiopië", "name:ln": "Etiopi", "name:lo": "ເອທີໂອເປຍ", "name:lt": "Etiopija", "name:lv": "Etiopija", "name:mg": "Etiopia", "name:mi": "Etiopia", "name:mk": "Етиопија", "name:ml": "എത്യോപ്യ", "name:mn": "Этиоп", "name:mr": "इथियोपिया", "name:ms": "Habsyah", "name:mt": "Etjopja", "name:my": "အီသီယိုးပီးယားနိုင်ငံ", "name:na": "Itiyopiya", "name:ne": "इथियोपिया", "name:nl": "Ethiopië", "name:nn": "Etiopia", "name:no": "Etiopia", "name:nv": "Iithiyópya", "name:oc": "Etiopia", "name:om": "Itoophiyaa", "name:or": "ଇଥିଓପିଆ", "name:os": "Эфио́пи", "name:pa": "ਇਥੋਪੀਆ", "name:pi": "ईथ्योपिया", "name:pl": "Etiopia", "name:ps": "اېتوپیا", "name:pt": "Etiópia", "name:qu": "Ithiyupya", "name:rm": "Etiopia", "name:ro": "Etiopia", "name:ru": "Эфиопия", "name:rw": "Etiyopiya", "name:sa": "ईथ्योपिया", "name:sc": "Etiòpia", "name:se": "Etiopia", "name:sg": "Etiopïi", "name:sh": "Etiopija", "name:si": "ඉතියෝපියාව", "name:sk": "Etiópia", "name:sl": "Etiópija", "name:sm": "Ethiopia", "name:sn": "Ethiopia", "name:so": "Itoobiya", "name:sq": "Etiopia", "name:sr": "Етиопија", "name:ss": "iTopiya", "name:st": "Ethiopia", "name:su": "Étiopia", "name:sv": "Etiopien", "name:sw": "Ethiopia", "name:ta": "எத்தியோப்பியா", "name:te": "ఇథియోపియా", "name:tg": "Эфиопия", "name:th": "เอธิโอเปีย", "name:ti": "ኢትዮጵያ", "name:tk": "Efiopiýa", "name:tl": "Etiyopiya", "name:to": "ʻItiōpea", "name:tr": "Etiyopya", "name:ts": "Topiya", "name:tt": "Хәбәшстан", "name:ug": "ئېفىئوپىيە", "name:uk": "Ефіо́пія", "name:ur": "ایتھوپیا", "name:uz": "Efiopiya", "name:vi": "Ethiopia", "name:vo": "Lätiopän", "name:wa": "Etiopeye", "name:wo": "Ecoopi", "name:xh": "iTopiya", "name:yi": "עטיאָפּיע", "name:yo": "Ethiópíà", "name:za": "Ethiopia", "name:zh": "埃塞俄比亚", "name:zu": "i-Ithiopia", "int_name": "Ethiopia", "name:ace": "Ethiopia", "name:ady": "Эфиопие", "name:als": "Ethiopie", "name:ang": "Sigelhearwenaland", "name:arc": "ܟܘܫ", "name:arz": "اثيوبيا", "name:ast": "Etiopía", "name:azb": "اتیوپی", "name:bar": "Ethiopien", "name:bcl": "Etyopya", "name:bjn": "Ethiopia", "name:bpy": "ইথিওপিয়া", "name:bxr": "Этиопи", "name:cdo": "Ethiopia", "name:ceb": "Etiopia", "name:chr": "ᎢᏗᎣᏈᎠ", "name:ckb": "ئیتیۆپیا", "name:crh": "Abeşistan", "name:din": "Ethiopia", "name:diq": "Etyopya", "name:dsb": "Etiopiska", "name:dty": "इथियोपिया", "name:ext": "Etiopia", "name:frp": "Ètiopie", "name:frr": "Etioopien", "name:fur": "Etiopie", "name:gag": "Efiopiya", "name:gan": "埃塞俄比亞", "name:gom": "इथिओपिया", "name:hak": "Âi-set-ngò-pí-â", "name:haw": "ʻAikiopia", "name:hif": "Ethiopia", "name:hsb": "Etiopiska", "name:ilo": "Etiopia", "name:jam": "Iityuopia", "name:jbo": "itiopias", "name:kaa": "Efiopiya", "name:kab": "Ityupya", "name:kbp": "Etiyoopii", "name:koi": "Итьоппья", "name:ksh": "Ättijoopije", "name:lad": "Etiopia", "name:lez": "Эфиопия", "name:lij": "Etiòpia", "name:lmo": "Etiopia", "name:lrc": "ئتیوٙپی", "name:lzh": "衣索比亞", "name:mai": "इथियोपिया", "name:mhr": "Эфиопий", "name:min": "Ethiopia", "name:mrj": "Эфиопи", "name:mzn": "اتیوپی", "name:nah": "Etiopia", "name:nan": "Ityop'iya", "name:nds": "Äthiopien", "name:new": "इथियोपिया", "name:nov": "Etiopia", "name:nso": "Ethiopia", "name:olo": "Efiopii", "name:pam": "Ethiopia", "name:pap": "Ethiopia", "name:pih": "Ethiopia", "name:pms": "Etiòpia", "name:pnb": "ایتھوپیا", "name:rue": "Етіопія", "name:sah": "Этиопия", "name:scn": "Etiòpia", "name:sco": "Ethiopie", "name:srn": "Ethiopikondre", "name:stq": "Äthiopien", "name:szl": "Etjopijo", "name:tok": "ma Isijopija", "name:tzl": "Itiopia", "name:vec": "Etiopia", "name:vep": "Efiopii", "name:war": "Etiyopya", "name:wuu": "埃塞俄比亞", "name:xal": "Эпигопин Ниицән", "name:xmf": "ეთიოპია", "name:yue": "埃塞俄比亞", "name:zea": "Ethiopië", "old_name": "Abyssinia", "short_name": "ኢ.ፌ.ዲ.ሪ.", "alt_name:ar": "الحبشة", "alt_name:bo": "ཨི་ཐོ་པི་ཡ་", "alt_name:eo": "Etiopio", "alt_name:gd": "An Itiop", "alt_name:tr": "Etyopya", "alt_name:vi": "Ê-ti-ô-pi-a", "old_name:az": "Həbəşistan", "old_name:ce": "Абиссини", "old_name:cs": "Habeš", "old_name:de": "Abessinien", "old_name:eo": "Abisenujo", "old_name:es": "Abisinia", "old_name:fi": "Abessinia", "old_name:fr": "Abessinien", "old_name:ig": "Oromo", "old_name:io": "Abisinia", "old_name:it": "Abissinia", "old_name:kn": "ಅಬಿಸಿನಿಯಾ", "old_name:ku": "Hebeşîstan", "old_name:la": "Abyssinia", "old_name:rm": "Abessinia", "old_name:ru": "Абиссиния", "old_name:sk": "Abesínia;Abesínsko", "old_name:sl": "Abesinija", "old_name:sq": "Absinia", "old_name:uz": "Habashiston", "alt_name:ang": "Æthiopia", "alt_name:arc": "ܐܬܝܘܦܝܐ", "alt_name:ceb": "Etyopiya", "alt_name:hak": "Abyssinia", "alt_name:koi": "Эфиопия", "alt_name:scn": "Itiòpia", "alt_name:war": "Ethiopia", "name:bat-smg": "Etiuopėjė", "name:cbk-zam": "Etiopía", "name:fiu-vro": "Etioopia", "old_name:bar": "Abessinien", "old_name:ext": "Abisinia", "old_name:lez": "Абиссиния", "old_name:pam": "Abyssinia", "old_name:stq": "Abessinien", "old_name:vep": "Abissinii", "name:roa-tara": "Etiopie", "official_name": "የኢትዮጵያ ፌዴራላዊ ዴሞክራሲያዊ ሪፐብሊክ", "short_name:am": "ኢ.ፌ.ዲ.ሪ.", "short_name:be": "ФДРЭ", "short_name:es": "RDFE", "name:be-tarask": "Этыёпія", "name:zh_pinyin": "Āisàiébǐyà", "is_in:continent": "Africa", "default_language": "am", "official_name:af": "Federale Demokratiese Republiek van Ethiopië", "official_name:am": "የኢትዮጵያ ፌዴራላዊ ዴሞክራሲያዊ ሪፐብሊክ", "official_name:an": "Republica Democratica Federal d'Etiopia", "official_name:ar": "جمهورية إثيوبيا الفيدرالية الديمقراطية", "official_name:az": "Efiopiya Federal Demokratik Respublikası", "official_name:ba": "Эфиопия Федератив Демократик Республикаһы", "official_name:be": "Федэраты́ўная Дэмакраты́чная Рэспу́бліка Эфіопія", "official_name:bg": "Федерална демократична република Етиопия", "official_name:bm": "Kurufa Bɛjɛfanga Fasojamana", "official_name:bn": "কেন্দ্রীয় গণপ্রজাতন্ত্রী ইথিওপিয়া", "official_name:br": "Republik demokratel gevreadel Etiopia", "official_name:bs": "Savezna Demokratska Republika Etiopija", "official_name:ca": "Ityop'iya Federalawi Demokrasiyawi Ripeblik", "official_name:ce": "Федерати́вни Демократи́н Респу́блика Эфио́пи", "official_name:cs": "Etiopská federativní demokratická republika", "official_name:cu": "Єѳїопїꙗ Съвѫꙁьна Димократїꙗ", "official_name:cv": "Федерати́вла Демократиллĕ Респу́блика Эфио́пи", "official_name:cy": "Gweriniaeth Ddemocrataidd Ffederal Ethiopia", "official_name:da": "Den Føderale Demokratiske Republik Etiopien", "official_name:de": "Demokratische Bundesrepublik Äthiopien", "official_name:el": "Ομοσπονδιακή Δημοκρατία της Αιθιοπίας", "official_name:en": "Federal Democratic Republic of Ethiopia", "official_name:eo": "Federacia Demokratia Respubliko Etiopujo", "official_name:es": "República Democrática Federal de Etiopía", "official_name:et": "Etioopia Demokraatlik Liitvabariik", "official_name:eu": "Etiopiako Errepublika Federal Demokratikoa", "official_name:fa": "جمهوری دموکراتیک فدرال اتیوپی", "official_name:fi": "Etiopian demokraattinen liittotasavalta", "official_name:fr": "République fédérale démocratique d'Éthiopie", "official_name:fy": "Federale Demokratyske Republyk Etioopje", "official_name:ga": "Poblacht Dhaonlathach Fheidearálach na hAetóipe", "official_name:gd": "Poblachd Fheadarail Dheamocratach na h-Aetiòp", "official_name:gl": "República Democrática Federal de Etiopía", "official_name:gn": "Tetã Etiopia", "official_name:gu": "સંઘીય અને લોકતાંત્રિક ઇથિયોપિયાનું ગણરાજ્ય", "official_name:gv": "Pobblaght ny h-Eetoip", "official_name:ha": "Jamhuriyar Ethiopia", "official_name:he": "הרפובליקה הדמוקרטית הפדרלית של אתיופיה", "official_name:hi": "इथियोपिया संघीय लोकतांत्रिक गणराज्य", "official_name:hr": "Savezna Demokratska Republika Etiopija", "official_name:hu": "Etióp Szövetségi Demokratikus Köztársaság", "official_name:hy": "Եթովպիայի Դաշնային Ժողովրդավարական Հանրապետություն", "official_name:ia": "Republica Democratic Federal de Ethiopia", "official_name:id": "Republik Demokratik Federal Etiopia", "official_name:ig": "Obodo Ochíchìíwú Ethiopia", "official_name:it": "Repubblica federale democratica dell'Etiopia", "official_name:ja": "エチオピア連邦民主共和国", "official_name:jv": "Républik Dhémokratik Federal Éteopiah", "official_name:ka": "ეთიოპიის ფედერაციული დემოკრატიული რესპუბლიკა", "official_name:kg": "Demokrasiyawi Ripeblik Itiopia", "official_name:kk": "Эфиопия Федеративтік Демократиялық Республикасы", "official_name:kn": "ಇತಿಯೋಪಿಯ ಸಂಯುಕ್ತ ಪ್ರಜಾಸತ್ತಾತ್ಮಕ ಗಣರಾಜ್ಯ", "official_name:ko": "에티오피아 연방 민주 공화국", "official_name:ku": "Komara Federal a Demokratîk a Etiyopya", "official_name:kv": "Эфиопия Федерация Демократия Республика", "official_name:lb": "Demokratesch Bundesrepublik Ethiopien", "official_name:lt": "Etiopijos Federacinė Demokratinė Respublika", "official_name:lv": "Etiopijas Federatīvā Demokrātiskā Republika", "official_name:mk": "Сојузна Демократска Република Етиопија", "official_name:ml": "ഫെഡറൽ ഡെമോക്രാറ്റിക് റിപ്പബ്ലിക്ക് ഓഫ് എത്യോപ്യ", "official_name:mn": "Холбооны Бүгд Найрамдах Ардчилсан Этиоп Улс", "official_name:mr": "इथियोपियाचे संघीय लोकशाही प्रजासत्ताक", "official_name:ms": "Republik Demokratik Persekutuan Habsyah", "official_name:my": "ဖက်ဒရယ် အီသီယိုးပီးယား ဒီမိုကရက်တစ် သမ္မတနိုင်ငံ", "official_name:ne": "सङ्घीय लोकतान्त्रिक गणतन्त्र इथियोपिया", "official_name:nl": "Federale Democratische Republiek Ethiopië", "official_name:nn": "Den føderale demokratiske republikken Etiopia", "official_name:no": "Den føderale demokratiske republikken Etiopia", "official_name:oc": "Republica Federala Democratica d'Etiopia", "official_name:om": "Rippabliikii Federaalawaa Dimokraatawaa Itiyoophiyaa", "official_name:os": "Федеративон Демократион Республикæ Эфиопи", "official_name:pa": "ਇਥੋਪੀਆ ਦਾ ਸੰਘੀ ਲੋਕਤੰਤਰੀ ਗਣਰਾਜ", "official_name:pl": "Federalna Demokratyczna Republika Etiopii", "official_name:ps": "ایتوپیا فدرالي دموکراتیک جمهوریت", "official_name:pt": "República Democrática Federal da Etiópia", "official_name:qu": "Runakamaq Tantasqa Republika Ithiwpiya", "official_name:rm": "Republica federala democrata da l'Etiopia", "official_name:ro": "Republica Federală Democratică a Etiopiei", "official_name:ru": "Федеративная Демократическая Республика Эфиопия", "official_name:sc": "Republica Federali de Etiòpia", "official_name:sg": "Gbêko Kùodùorùosêse tî Ngunuhalëzo tî Etiopïi", "official_name:sh": "Savezna Demokratska Republika Etiopija", "official_name:si": "ඉතියෝපියානු ෆෙඩරල් ප්‍රජාතන්ත්‍රවාදී ජනරජය", "official_name:sk": "Etiópska federatívna demokratická republika", "official_name:sl": "Federatívna demokrátična repúblika Etiópija", "official_name:sm": "Feterale Faatemokalasi Ripapelika o Aitiope", "official_name:so": "Jamhuuriyadda Dimuqraadiga Federaalka Itoobiya", "official_name:sr": "Савезна Демократска Република Етиопија", "official_name:su": "Républik Démokratik Féderal Étiopia", "official_name:sv": "Demokratiska förbundsrepubliken Etiopien", "official_name:sw": "Shirikisho la Jamhuri ya Kidemokrasia ya Ethiopia", "official_name:ta": "எத்தியோப்பியக் கூட்டாட்சி சனநாயகக் குடியரசு", "official_name:te": "ఫెడరల్ ప్రజాతంత్ర గణతంత్ర ఇథియోపియా", "official_name:th": "สหพันธ์สาธารณรัฐประชาธิปไตยเอธิโอเปีย", "official_name:tk": "Efiopiýa Federatiw Demokratik Respublikasy", "official_name:tl": "Demokratikong Republikang Pederal ng Ethiopia", "official_name:tr": "Etiyopya Federal Demokratik Cumhuriyeti", "official_name:tt": "Хәбәшстан Федератив Демократик Җөмһүрияте", "official_name:uk": "Федерати́вна Демократи́чна Респу́бліка Ефіо́пія", "official_name:ur": "وفاقی جمہوری جمہوریہ ایتھوپیا", "official_name:uz": "Efiopiya Federativ Demokratik Respublikasi", "official_name:vi": "Cộng hòa Dân chủ Liên bang Ethiopia", "official_name:wo": "Réewum Ecoopi", "official_name:yi": "פעדעראלע דעמאקראטישע רעפובליק פון עטיאפיע", "official_name:zh": "埃塞俄比亚联邦民主共和国", "official_name:ady": "Федератив Демократик Республикэу Эфиопие", "official_name:als": "Demokratischi Bundesrepublik Ethiopie", "official_name:arc": "ܩܘܛܢܝܘܬܐ ܕܝܡܘܩܪܛܝܬܐ ܦܕܪܠܝܬܐ ܕܟܘܫ", "official_name:arz": "جمهورية اثيوبيا الديموقراطيه الفيدراليه", "official_name:ast": "República Democrática Federal d'Etiopía", "official_name:bcl": "Repúblika Demokrátikan Pederal nin Etiopia", "official_name:bjn": "Republik Demokratik Federal Ethiopia", "official_name:bpy": "কেন্দ্রীয় গনতান্ত্রিক প্রজাতন্ত্রি ইথিওপিয়া", "official_name:bxr": "Холбооной Бүгэдэ Найрамдаха Арадшалһан Этиопи Улас", "official_name:chr": "ᎠᏰᏟᏥ ᏈᏍᏗᎤᎾᏓᏅᏖᏗ ᏍᎦᏚᎩ ᎾᎿ ᎢᏗᎣᏈᎠ", "official_name:ckb": "کۆماری دیموکراتیکی فیدراڵی ئیتیۆپیا", "official_name:crh": "Abeşistan Federal Demokratik Cumhuriyeti", "official_name:diq": "Cumhuriyeto Federal Etyopya", "official_name:dsb": "Etiopiska zwězkowa demokratiska republika", "official_name:ext": "Repúbrica Democrática Federal d'Etiopia", "official_name:frr": "Demokratisk Bundesrepubliik Etioopien", "official_name:gan": "埃塞俄比亞聯邦民主共和國", "official_name:hsb": "Etiopiska federalna demokratiska republika", "official_name:ilo": "Pederal Demokratiko a Republika ti Etiopia", "official_name:jam": "Fedaral Dimokratik Ripoblik a Iityuopia", "official_name:lad": "Repuvlika Demokratika Federala de Etiopia", "official_name:lez": "Федератив Демократиядин Республика Эфиопия", "official_name:lij": "Ityop'iya Federalawi Demokrasiyawi Ripeblik", "official_name:lmo": "Repüblica Demucratiga Federala d'Etiopia", "official_name:mai": "इथियोपिया संघीय लोकतांत्रिक गणराज्य", "official_name:min": "Republik Demokratik Pasarikatan Ethiopia", "official_name:mzn": "اتیوپی ِفدرال ِدموکراتیک جمهوری", "official_name:nah": "Nenāhuatīliztli Tlācatēpacholiztli Tlācatlahtohcāyōtl Etiopia", "official_name:nan": "Ethiopia Liân-pang Jîn-bîn Kiōng-hô-kok", "official_name:nds": "Demokraatsche Bundsrepublik Äthiopien", "official_name:new": "संघीय गणतन्त्र इथियोपिया", "official_name:nso": "Federal repabliki Ethiopia", "official_name:pap": "Republika Federal Demokratiko di Ethiopia", "official_name:pms": "Repùblica Democràtica Federal d'Etiòpia", "official_name:sah": "Этиопия Федерал Демократ Республиката", "official_name:scn": "Ripùbbrica Fidirali Dimucràtica d'Etiopia", "official_name:sco": "Federal Democratic Republic o Ethiopie", "official_name:stq": "Demokratiske Buundesrepublik Äthiopien", "official_name:szl": "Federalno Dymokratyčno Republika Etjopije", "official_name:vec": "Republica Democratica Federale de l'Etiopia", "official_name:vep": "Efiopijan Federativine Demokratine Tazovaldkund", "official_name:wuu": "埃塞俄比亞聯邦民主共和國", "official_name:xmf": "ეთიოპიაშ ფედერაციული დემოკრატიული რესპუბლიკა", "official_name:yue": "埃塞俄比亞聯邦民主共和國", "official_name:zea": "Federale Democratische Republiek Ethiopië", "old_name:roa-tara": "Abissinie", "short_name:be-tarask": "ФДРЭ", "official_name:fiu-vro": "Etioopia Demokraatlinõ Liitvabariik", "official_name:roa-tara": "Repubbleche Federale Democrateche d'Etiopie", "official_name:be-tarask": "Фэдэраты́ўная Дэмакраты́чная Рэспу́бліка Этыёпія"}}, "center_lat": 8.64, "center_lon": 39.62, "area_m2": 1133927188885, "timezone": "Africa/Addis_Ababa", "population": 104957438, "wikidata_id": "Q115", "wikipedia_id": "am:ኢትዮጵያ"}}