{"type": "Feature", "geometry": {"type": "MultiPolygon", "coordinates": [[[[163.001, 5.369], [163.022, 5.364], [163.016, 5.323], [163.036, 5.315], [163.021, 5.275], [163.002, 5.259], [162.958, 5.273], [162.913, 5.275], [162.901, 5.298], [162.943, 5.323], [162.961, 5.355], [163.001, 5.369]]], [[[158.332, 6.887], [158.338, 6.872], [158.301, 6.87], [158.293, 6.857], [158.318, 6.833], [158.298, 6.804], [158.231, 6.786], [158.209, 6.787], [158.165, 6.805], [158.149, 6.834], [158.15, 6.888], [158.116, 6.892], [158.113, 6.932], [158.158, 6.953], [158.184, 6.96], [158.18, 6.986], [158.24, 6.958], [158.265, 6.971], [158.298, 6.924], [158.318, 6.925], [158.332, 6.887]]], [[[151.869, 7.437], [151.848, 7.416], [151.838, 7.435], [151.849, 7.469], [151.882, 7.444], [151.869, 7.437]]], [[[151.838, 7.317], [151.838, 7.341], [151.824, 7.351], [151.826, 7.37], [151.853, 7.356], [151.849, 7.314], [151.838, 7.317]]], [[[138.196, 9.554], [138.19, 9.535], [138.163, 9.515], [138.144, 9.515], [138.136, 9.539], [138.144, 9.561], [138.167, 9.578], [138.176, 9.556], [138.196, 9.554]]], [[[138.085, 9.479], [138.055, 9.453], [138.087, 9.54], [138.113, 9.579], [138.138, 9.587], [138.121, 9.519], [138.123, 9.502], [138.101, 9.496], [138.085, 9.479]]]]}, "properties": {"name": "Federated States of Micronesia", "iso1": "FM", "admin_level": 2, "osm_id": 571802, "countrylevel_id": "iso1:FM", "osm_data": {"localname": "Micronesia", "official_name": "Federated States of Micronesia", "alltags": {"flag": "http://upload.wikimedia.org/wikipedia/commons/e/e4/Flag_of_the_Federated_States_of_Micronesia.svg", "name:ar": "ميكرونيسيا", "name:br": "Mikronezia", "name:cs": "Mikronésie", "name:en": "Federated States of Micronesia", "name:eo": "Mikronezio", "name:es": "Estados Federados de Micronesia", "name:fr": "États fédérés de Micronésie", "name:hr": "Mikronezija", "name:ia": "Micronesia", "name:io": "Mikronezia", "name:nl": "Micronesia", "name:oc": "Estats Federats de Micronesia", "name:pl": "Mikronezja", "name:ru": "Федеративные Штаты Микронезии", "name:sk": "Mikronézia", "name:sr": "Микронезија", "name:sv": "Mikronesiens federerade stater", "name:ta": "மைக்குரோனீசியக் கூட்டு நாடுகள்", "name:uk": "Федеративні Штати Мікронезії", "name:vi": "Liên bang Micronesia", "name:vo": "Smala-Seanuäns", "name:zh": "密克罗尼西亚 / 密克羅尼西亞", "name:jbo": "mikronesias", "name:nan": "Micronesia", "name:zh-Hans": "密克罗尼西亚", "name:zh-Hant": "密克羅尼西亞", "official_name": "Federated States of Micronesia", "is_in:continent": "Oceania", "default_language": "en", "official_name:ar": "ولايات ميكرونيسيا المتحدة", "official_name:cs": "Federativní státy Mikronésie", "official_name:en": "Federated States of Micronesia", "official_name:eo": "Federaciaj Ŝtatoj de Mikronezio;Federacio de Mikronezio", "official_name:es": "Estados Federados de Micronesia", "official_name:fr": "États fédérés de Micronésie", "official_name:pl": "Sfederowane Stany Mikronezji", "official_name:ru": "Федеративные Штаты Микронезии", "official_name:sk": "Mikronézske federatívne štáty", "official_name:sr": "Федералне Државе Микронезије"}}, "center_lat": 7.09, "center_lon": 154.8, "area_m2": 705994861, "timezone": "Pacific/Pohnpei", "population": 105544, "wikidata_id": "Q702", "wikipedia_id": "en:Federated States of Micronesia"}}