{"type": "Feature", "geometry": {"type": "MultiPolygon", "coordinates": [[[[-61.788, 12], [-61.786, 12.011], [-61.756, 12.028], [-61.753, 12.071], [-61.762, 12.088], [-61.753, 12.121], [-61.735, 12.152], [-61.724, 12.183], [-61.689, 12.217], [-61.66, 12.235], [-61.646, 12.226], [-61.618, 12.23], [-61.602, 12.192], [-61.609, 12.128], [-61.622, 12.121], [-61.627, 12.073], [-61.636, 12.045], [-61.668, 12.02], [-61.735, 12.011], [-61.754, 11.998], [-61.788, 12]]], [[[-61.5, 12.436], [-61.493, 12.463], [-61.454, 12.488], [-61.448, 12.52], [-61.421, 12.503], [-61.431, 12.483], [-61.43, 12.458], [-61.456, 12.458], [-61.5, 12.436]]]]}, "properties": {"name": "Grenada", "iso1": "GD", "admin_level": 2, "osm_id": 550727, "countrylevel_id": "iso1:GD", "osm_data": {"localname": "Grenada", "official_name": "", "alltags": {"flag": "http://upload.wikimedia.org/wikipedia/commons/b/bc/Flag_of_Grenada.svg", "name:br": "Grenada", "name:cs": "Grenada", "name:en": "Grenada", "name:eo": "Grenado", "name:fr": "Grenade", "name:fy": "Grenada", "name:hr": "Grenada", "name:nl": "Grenada", "name:ru": "Гренада", "name:sl": "Grenada", "name:ta": "கிரெனடா", "name:uk": "Гренада", "name:vo": "Grenadeän", "name:jbo": "grenadas", "name:tzl": "Grenada", "driving_side": "left", "is_in:continent": "North America", "default_language": "en", "official_name:cs": "Grenadský stát"}}, "center_lat": 12.15, "center_lon": -61.66, "area_m2": 354482257, "timezone": "America/Grenada", "population": 107825, "wikidata_id": "Q769", "wikipedia_id": "en:Grenada"}}