{"type": "Feature", "geometry": {"type": "Polygon", "coordinates": [[[-2.531, 49.462], [-2.537, 49.435], [-2.567, 49.423], [-2.612, 49.418], [-2.66, 49.434], [-2.652, 49.458], [-2.619, 49.463], [-2.543, 49.508], [-2.504, 49.503], [-2.508, 49.48], [-2.531, 49.462]]]}, "properties": {"name": "Guernsey", "iso1": "GG", "admin_level": 2, "osm_id": 270009, "countrylevel_id": "iso1:GG", "osm_data": {"localname": "Guernsey", "official_name": "Bailiwick of Guernsey", "alltags": {"flag": "http://upload.wikimedia.org/wikipedia/commons/f/fa/Flag_of_Guernsey.svg", "name:af": "Guernsey", "name:an": "Guernési", "name:ar": "غيرنزي", "name:az": "Gernsi", "name:be": "Гернсi", "name:bg": "Гърнси", "name:br": "Gwernenez", "name:bs": "Guernsey", "name:ca": "Guernsey", "name:cs": "Guernsey", "name:cy": "Ynys y Garn", "name:da": "Guernsey", "name:dv": "ގުއާންސޭ", "name:el": "Γουερνισία", "name:en": "Guernsey", "name:eo": "Gernezejo", "name:es": "Guernsey", "name:et": "Guernsey", "name:eu": "Guernesey", "name:fa": "گرنزی", "name:fi": "Guernsey", "name:fr": "Guernesey", "name:fy": "Guernsey", "name:gd": "Guernsey", "name:gl": "Guernsey", "name:gv": "Guernsey", "name:he": "גרנזי", "name:hi": "ग्वेर्नसे", "name:hr": "Guernsey", "name:hu": "Guernsey", "name:hy": "Գերնսի", "name:id": "Guernsey", "name:io": "Guernsey", "name:is": "Guernsey", "name:it": "Guernsey", "name:ja": "ガーンジー", "name:jv": "Guernsey", "name:ka": "გერნზი", "name:kn": "ಗುರ್ನ್‌ಸಿ", "name:ko": "건지 섬", "name:kw": "Gwernenys", "name:la": "Lisia", "name:lb": "Guernsey", "name:li": "Guernsey", "name:lt": "Gernsis", "name:lv": "Gērnsija", "name:mi": "Kōnihi", "name:mk": "Гернзи", "name:mr": "गर्न्सी", "name:ms": "Guernsey", "name:ne": "गुर्न्जी", "name:nl": "Guernsey", "name:nn": "Guernsey", "name:no": "Guernsey", "name:oc": "Guernesey", "name:os": "Гернси", "name:pa": "ਗਰਨਜ਼ੇ", "name:pl": "Guernsey", "name:pt": "Guernsey", "name:ro": "Guernsey", "name:ru": "Гернси", "name:rw": "Gwasi", "name:sh": "Guernsey", "name:sk": "Guernsey", "name:sl": "Guernsey", "name:sq": "Guernsey", "name:sr": "Гернзи", "name:su": "Guernsey", "name:sv": "Guernsey", "name:sw": "Guernsey", "name:ta": "குயெர்ன்சி", "name:tg": "Гернси", "name:th": "เกิร์นซีย์", "name:tl": "Gernesey", "name:tr": "Guernsey", "name:tt": "Гернси", "name:uk": "Гернсі", "name:ur": "گرنزی", "name:vi": "Guernsey", "name:yo": "Guernsey", "name:zh": "根西島", "int_name": "Guernsey", "name:ace": "Guernsey", "name:ang": "Guernsey", "name:ast": "Guérnesei", "name:bpy": "গুৱেরেনসি", "name:frp": "Guèrneseyi", "name:frr": "Guernsey", "name:hsb": "Guernsey", "name:lij": "Guernsey", "name:nan": "Guernsey", "name:nds": "Guernsey", "name:nov": "Guernsey", "name:nrm": "Guernési", "name:pnb": "گرنزی", "name:sco": "Guernsey", "name:war": "Guernsey", "name:wuu": "隑恩塞岛", "name:xal": "Гөрнзин Арл", "name:yue": "根息島", "alt_name:el": "Γκέρνσεϊ", "name:nds-nl": "Guernsey", "alt_name2:el": "Λισία", "official_name": "Bailiwick of Guernsey", "name:be-tarask": "Гернсі", "is_in:continent": "Europe", "official_name:eo": "Voktujo Gernezejo"}}, "center_lat": 49.48, "center_lon": -2.52, "area_m2": 78510308, "timezone": "Europe/Guernsey", "population": 63026, "wikidata_id": "Q25230", "wikipedia_id": "fr:Bailliage de Guernesey"}}