{"type": "Feature", "geometry": {"type": "MultiPolygon", "coordinates": [[[[5.62, -1.456], [5.627, -1.445], [5.617, -1.41], [5.63, -1.403], [5.649, -1.418], [5.651, -1.461], [5.62, -1.456]]], [[[8.611, 3.647], [8.612, 3.666], [8.64, 3.695], [8.68, 3.749], [8.69, 3.776], [8.714, 3.788], [8.728, 3.762], [8.764, 3.757], [8.799, 3.762], [8.809, 3.754], [8.863, 3.759], [8.883, 3.767], [8.913, 3.752], [8.934, 3.711], [8.938, 3.667], [8.926, 3.627], [8.906, 3.609], [8.868, 3.556], [8.844, 3.506], [8.843, 3.505], [8.836, 3.483], [8.81, 3.453], [8.808, 3.424], [8.793, 3.406], [8.769, 3.396], [8.773, 3.346], [8.765, 3.318], [8.712, 3.265], [8.7, 3.234], [8.677, 3.209], [8.631, 3.234], [8.589, 3.247], [8.562, 3.24], [8.515, 3.257], [8.498, 3.255], [8.44, 3.28], [8.436, 3.309], [8.423, 3.326], [8.417, 3.36], [8.419, 3.387], [8.44, 3.441], [8.459, 3.466], [8.478, 3.475], [8.555, 3.461], [8.574, 3.469], [8.586, 3.504], [8.573, 3.515], [8.584, 3.54], [8.608, 3.562], [8.611, 3.647]]], [[[9.331, 0.889], [9.303, 0.897], [9.307, 0.933], [9.337, 0.927], [9.331, 0.889]]], [[[9.823, 2.349], [9.837, 2.325], [9.834, 2.285], [9.848, 2.246], [9.886, 2.232], [9.905, 2.198], [9.925, 2.206], [9.951, 2.189], [10.019, 2.171], [10.05, 2.171], [10.073, 2.163], [10.108, 2.167], [10.122, 2.157], [10.16, 2.173], [10.163, 2.163], [10.189, 2.173], [10.4, 2.174], [10.656, 2.174], [10.998, 2.174], [11, 2.171], [11.36, 2.172], [11.355, 2.16], [11.347, 1.831], [11.347, 1.735], [11.349, 1.471], [11.353, 1.002], [10.954, 1.003], [10.708, 1.003], [10.466, 1.002], [9.992, 1.003], [9.985, 0.981], [9.994, 0.939], [9.958, 0.929], [9.895, 0.953], [9.879, 0.988], [9.843, 1.005], [9.798, 1], [9.781, 1.04], [9.749, 1.063], [9.707, 1.07], [9.662, 1.059], [9.62, 1.049], [9.585, 1.031], [9.583, 1.036], [9.581, 1.039], [9.572, 1.073], [9.571, 1.078], [9.564, 1.091], [9.56, 1.098], [9.559, 1.1], [9.557, 1.103], [9.55, 1.115], [9.54, 1.124], [9.537, 1.127], [9.533, 1.13], [9.532, 1.131], [9.53, 1.131], [9.528, 1.131], [9.527, 1.131], [9.527, 1.13], [9.501, 1.135], [9.5, 1.133], [9.492, 1.137], [9.487, 1.137], [9.486, 1.137], [9.484, 1.137], [9.479, 1.138], [9.477, 1.135], [9.476, 1.135], [9.474, 1.135], [9.473, 1.134], [9.472, 1.133], [9.472, 1.132], [9.471, 1.13], [9.47, 1.129], [9.469, 1.129], [9.467, 1.128], [9.466, 1.128], [9.462, 1.127], [9.462, 1.126], [9.454, 1.124], [9.453, 1.124], [9.453, 1.123], [9.453, 1.122], [9.452, 1.121], [9.451, 1.12], [9.443, 1.118], [9.441, 1.117], [9.44, 1.117], [9.439, 1.117], [9.438, 1.115], [9.436, 1.114], [9.435, 1.114], [9.434, 1.114], [9.431, 1.114], [9.429, 1.115], [9.427, 1.115], [9.426, 1.114], [9.425, 1.114], [9.423, 1.114], [9.418, 1.113], [9.417, 1.112], [9.416, 1.111], [9.416, 1.108], [9.413, 1.107], [9.412, 1.107], [9.412, 1.105], [9.411, 1.105], [9.411, 1.104], [9.411, 1.102], [9.411, 1.101], [9.409, 1.101], [9.407, 1.102], [9.406, 1.103], [9.405, 1.104], [9.404, 1.106], [9.4, 1.109], [9.398, 1.11], [9.397, 1.11], [9.396, 1.11], [9.396, 1.109], [9.392, 1.109], [9.39, 1.108], [9.389, 1.108], [9.385, 1.111], [9.383, 1.113], [9.383, 1.115], [9.378, 1.127], [9.377, 1.131], [9.376, 1.133], [9.37, 1.138], [9.369, 1.138], [9.367, 1.139], [9.366, 1.14], [9.365, 1.14], [9.363, 1.139], [9.36, 1.139], [9.357, 1.146], [9.358, 1.146], [9.36, 1.146], [9.359, 1.15], [9.351, 1.151], [9.35, 1.152], [9.351, 1.151], [9.352, 1.151], [9.354, 1.151], [9.355, 1.151], [9.355, 1.152], [9.356, 1.151], [9.36, 1.157], [9.359, 1.157], [9.356, 1.162], [9.343, 1.172], [9.342, 1.173], [9.342, 1.174], [9.341, 1.174], [9.341, 1.176], [9.343, 1.177], [9.348, 1.18], [9.349, 1.18], [9.351, 1.18], [9.352, 1.181], [9.354, 1.181], [9.356, 1.183], [9.357, 1.183], [9.358, 1.184], [9.361, 1.185], [9.362, 1.184], [9.365, 1.181], [9.366, 1.183], [9.371, 1.19], [9.371, 1.193], [9.375, 1.206], [9.376, 1.206], [9.377, 1.209], [9.381, 1.211], [9.384, 1.214], [9.387, 1.222], [9.385, 1.226], [9.386, 1.23], [9.387, 1.233], [9.388, 1.234], [9.389, 1.237], [9.39, 1.245], [9.391, 1.25], [9.392, 1.25], [9.396, 1.255], [9.397, 1.257], [9.398, 1.262], [9.396, 1.274], [9.397, 1.274], [9.401, 1.277], [9.405, 1.28], [9.406, 1.282], [9.408, 1.283], [9.41, 1.283], [9.411, 1.283], [9.416, 1.283], [9.422, 1.282], [9.428, 1.285], [9.43, 1.288], [9.431, 1.291], [9.433, 1.296], [9.434, 1.301], [9.435, 1.303], [9.436, 1.304], [9.438, 1.305], [9.439, 1.307], [9.441, 1.31], [9.443, 1.314], [9.446, 1.315], [9.458, 1.323], [9.46, 1.327], [9.462, 1.34], [9.461, 1.345], [9.462, 1.35], [9.463, 1.354], [9.464, 1.36], [9.463, 1.366], [9.463, 1.375], [9.463, 1.377], [9.46, 1.393], [9.461, 1.395], [9.462, 1.396], [9.465, 1.399], [9.47, 1.404], [9.471, 1.404], [9.471, 1.405], [9.478, 1.418], [9.479, 1.418], [9.48, 1.419], [9.482, 1.419], [9.484, 1.42], [9.49, 1.426], [9.496, 1.432], [9.497, 1.432], [9.503, 1.434], [9.505, 1.435], [9.51, 1.438], [9.512, 1.439], [9.514, 1.44], [9.519, 1.444], [9.522, 1.447], [9.526, 1.451], [9.527, 1.452], [9.528, 1.453], [9.53, 1.455], [9.531, 1.455], [9.537, 1.459], [9.547, 1.483], [9.548, 1.484], [9.549, 1.486], [9.551, 1.486], [9.552, 1.486], [9.554, 1.486], [9.555, 1.486], [9.559, 1.487], [9.561, 1.487], [9.564, 1.493], [9.57, 1.504], [9.573, 1.51], [9.573, 1.511], [9.574, 1.512], [9.574, 1.513], [9.576, 1.52], [9.577, 1.521], [9.579, 1.527], [9.583, 1.537], [9.585, 1.541], [9.587, 1.546], [9.589, 1.551], [9.59, 1.551], [9.59, 1.552], [9.593, 1.555], [9.593, 1.556], [9.596, 1.574], [9.6, 1.577], [9.601, 1.578], [9.611, 1.585], [9.612, 1.586], [9.613, 1.587], [9.615, 1.589], [9.615, 1.59], [9.62, 1.591], [9.625, 1.6], [9.624, 1.604], [9.623, 1.605], [9.622, 1.605], [9.62, 1.609], [9.619, 1.609], [9.615, 1.611], [9.614, 1.613], [9.613, 1.615], [9.612, 1.617], [9.612, 1.618], [9.611, 1.619], [9.611, 1.621], [9.61, 1.622], [9.61, 1.623], [9.609, 1.623], [9.608, 1.624], [9.607, 1.624], [9.605, 1.626], [9.605, 1.628], [9.605, 1.63], [9.608, 1.657], [9.609, 1.662], [9.609, 1.663], [9.609, 1.664], [9.611, 1.671], [9.612, 1.671], [9.616, 1.673], [9.621, 1.679], [9.622, 1.681], [9.623, 1.683], [9.625, 1.686], [9.629, 1.69], [9.631, 1.691], [9.632, 1.691], [9.636, 1.692], [9.637, 1.693], [9.639, 1.694], [9.641, 1.695], [9.645, 1.702], [9.653, 1.705], [9.655, 1.706], [9.657, 1.707], [9.658, 1.708], [9.658, 1.71], [9.661, 1.714], [9.661, 1.715], [9.679, 1.741], [9.68, 1.742], [9.681, 1.744], [9.688, 1.749], [9.69, 1.748], [9.691, 1.748], [9.692, 1.748], [9.693, 1.749], [9.694, 1.749], [9.697, 1.752], [9.699, 1.754], [9.701, 1.754], [9.702, 1.755], [9.704, 1.756], [9.713, 1.763], [9.724, 1.776], [9.726, 1.778], [9.727, 1.779], [9.73, 1.784], [9.733, 1.787], [9.742, 1.806], [9.742, 1.807], [9.744, 1.816], [9.743, 1.82], [9.731, 1.82], [9.73, 1.821], [9.73, 1.825], [9.73, 1.828], [9.73, 1.825], [9.735, 1.826], [9.735, 1.821], [9.737, 1.821], [9.737, 1.826], [9.738, 1.821], [9.739, 1.821], [9.741, 1.821], [9.743, 1.839], [9.762, 1.866], [9.788, 1.883], [9.793, 1.905], [9.812, 1.919], [9.811, 1.943], [9.811, 1.945], [9.809, 1.955], [9.808, 1.959], [9.804, 1.973], [9.803, 1.975], [9.803, 1.98], [9.801, 1.988], [9.793, 2.014], [9.791, 2.017], [9.79, 2.02], [9.789, 2.025], [9.786, 2.033], [9.775, 2.07], [9.773, 2.075], [9.772, 2.076], [9.764, 2.094], [9.767, 2.097], [9.767, 2.099], [9.767, 2.106], [9.768, 2.11], [9.778, 2.114], [9.78, 2.116], [9.782, 2.117], [9.785, 2.122], [9.788, 2.126], [9.788, 2.129], [9.789, 2.131], [9.791, 2.139], [9.792, 2.14], [9.793, 2.144], [9.793, 2.145], [9.794, 2.148], [9.795, 2.153], [9.796, 2.161], [9.796, 2.171], [9.795, 2.172], [9.793, 2.182], [9.793, 2.192], [9.794, 2.194], [9.794, 2.195], [9.794, 2.201], [9.794, 2.204], [9.794, 2.205], [9.794, 2.213], [9.795, 2.217], [9.794, 2.222], [9.794, 2.225], [9.791, 2.241], [9.79, 2.245], [9.789, 2.249], [9.789, 2.259], [9.79, 2.265], [9.784, 2.287], [9.784, 2.289], [9.783, 2.292], [9.775, 2.317], [9.776, 2.32], [9.776, 2.321], [9.777, 2.322], [9.777, 2.325], [9.782, 2.327], [9.79, 2.329], [9.792, 2.33], [9.793, 2.331], [9.794, 2.333], [9.799, 2.336], [9.799, 2.337], [9.801, 2.336], [9.804, 2.335], [9.805, 2.335], [9.812, 2.337], [9.813, 2.339], [9.814, 2.339], [9.815, 2.339], [9.817, 2.34], [9.818, 2.341], [9.82, 2.348], [9.822, 2.348], [9.823, 2.349]]]]}, "properties": {"name": "Equatorial Guinea", "iso1": "GQ", "admin_level": 2, "osm_id": 192791, "countrylevel_id": "iso1:GQ", "osm_data": {"localname": "Guinea Ecuatorial", "official_name": "República de Guinea Ecuatorial", "alltags": {"flag": "http://upload.wikimedia.org/wikipedia/commons/3/31/Flag_of_Equatorial_Guinea.svg", "name:af": "Ekwatoriaal-Guinee", "name:ak": "Gini Ikuweta", "name:am": "ኢኳቶሪያል ጊኔ", "name:an": "Guinea Equatorial", "name:ar": "غينيا الاستوائية", "name:az": "Ekvatorial Qvineya", "name:ba": "Экватор Гвинеяһы", "name:be": "Экватарыяльная Гвінея", "name:bg": "Екваториална Гвинея", "name:bh": "भूमध्यरेखीय गिनी", "name:bm": "Cɛmajan Gine", "name:bn": "বিষুবীয় গিনি", "name:bo": "ཨི་ཁུའ་ཊོ་རལ་གི་ནེ།", "name:br": "Ginea ar C'heheder", "name:bs": "Ekvatorijalna Gvineja", "name:ca": "Guinea Equatorial", "name:ce": "Дуьнена асанан Гвине", "name:co": "Guinea Equatoriale", "name:cs": "Rovníková Guinea", "name:cv": "Экваториаллă Гвиней", "name:cy": "Gini Gyhydeddol", "name:da": "Ækvatorialguinea", "name:dv": "އިކުއެޓޯރިއަލް ގިނީ", "name:dz": "ཨེ་ཀུ་ཊོ་རེལ་ གི་ནི", "name:ee": "Gini Ekwatoria", "name:el": "Ισημερινή Γουινέα", "name:en": "Equatorial Guinea", "name:eo": "Ekvatora Gvineo", "name:es": "Guinea Ecuatorial", "name:et": "Ekvatoriaal-Guinea", "name:eu": "Ekuatore Ginea", "name:fa": "گینه استوایی", "name:ff": "Gine Ekwatoriyal", "name:fi": "Päiväntasaajan Guinea", "name:fo": "Ekvatorguinea", "name:fr": "Guinée équatoriale", "name:fy": "Ekwatoriaal-Guinee", "name:ga": "an Ghuine Mheánchriosach", "name:gd": "Gini Mheadhan-Chriosach", "name:gl": "Guinea Ecuatorial", "name:gu": "ઇક્વેટોરિયલ ગિની", "name:gv": "Guinea Chryss ny Cruinney", "name:ha": "Gini Ikwatoriya", "name:he": "גינאה המשוונית", "name:hi": "भूमध्यरेखीय गिनी", "name:hr": "Ekvatorska Gvineja", "name:ht": "Gine ekwateryal", "name:hu": "Egyenlítői-Guinea", "name:hy": "Հասարակածային Գվինեա", "name:ia": "Guinea Equatorial", "name:id": "Guinea Khatulistiwa", "name:ie": "Equatorial Guinéa", "name:ig": "Equatorial Guinea", "name:io": "Equatorala Guinea", "name:is": "Miðbaugs-Gínea", "name:it": "Guinea Equatoriale", "name:ja": "赤道ギニア", "name:jv": "Guinea Khatulistiwa", "name:ka": "ეკვატორული გვინეა", "name:kg": "Ginea ya Ekwatelo", "name:ki": "Ginekweta", "name:kk": "Экваторлық Гвинея", "name:km": "ហ្គីណេអេក្វាទ័រ", "name:kn": "ವಿಷುವದ್ರೇಖೆಯ ಗಿನಿ", "name:ko": "적도 기니", "name:ks": "اِکوِٹورِیَل گِنی", "name:ku": "Gîneya Rojbendî", "name:kw": "Gyni Ekwadoriel", "name:la": "Guinea Aequatorensis", "name:lb": "Equatorialguinea", "name:lg": "Equatorial Guinea", "name:li": "Equatoriaal Guinee", "name:ln": "Gine-Ekwatorial", "name:lo": "ອີຄົວໂທເລຍກີເນຍ", "name:lt": "Pusiaujo Gvinėja", "name:lv": "Ekvatoriālā Gvineja", "name:mg": "Ginea Ekoatorialy", "name:mi": "Kini Ekuatoria", "name:mk": "Екваторска Гвинеја", "name:ml": "ഇക്വറ്റോറിയൽ ഗിനി", "name:mr": "इक्वेटोरीयल गिनी", "name:ms": "Guinea Khatulistiwa", "name:mt": "Gwinea Ekwatorjali", "name:my": "အီကွေတာဂီနီနိုင်ငံ", "name:na": "Gini t Ekwador", "name:nb": "Ekvatorial-Guinea", "name:ne": "इक्वेटोरियल गिनी", "name:nl": "Equatoriaal Guinee", "name:nn": "Ekvatorial-Guinea", "name:no": "Ekvatorial-Guinea", "name:nv": "Gíní Nahasdzáán Ałníiʼgi Siʼánígíí", "name:oc": "Guinèa Eqüatoriala", "name:om": "Iqu’aatoriyaal Giinii", "name:or": "ବିଷୁବରେଖୀୟ ଗିନି", "name:os": "Экваториалон Гвиней", "name:pa": "ਭੂ-ਮੱਧ ਰੇਖਾਈ ਗਿਨੀ", "name:pl": "Gwinea Równikowa", "name:ps": "اېکواټوريال ګوينا", "name:pt": "Guiné Equatorial", "name:qu": "Chawpipacha Khiniya", "name:rm": "Guinea Equatoriala", "name:ro": "Guineea Ecuatorială", "name:ru": "Экваториальная Гвинея", "name:rw": "Gineya Ekwatoriyale", "name:sc": "Guinea Ecuadoriale", "name:se": "Beaivvedási Guinea", "name:sg": "Ginëe tî Ekuatëre", "name:sh": "Ekvatorijalna Gvineja", "name:si": "සමක ගිනියාව", "name:sk": "Rovníková Guinea", "name:sl": "Ekvatorialna Gvineja", "name:sm": "Kini Ekuatoria", "name:sn": "Equatorial Guinea", "name:so": "Ikweetiga Guinea", "name:sq": "Guinea Ekuatoriale", "name:sr": "Екваторијална Гвинеја", "name:st": "Equatorial Guinea", "name:su": "Guinéa Khatulistiwa", "name:sv": "Ekvatorialguinea", "name:sw": "Guinea ya Ikweta", "name:ta": "எக்குவடோரியல் கினி", "name:te": "ఎక్వేటోరియాల్ గినియా", "name:tg": "Гвинеяи Истивоӣ", "name:th": "อิเควทอเรียลกินี", "name:ti": "ኢኳቶሪያል ጊኒ", "name:tk": "Ekwatorial Gwineýa", "name:tl": "Gineang Ekwatoriyal", "name:to": "ʻEkueta Kini", "name:tr": "Ekvator Ginesi", "name:ts": "Gineya ya le Nkaveni", "name:tt": "Экваториа́ль Гвине́я", "name:ug": "ئېكۋاتور گۋىنېيىسى", "name:uk": "Екваторіа́льна Ґвіне́я", "name:ur": "استوائی گنی", "name:uz": "Ekvatorli Gvineya", "name:vi": "Guinea Xích Đạo", "name:vo": "Kveatora-Gineyän", "name:wo": "Gineg yamoo", "name:yi": "עקוואטארישע גינע", "name:yo": "Guinea Alágedeméjì", "name:zh": "赤道几内亚", "name:zu": "iGini Enkabazwe", "name:als": "Equatorialginea", "name:arz": "جينيا الاستوائيه", "name:ast": "Guinea Ecuatorial", "name:bar": "Equatorialguinea", "name:bcl": "Guineyang Ekwatoryal", "name:bjn": "Guinea Katulistiwa", "name:bpy": "একুয়াটরিয়াল গায়ানা", "name:bxr": "Экваторын Гвиней", "name:cdo": "Chiáh-dô̤ Guinea", "name:ceb": "Gineang Ekwatoryal", "name:ckb": "گینێی ئیستوایی", "name:crh": "Ekvatorial Gvineya", "name:diq": "Gineya Ekwatori", "name:dsb": "Ekwatorialna Guineja", "name:dty": "इक्वेटोरियल गिनिया", "name:ext": "Guinea Equatorial", "name:frp": "Guinê èquatoriâla", "name:frr": "Ekwatoriaal-Guinea", "name:gag": "Ekvatorial Gvineya", "name:hak": "Chhak-tho Guinea", "name:hif": "Equatorial Guinea", "name:hsb": "Ekwatorialna Gineja", "name:ilo": "Guinea Ekuatorial", "name:jam": "Ekuatuorial Gini", "name:jbo": "guineas. zei brazbani", "name:kaa": "Ekvatorial Gvineya", "name:kab": "Ginya Tasebgast", "name:kbp": "Kinee-Ekwatoriyaaalɩ", "name:ksh": "Äquatorial Jineeja", "name:lad": "Ginea Ekvatoriala", "name:lez": "Экваториал Гвинея", "name:lij": "Guinea Equatoriâ", "name:lmo": "Guinea Equaturiala", "name:lrc": "گینە ئوستوڤایی", "name:lzh": "赤道幾內亞", "name:min": "Guinea Khatulistiwa", "name:mrj": "Экваториаль Гвиней", "name:mzn": "استوایی گینه", "name:nah": "Guinea Tlahcotlālticpac", "name:nan": "Chhiah-tō Guinea", "name:nds": "Äquatoriaal-Guinea", "name:new": "इक्वेटोरियल गिनी", "name:nov": "Equatoral Gini", "name:nso": "Equatorial Guinea", "name:olo": "Ekvuatourielline Gvinei", "name:pam": "Equatorial Guinea", "name:pih": "Ekwatoryal Gini", "name:pms": "Guinea Equatorial", "name:pnb": "استوائی گنی", "name:sah": "Экуатор Гуинеята", "name:scn": "Guinia Ecuaturiali", "name:sco": "Equatorial Guinea", "name:stq": "Äquatorioal Guinea", "name:szl": "Růwńikowo Gwinyjo", "name:tok": "ma Kinejekatolija", "name:vec": "Guinea Equatorial", "name:vep": "Ekvatorialine Gvinei", "name:vls": "Equatorioal-Guinea", "name:war": "Guinea Ecuatorial", "name:wuu": "赤道幾內亞", "name:xal": "Экватор Гвинемудин Орн", "name:xmf": "ეკვატორული გვინეა", "name:yue": "赤道畿內亞", "name:zea": "Equatoriaol Hunea", "alt_name:fr": "Guinée-Équatoriale", "alt_name:ga": "an Ghuine Mheánchiorclach", "alt_name:gd": "Guinea a’ Chrios Mheadhain;Gini Mheadhan-chearcallach", "alt_name:ha": "Ginen Ekweita", "alt_name:hr": "Ekvatorijalna Gvineja", "alt_name:se": "Ekvatoriála Guinea", "alt_name:su": "Guinéa Ékuator", "name:bat-smg": "Ekvatuorė Gvinėjė", "name:fiu-vro": "Ekvatoriaal-Ginea", "official_name": "República de Guinea Ecuatorial", "name:be-tarask": "Экватарыя́льная Гвінэ́я", "name:zh_pinyin": "Chìdào Jīnèiyà", "is_in:continent": "Africa", "official_name:af": "Republiek Ekwatoriaal-Guinee", "official_name:am": "የኢኳቶሪያል ጊኔ ሪፐብሊከ", "official_name:an": "República de Guinea Ecuatorial", "official_name:ar": "جمهورية غينيا الاستوائية", "official_name:az": "Ekvatorial Qvineya Respublikası", "official_name:ba": "Экватор Гвинеяһы Республикаһы", "official_name:be": "Рэспубліка Экватарыяльная Гвінея", "official_name:bh": "Република Екваториална Гвинея", "official_name:bm": "Cɛmajan Gine ka fasojamana", "official_name:bn": "বিষুবীয় গিনির প্রজাতন্ত্র", "official_name:br": "Republik Ginea ar C'heheder", "official_name:bs": "Republika Ekvatorijalna Gvineja", "official_name:ca": "República Guinea Equatorial", "official_name:cs": "Republika Rovníková Guinea", "official_name:cy": "Gweriniaeth Gini Gyhydeddol", "official_name:da": "Republikken Ækvatorialguinea", "official_name:de": "Republik Äquatorialguinea", "official_name:el": "Δημοκρατία της Ισημερινής Γουινέας", "official_name:en": "Republic of Equatorial Guinea", "official_name:eo": "Ekvatorgvinea Respubliko", "official_name:es": "República de Guinea Ecuatorial", "official_name:et": "Ekvatoriaal-Guinea Vabariik", "official_name:eu": "Ekuatore Gineako Errepublika", "official_name:fa": "جمهوری گینه استوایی", "official_name:fi": "Päiväntasaajan Guinean tasavalta", "official_name:fo": "Lýðveldið Ekvatorguinea", "official_name:fr": "République de Guinée équatoriale", "official_name:fy": "Republyk Ekwatoriaal-Guinee", "official_name:gl": "República da Guinea Ecuatorial", "official_name:gv": "Pobblaght Ghuinea Chryss ny Cruinney", "official_name:ha": "Jamhuriyar Gini Ikwatoriya", "official_name:he": "רפובליקת גינאה המשוונית", "official_name:hi": "भूमध्यरेखीय गिनी गणराज्य", "official_name:hr": "Republika Ekvatorska Gvineja", "official_name:hu": "Egyenlítői-Guinea-i Köztársaság", "official_name:ia": "Republica de Guinea Equatorial", "official_name:id": "Republik Guinea Khatulistiwa", "official_name:io": "Republiko Equatorala Guinea", "official_name:it": "Repubblica della Guinea Equatoriale", "official_name:ja": "赤道ギニア共和国", "official_name:ka": "ეკვატორული გვინეის რესპუბლიკა", "official_name:kg": "Repubilika ya Ginea ya Ekwatelo", "official_name:kk": "Экваторлық Гвинея Республика", "official_name:kn": "ವಿಷುವದ್ರೇಖೆಯ ಗಿನಿ ಗಣರಾಜ್ಯ", "official_name:ko": "적도 기니 공화국", "official_name:kw": "Repoblek Gyni Ekwadoriel", "official_name:la": "res publica Guineae Aequinoctialis", "official_name:lb": "Republik Equatorialguinea", "official_name:li": "Rippubliek Equatoriaol Guinee", "official_name:ln": "Republíki ya Gine-Ekwatorial", "official_name:lt": "Pusiaujo Gvinėjos Respublika", "official_name:lv": "Ekvatoriālās Gvinejas Republika", "official_name:mi": "Whenua Tū Wehe o Kini Ekuatoria", "official_name:mk": "Република Екваторска Гвинеја", "official_name:ml": "റിപ്പബ്ലിക്ക് ഓഫ് ഇക്വറ്റോറിയൽ ഗിനി", "official_name:mr": "इक्वेटोरीयल गिनीचे प्रजासत्ताक", "official_name:ms": "Republik Guinea Khatulistiwa", "official_name:my": "အီကွေတာဂီနီသမ္မတနိုင်ငံ", "official_name:ne": "गणतन्त्र इक्वेटोरियल गिनी", "official_name:nl": "Republiek Equatoriaal-Guinea", "official_name:nn": "Republikken Ekvatorial-Guinea", "official_name:no": "Republikken Ekvatorial-Guinea", "official_name:oc": "Republica de Guinèa Eqüatoriala", "official_name:om": "Riippabiliika Iqu’aatoriyaal Giinii", "official_name:os": "Республикæ Экваториалон Гвиней", "official_name:pa": "ਭੂ-ਮੱਧ ਰੇਖਾਈ ਗਿਨੀ ਦਾ ਗਣਰਾਜ", "official_name:pl": "Republika Gwinei Równikowej", "official_name:pt": "República da Guiné Equatorial", "official_name:qu": "Chawpipacha Khiniya Ripuwlika", "official_name:ro": "Republica Guineea Ecuatorială", "official_name:ru": "Республика Экваториальная Гвинея", "official_name:sg": "Ködörösêse tî Ginëe tî Ekuatëre", "official_name:sh": "Republika Ekvatorijalna Gvineja", "official_name:sk": "Republika Rovníkovej Guiney", "official_name:sl": "Republika Ekvatorialna Gvineja", "official_name:so": "Jamhuuriyadda Ikweetiga Guinea", "official_name:sq": "Republika e Guinesë Ekuatoriale", "official_name:sr": "Република Екваторијална Гвинеја", "official_name:su": "Républik Guinéa Khatulistiwa", "official_name:sv": "Republiken Ekvatorialguinea", "official_name:sw": "Jamhuri ya Guinea ya Ikweta", "official_name:ta": "எக்குவடோரியல் கினி குடியரசு", "official_name:th": "สาธารณรัฐอิเควทอเรียลกินี", "official_name:tk": "Ekwatorial Gwineýa Respublikasy", "official_name:tr": "Ekvator Ginesi Cumhuriyeti", "official_name:tt": "Экваториа́ль Гвине́я Җөмһүрияте́", "official_name:ug": "ئېكۋاتور گۋىنېيىسى جۇمھۇرىيىتى", "official_name:uk": "Респу́бліка Екваторіа́льна Ґвіне́я", "official_name:ur": "جمہوریہ استوائی گنی", "official_name:uz": "Ekvator Gvineyasi Respublikasi", "official_name:vi": "Cộng hòa Guinea Xích Đạo", "official_name:wo": "Réewum Gineg yamoo", "official_name:yi": "רעפובליק פון עקוואַטארישער גינע", "official_name:yo": "Orile-ede Olominira ile Guinea Agedemejiaye", "official_name:zh": "赤道幾內亞共和國", "official_name:zu": "IRiphabliki weGini Enkabazwe", "official_name:als": "Republik Equatorialginea", "official_name:arz": "جمهورية غينيا الاستوائيه", "official_name:ast": "República de Guinea Ecuatorial", "official_name:bar": "Republik Equatorialguinea", "official_name:bjn": "Republik Guinea Katulistiwa", "official_name:bpy": "প্রজাতন্ত্রি একুয়াটরিয়াল গায়ানা", "official_name:ckb": "کۆماری گینێی ئیستوایی", "official_name:diq": "Cumhuriyetê Gineya Ekwatori", "official_name:dsb": "Republika Ekwatorialna Guineja", "official_name:frr": "Republiik Ekwatoriaal-Guinea", "official_name:hif": "Republic of Equatorial Guinea", "official_name:hsb": "Republika Ekwatorialna Gineja", "official_name:ilo": "Republika iti Guinea Ekuatorial", "official_name:jam": "Ripoblik a Ekuatuorial Gini", "official_name:lad": "Repuvlika Ginea Ekvatoriala", "official_name:lez": "Республика Экваториал Гвинея", "official_name:lrc": "کوٙمأرە ڤولات گینە ئوستوڤایی", "official_name:min": "Republik Guinea Khatulistiwa", "official_name:mrj": "Экваториаль Гвиней Республика", "official_name:nah": "Tlācatlahtohcāyōtl Guinea Tlahcotlālticpac", "official_name:nan": "Chhiah-tō Guinea Kiōng-hô-kok", "official_name:nso": "Repabliki ya Equatorial Guinea", "official_name:olo": "Ekvuatouriellizen Gvinein Tazavaldu", "official_name:pam": "Republic of Equatorial Guinea", "official_name:sah": "Экуатор Гуинеятын Республиката", "official_name:sco": "Republic o Equatorial Guinea", "official_name:szl": "Republika Růwńikowyj Gwinyji", "official_name:vep": "Ekvatorialižen Gvinejan Tazovaldkund", "official_name:xmf": "ეკვატორული გვინეაშ რესპუბლიკა", "official_name:fiu-vro": "Ekvatoriaal-Ginea Vabariik", "official_name:be-tarask": "Рэспу́бліка Экватарыя́льная Гвінэ́я"}}, "center_lat": 1.7, "center_lon": 10.34, "area_m2": 27303479947, "timezone": "Africa/Malabo", "population": 1267689, "wikidata_id": "Q983", "wikipedia_id": "es:Guinea Ecuatorial"}}