{"type": "Feature", "geometry": {"type": "Polygon", "coordinates": [[[73.256, -52.999], [73.258, -52.982], [73.3, -52.97], [73.331, -52.98], [73.367, -53.019], [73.437, -53.03], [73.537, -53.013], [73.571, -53.018], [73.609, -53.036], [73.642, -53.04], [73.68, -53.088], [73.752, -53.119], [73.718, -53.139], [73.641, -53.163], [73.598, -53.187], [73.573, -53.192], [73.518, -53.187], [73.498, -53.195], [73.437, -53.165], [73.402, -53.131], [73.394, -53.089], [73.38, -53.076], [73.38, -53.046], [73.364, -53.021], [73.301, -53.021], [73.256, -52.999]]]}, "properties": {"name": "Heard Island and McDonald Islands", "iso1": "HM", "admin_level": 4, "osm_id": 2177227, "countrylevel_id": "iso1:HM", "osm_data": {"localname": "Heard Island and McDonald Islands", "official_name": "", "alltags": {"name:ar": "جزيرة هيرد وجزر ماكدونالد", "name:be": "Востраў Херд і Астравы Мак-Доналд", "name:el": "Νήσοι Χερντ και Μακντόναλντ", "name:en": "Heard Island and McDonald Islands", "name:eo": "Herda kaj Makdonaldaj Insuloj", "name:es": "Islas Heard y McDonald", "name:fr": "Îles Heard-et-MacDonald", "name:he": "האי הרד ואיי מקדונלד", "name:hi": "हर्ड द्वीप और मैकडोनाल्ड द्वीप", "name:hr": "Otok Heard i Otočje McDonald", "name:is": "Heard og McDonaldseyjar", "name:it": "Isole Heard e McDonald", "name:ja": "ハード島とマクドナルド諸島", "name:ko": "허드 맥도널드 제도", "name:lt": "Herdo ir Makdonaldo salos", "name:lv": "Hērda Sala un Makdonalda Salas", "name:ms": "Pulau Heard dan Kepulauan McDonald", "name:nl": "Heard- en McDonaldeilanden", "name:pl": "Wyspy Heard i McDonalda", "name:ru": "Остров Херд и острова Макдональд", "name:ta": "ஏர்ட் தீவும் மக்டொனால்ட் தீவும்", "name:th": "เกาะเฮิร์ดและหมู่เกาะแมกดอนัลด์", "name:uk": "Острів Херд і острови Макдональд", "name:zh": "赫德岛和麦克唐纳群岛", "population": "0", "is_in:continent": "Antarctica", "population:date": "2011", "official_name:en": "Territory of Heard Island and McDonald Islands"}}, "center_lat": -53.09, "center_lon": 73.51, "area_m2": 369881853, "wikidata_id": "Q131198", "wikipedia_id": "en:Heard Island and McDonald Islands"}}