{"type": "Feature", "geometry": {"type": "MultiPolygon", "coordinates": [[[[134.222, 7.001], [134.254, 7.042], [134.268, 7.01], [134.224, 6.984], [134.222, 7.001]]], [[[134.592, 7.412], [134.591, 7.41], [134.583, 7.359], [134.536, 7.345], [134.508, 7.361], [134.503, 7.401], [134.503, 7.402], [134.478, 7.443], [134.487, 7.482], [134.504, 7.482], [134.504, 7.481], [134.509, 7.481], [134.51, 7.481], [134.528, 7.505], [134.529, 7.507], [134.531, 7.506], [134.531, 7.505], [134.532, 7.505], [134.531, 7.506], [134.53, 7.507], [134.528, 7.507], [134.528, 7.506], [134.527, 7.505], [134.525, 7.504], [134.524, 7.504], [134.497, 7.514], [134.515, 7.535], [134.521, 7.558], [134.538, 7.564], [134.538, 7.565], [134.535, 7.594], [134.552, 7.596], [134.583, 7.62], [134.6, 7.612], [134.601, 7.612], [134.627, 7.637], [134.636, 7.658], [134.631, 7.683], [134.631, 7.684], [134.611, 7.725], [134.63, 7.726], [134.645, 7.701], [134.637, 7.686], [134.647, 7.629], [134.637, 7.572], [134.637, 7.551], [134.617, 7.535], [134.616, 7.535], [134.624, 7.514], [134.638, 7.499], [134.624, 7.484], [134.607, 7.462], [134.607, 7.443], [134.59, 7.43], [134.592, 7.412]]]]}, "properties": {"name": "Palau", "iso1": "PW", "admin_level": 2, "osm_id": 571805, "countrylevel_id": "iso1:PW", "osm_data": {"localname": "Belau", "official_name": "", "alltags": {"flag": "http://upload.wikimedia.org/wikipedia/commons/4/48/Flag_of_Palau.svg", "name:ar": "بالاو", "name:cs": "Palau", "name:en": "Palau", "name:eo": "Palaŭo", "name:fr": "Palaos", "name:hr": "Palau", "name:ia": "Palau", "name:io": "Palau", "name:lt": "Palau", "name:mi": "Pārau", "name:oc": "Belau", "name:pl": "Palau", "name:ru": "Палау", "name:sk": "Palau", "name:sl": "Palau", "name:sr": "Палау", "name:ta": "பலாவு", "name:uk": "Палау", "name:vi": "Palau", "name:vo": "Palauäns", "name:zh": "帕劳 / 帛琉", "name:jbo": "belaus", "name:nan": "Palau", "name:zh-Hans": "帕劳", "name:zh-Hant": "帛琉", "is_in:continent": "Oceania", "default_language": "en", "official_name:ar": "جمهورية بالاو", "official_name:cs": "Republika Palau", "official_name:en": "Republic of Palau", "official_name:es": "República de Palaos", "official_name:ru": "Республика Палау"}}, "center_lat": 7.41, "center_lon": 134.5, "area_m2": 457348634, "timezone": "Pacific/Palau", "population": 21729, "wikidata_id": "Q695", "wikipedia_id": "en:Palau"}}