{"type": "Feature", "geometry": {"type": "MultiPolygon", "coordinates": [[[[-10, -40.316], [-10.002, -40.283], [-9.958, -40.276], [-9.925, -40.281], [-9.897, -40.327], [-9.877, -40.347], [-9.891, -40.37], [-9.919, -40.365], [-9.962, -40.34], [-9.971, -40.325], [-10, -40.316]]], [[[-12.313, -37.064], [-12.263, -37.063], [-12.234, -37.081], [-12.218, -37.119], [-12.284, -37.17], [-12.316, -37.16], [-12.345, -37.127], [-12.342, -37.095], [-12.313, -37.064]]], [[[-12.703, -37.311], [-12.706, -37.295], [-12.677, -37.282], [-12.642, -37.3], [-12.683, -37.321], [-12.703, -37.311]]], [[[-5.784, -16], [-5.76, -15.95], [-5.711, -15.918], [-5.705, -15.906], [-5.673, -15.916], [-5.657, -15.911], [-5.649, -15.94], [-5.636, -15.948], [-5.637, -15.974], [-5.651, -15.977], [-5.672, -16], [-5.709, -16.003], [-5.746, -16.027], [-5.758, -16.009], [-5.784, -16]]], [[[-14.42, -7.942], [-14.402, -7.902], [-14.378, -7.889], [-14.355, -7.898], [-14.298, -7.944], [-14.313, -7.966], [-14.367, -7.986], [-14.401, -7.991], [-14.42, -7.942]]]]}, "properties": {"name": "Saint Helena, Ascension and Tristan da Cunha", "iso1": "SH", "admin_level": 2, "osm_id": 1964272, "countrylevel_id": "iso1:SH", "osm_data": {"localname": "Saint Helena, Ascension and Tristan da Cunha", "official_name": "", "alltags": {"flag": "http://upload.wikimedia.org/wikipedia/commons/0/00/Flag_of_Saint_Helena.svg", "name:ar": "سانت هيلينا، أسينسيون وتريستان دا كونها", "name:cs": "Svatá Helena, Ascension a Tristan da Cunha", "name:el": "Αγία Ελένη, Ασενσιόν και Τριστάν ντα Κούνια", "name:en": "Saint Helena, Ascension and Tristan da Cunha", "name:eo": "Sankta Heleno, Ascension kaj Tristan da Cunha", "name:fa": "سنت هلنا، اسنشن و تریستان دا کونا", "name:fr": "Sainte-Hélène, Ascension et Tristan da Cunha", "name:hr": "Sveta Helena", "name:hu": "Szent Ilona, Ascension és Tristan da Cunha", "name:lt": "Šventoji Elena, Dangun Žengimo ir Tristanas da Kunja", "name:mk": "Света Елена, Успение и Тристан да Куња", "name:nl": "Sint-Helena, Ascension en Tristan da Cunha", "name:pt": "Santa Helena, Ascensão e Tristão da Cunha", "name:ru": "Острова Святой Елены, Вознесения и Тристан-да-Кунья", "name:sk": "Svätá Helena, Ascension a Tristan da Cunha", "name:sr": "Света Хелена, Асенсион, и Тристан да Куња", "name:uk": "Острови Святої Єлени, Вознесіння і Тристан-да-Кунья", "name:vi": "Saint Helena, Ascension và Tristan da Cunha", "old_name": "Saint Helena and Dependencies", "old_name:eo": "Sankta Heleno kaj Dependaĵoj", "old_name:vi": "Saint Helena và những lãnh thổ phụ thuộc", "default_language": "en"}}, "center_lat": -25.44, "center_lon": -10.45, "area_m2": 400487121, "timezone": "Atlantic/St_Helena", "population": 4534, "wikidata_id": "Q192184", "wikipedia_id": "en:Saint Helena, Ascension and Tristan da Cunha"}}