{"type": "Feature", "geometry": {"type": "Polygon", "coordinates": [[[41.559, -1.662], [41.559, -1.599], [41.425, -1.417], [41.277, -1.217], [41.113, -0.995], [40.993, -0.834], [40.993, -0.2], [40.994, 0.182], [40.995, 0.461], [40.995, 0.931], [40.993, 1.231], [40.992, 2.176], [40.99, 2.31], [40.989, 2.828], [41.147, 2.985], [41.312, 3.141], [41.458, 3.355], [41.575, 3.525], [41.717, 3.716], [41.907, 3.983], [41.913, 3.996], [41.943, 4.017], [41.946, 4.055], [41.979, 4.095], [42, 4.094], [42.061, 4.161], [42.087, 4.179], [42.194, 4.179], [42.37, 4.189], [42.475, 4.203], [42.526, 4.202], [42.587, 4.216], [42.669, 4.249], [42.736, 4.264], [42.816, 4.265], [42.849, 4.28], [42.884, 4.307], [42.925, 4.348], [42.969, 4.403], [43.007, 4.468], [43.026, 4.542], [43.045, 4.573], [43.079, 4.602], [43.157, 4.652], [43.232, 4.695], [43.435, 4.795], [43.552, 4.835], [43.683, 4.867], [43.756, 4.886], [43.79, 4.889], [43.809, 4.902], [44.032, 4.943], [44.079, 4.94], [44.154, 4.95], [44.202, 4.942], [44.385, 4.941], [44.549, 4.926], [44.59, 4.932], [44.625, 4.933], [44.678, 4.923], [44.73, 4.929], [44.901, 4.923], [44.933, 4.927], [44.978, 4.923], [44.998, 4.946], [45.411, 5.536], [45.845, 5.957], [46.511, 6.52], [46.521, 6.531], [46.873, 6.908], [47.338, 7.383], [47.557, 7.561], [47.982, 8], [47.92, 8], [47.012, 8.001], [46.993, 8.002], [46.226, 8.263], [45.626, 8.462], [45.268, 8.579], [44.69, 8.773], [44.414, 8.864], [44.235, 8.922], [44.033, 8.989], [43.997, 9], [43.972, 9.026], [43.87, 9.124], [43.841, 9.158], [43.643, 9.357], [43.593, 9.359], [43.544, 9.377], [43.516, 9.382], [43.464, 9.416], [43.439, 9.447], [43.414, 9.513], [43.406, 9.545], [43.33, 9.602], [43.298, 9.606], [43.284, 9.684], [43.257, 9.843], [43.15, 9.899], [43.138, 9.886], [43.116, 9.889], [43.086, 9.908], [43.036, 10.034], [42.997, 10.084], [42.97, 10.102], [42.887, 10.19], [42.86, 10.229], [42.833, 10.278], [42.805, 10.352], [42.792, 10.404], [42.763, 10.456], [42.747, 10.512], [42.72, 10.534], [42.709, 10.578], [42.71, 10.622], [42.719, 10.647], [42.766, 10.722], [42.875, 10.87], [42.909, 10.913], [42.93, 10.947], [42.962, 10.984], [42.967, 10.997], [43.228, 11.412], [43.257, 11.461], [43.315, 11.459], [43.334, 11.423], [43.384, 11.384], [43.424, 11.38], [43.46, 11.348], [43.484, 11.355], [43.479, 11.328], [43.492, 11.29], [43.496, 11.241], [43.506, 11.214], [43.533, 11.183], [43.552, 11.179], [43.576, 11.122], [43.595, 11.088], [43.628, 11.043], [43.653, 10.995], [43.681, 10.956], [43.748, 10.877], [43.819, 10.802], [43.904, 10.723], [43.972, 10.671], [44.063, 10.611], [44.092, 10.573], [44.121, 10.554], [44.148, 10.544], [44.201, 10.506], [44.236, 10.472], [44.237, 10.472], [44.268, 10.445], [44.302, 10.424], [44.374, 10.397], [44.416, 10.39], [44.447, 10.401], [44.53, 10.388], [44.569, 10.378], [44.61, 10.38], [44.689, 10.407], [44.744, 10.418], [44.791, 10.413], [44.817, 10.416], [44.891, 10.404], [44.947, 10.409], [45.008, 10.441], [44.999, 10.453], [45.044, 10.471], [45.089, 10.509], [45.142, 10.517], [45.183, 10.541], [45.233, 10.56], [45.272, 10.609], [45.317, 10.657], [45.334, 10.664], [45.409, 10.658], [45.46, 10.664], [45.49, 10.687], [45.508, 10.687], [45.531, 10.708], [45.575, 10.724], [45.595, 10.762], [45.62, 10.765], [45.675, 10.785], [45.718, 10.817], [45.745, 10.826], [45.771, 10.859], [45.805, 10.867], [45.856, 10.832], [45.85, 10.818], [45.883, 10.81], [45.906, 10.823], [45.973, 10.78], [46.03, 10.772], [46.031, 10.772], [46.069, 10.765], [46.117, 10.765], [46.203, 10.782], [46.236, 10.782], [46.283, 10.751], [46.333, 10.698], [46.348, 10.691], [46.397, 10.683], [46.433, 10.682], [46.487, 10.696], [46.53, 10.717], [46.59, 10.73], [46.62, 10.73], [46.673, 10.75], [46.72, 10.78], [46.77, 10.801], [46.811, 10.824], [46.846, 10.853], [46.868, 10.86], [46.895, 10.891], [46.927, 10.903], [46.93, 10.916], [46.963, 10.918], [46.99, 10.93], [47.009, 10.961], [47.044, 10.963], [47.101, 10.989], [47.114, 11.021], [47.143, 11.042], [47.149, 11.064], [47.198, 11.079], [47.29, 11.13], [47.417, 11.178], [47.444, 11.174], [47.492, 11.182], [47.531, 11.183], [47.559, 11.17], [47.63, 11.116], [47.669, 11.095], [47.691, 11.091], [47.735, 11.101], [47.761, 11.114], [47.794, 11.12], [47.866, 11.113], [47.896, 11.116], [47.917, 11.127], [47.951, 11.116], [48.039, 11.121], [48.053, 11.128], [48.096, 11.131], [48.132, 11.126], [48.158, 11.134], [48.212, 11.183], [48.243, 11.207], [48.306, 11.223], [48.356, 11.271], [48.404, 11.285], [48.439, 11.282], [48.478, 11.287], [48.52, 11.309], [48.594, 11.308], [48.659, 11.326], [48.7, 11.311], [48.762, 11.296], [48.883, 11.248], [48.917, 11.241], [48.919, 11.241], [48.961, 11.24], [49.061, 11.267], [49.208, 11.294], [49.269, 11.309], [49.303, 11.336], [49.329, 11.331], [49.393, 11.331], [49.421, 11.335], [49.477, 11.375], [49.51, 11.383], [49.531, 11.408], [49.556, 11.449], [49.662, 11.463], [49.697, 11.478], [49.754, 11.458], [49.826, 11.46], [49.885, 11.481], [49.919, 11.505], [49.947, 11.516], [49.999, 11.503], [50.076, 11.509], [50.148, 11.549], [50.217, 11.565], [50.228, 11.577], [50.263, 11.584], [50.3, 11.617], [50.313, 11.618], [50.387, 11.656], [50.415, 11.665], [50.446, 11.685], [50.476, 11.714], [50.505, 11.751], [50.53, 11.815], [50.548, 11.877], [50.566, 11.9], [50.63, 11.942], [50.672, 11.936], [50.69, 11.939], [50.728, 11.959], [50.783, 11.979], [50.805, 11.982], [50.843, 11.955], [50.976, 11.92], [51.049, 11.876], [51.091, 11.87], [51.146, 11.872], [51.189, 11.849], [51.239, 11.835], [51.275, 11.842], [51.288, 11.832], [51.281, 11.801], [51.26, 11.768], [51.259, 11.735], [51.247, 11.715], [51.256, 11.679], [51.224, 11.63], [51.2, 11.607], [51.161, 11.558], [51.123, 11.494], [51.128, 11.457], [51.114, 11.401], [51.083, 11.327], [51.077, 11.237], [51.083, 11.207], [51.109, 11.162], [51.176, 11.152], [51.182, 11.138], [51.149, 11.079], [51.134, 11.038], [51.12, 10.978], [51.118, 10.931], [51.13, 10.781], [51.127, 10.71], [51.13, 10.683], [51.145, 10.664], [51.152, 10.624], [51.171, 10.577], [51.159, 10.564], [51.124, 10.561], [51.105, 10.548], [51.113, 10.503], [51.088, 10.466], [51.033, 10.454], [51.042, 10.407], [51.059, 10.416], [51.143, 10.432], [51.236, 10.433], [51.237, 10.442], [51.201, 10.473], [51.197, 10.497], [51.218, 10.527], [51.238, 10.508], [51.293, 10.48], [51.327, 10.471], [51.351, 10.482], [51.392, 10.477], [51.414, 10.446], [51.405, 10.417], [51.372, 10.37], [51.34, 10.378], [51.294, 10.374], [51.266, 10.384], [51.272, 10.41], [51.232, 10.425], [51.181, 10.421], [51.091, 10.407], [51.055, 10.398], [50.994, 10.372], [50.934, 10.341], [50.898, 10.31], [50.895, 10.256], [50.905, 10.2], [50.897, 10.139], [50.886, 10.094], [50.898, 10.027], [50.9, 9.992], [50.885, 9.965], [50.885, 9.947], [50.869, 9.895], [50.854, 9.86], [50.837, 9.742], [50.822, 9.669], [50.823, 9.649], [50.801, 9.588], [50.804, 9.52], [50.82, 9.486], [50.846, 9.474], [50.845, 9.455], [50.807, 9.381], [50.749, 9.297], [50.718, 9.278], [50.657, 9.207], [50.645, 9.162], [50.653, 9.139], [50.647, 9.092], [50.621, 9.053], [50.589, 9.032], [50.575, 9.01], [50.509, 8.958], [50.446, 8.896], [50.42, 8.856], [50.411, 8.832], [50.408, 8.787], [50.393, 8.755], [50.384, 8.702], [50.344, 8.658], [50.326, 8.601], [50.334, 8.559], [50.316, 8.515], [50.299, 8.492], [50.24, 8.437], [50.225, 8.403], [50.203, 8.38], [50.176, 8.327], [50.149, 8.286], [50.144, 8.247], [50.129, 8.197], [50.066, 8.139], [50.029, 8.122], [49.982, 8.092], [49.921, 8.032], [49.896, 8.003], [49.852, 7.966], [49.815, 7.91], [49.804, 7.841], [49.807, 7.818], [49.831, 7.771], [49.823, 7.737], [49.766, 7.657], [49.763, 7.632], [49.738, 7.571], [49.678, 7.453], [49.646, 7.403], [49.646, 7.402], [49.575, 7.3], [49.475, 7.169], [49.416, 7.071], [49.394, 7.048], [49.338, 6.955], [49.287, 6.877], [49.211, 6.744], [49.199, 6.704], [49.142, 6.58], [49.139, 6.559], [49.113, 6.502], [49.089, 6.435], [49.073, 6.345], [49.079, 6.304], [49.063, 6.24], [48.98, 6.052], [48.921, 5.937], [48.892, 5.889], [48.796, 5.74], [48.731, 5.643], [48.646, 5.498], [48.619, 5.459], [48.545, 5.37], [48.528, 5.335], [48.419, 5.2], [48.382, 5.145], [48.357, 5.118], [48.274, 5.008], [48.228, 4.935], [48.198, 4.893], [48.167, 4.835], [48.149, 4.79], [48.115, 4.734], [48.085, 4.677], [48.021, 4.58], [47.982, 4.506], [47.943, 4.453], [47.864, 4.376], [47.827, 4.335], [47.826, 4.335], [47.794, 4.298], [47.748, 4.237], [47.677, 4.168], [47.585, 4.065], [47.522, 3.988], [47.494, 3.949], [47.445, 3.894], [47.298, 3.747], [47.27, 3.723], [47.193, 3.645], [47.146, 3.589], [47.085, 3.521], [47.036, 3.472], [46.925, 3.359], [46.866, 3.286], [46.844, 3.255], [46.798, 3.202], [46.734, 3.138], [46.671, 3.067], [46.611, 3.015], [46.573, 2.977], [46.456, 2.884], [46.411, 2.836], [46.336, 2.778], [46.313, 2.751], [46.294, 2.708], [46.245, 2.678], [46.198, 2.634], [46.166, 2.585], [46.147, 2.576], [46.121, 2.546], [46.107, 2.519], [46.05, 2.473], [46.005, 2.425], [45.979, 2.411], [45.901, 2.352], [45.849, 2.327], [45.829, 2.311], [45.791, 2.296], [45.669, 2.218], [45.604, 2.183], [45.557, 2.157], [45.48, 2.106], [45.425, 2.077], [45.401, 2.058], [45.334, 2.023], [45.27, 1.993], [45.269, 1.992], [45.231, 1.969], [45.191, 1.958], [45.181, 1.948], [45.141, 1.937], [45.046, 1.886], [45.018, 1.861], [44.938, 1.814], [44.912, 1.803], [44.854, 1.763], [44.774, 1.714], [44.748, 1.69], [44.714, 1.674], [44.691, 1.653], [44.666, 1.642], [44.617, 1.6], [44.591, 1.584], [44.427, 1.457], [44.32, 1.376], [44.293, 1.349], [44.224, 1.29], [44.196, 1.26], [44.133, 1.205], [44.131, 1.19], [44.099, 1.171], [44.036, 1.119], [44.021, 1.091], [43.993, 1.08], [43.953, 1.049], [43.938, 1.027], [43.847, 0.964], [43.775, 0.907], [43.754, 0.881], [43.674, 0.817], [43.519, 0.677], [43.518, 0.676], [43.383, 0.541], [43.189, 0.327], [43.185, 0.322], [43.086, 0.213], [42.982, 0.102], [42.867, -0.024], [42.676, -0.213], [42.617, -0.264], [42.585, -0.303], [42.572, -0.342], [42.551, -0.369], [42.521, -0.376], [42.479, -0.426], [42.485, -0.448], [42.459, -0.455], [42.434, -0.48], [42.385, -0.543], [42.377, -0.546], [42.334, -0.597], [42.311, -0.631], [42.234, -0.732], [42.221, -0.758], [42.178, -0.809], [42.149, -0.831], [42.113, -0.844], [42.083, -0.899], [42.054, -0.927], [42.03, -0.959], [42.03, -0.974], [41.978, -1.017], [41.957, -1.087], [41.9, -1.171], [41.875, -1.204], [41.854, -1.22], [41.787, -1.329], [41.784, -1.341], [41.736, -1.398], [41.678, -1.49], [41.644, -1.55], [41.626, -1.569], [41.559, -1.662]]]}, "properties": {"name": "Somalia", "iso1": "SO", "admin_level": 2, "osm_id": 192799, "countrylevel_id": "iso1:SO", "osm_data": {"localname": "Soomaaliya الصومال", "official_name": "", "alltags": {"flag": "http://upload.wikimedia.org/wikipedia/commons/a/a0/Flag_of_Somalia.svg", "name:af": "Somalië", "name:am": "ሶማሊያ", "name:an": "Somalia", "name:ar": "الصومال", "name:az": "Somali", "name:ba": "Сомали", "name:be": "Самалі", "name:bg": "Сомалия", "name:bn": "সোমালিয়া", "name:bo": "སོ་མ་ལི།", "name:br": "Somalia", "name:bs": "Somalija", "name:ca": "Somàlia", "name:ce": "Сомали", "name:cs": "Somálsko", "name:cy": "Somalia", "name:da": "Somalia", "name:dv": "ސޯމާލިއާ", "name:ee": "Somalia", "name:el": "Σομαλία", "name:en": "Somalia", "name:eo": "Somalujo", "name:es": "Somalia", "name:et": "Somaalia", "name:eu": "Somalia", "name:fa": "سومالی", "name:fi": "Somalia", "name:fo": "Somalia", "name:fr": "Somalie", "name:fy": "Somaalje", "name:ga": "An tSomáil", "name:gd": "Somàilia", "name:gl": "Somalia", "name:gv": "Yn Tomaal", "name:he": "סומליה", "name:hi": "सोमालिया", "name:hr": "Somalija", "name:ht": "Somali", "name:hu": "Szomália", "name:hy": "Սոմալի", "name:ia": "Somalia", "name:id": "Somalia", "name:ie": "Somalia", "name:io": "Somalia", "name:is": "Sómalía", "name:it": "Somalia", "name:ja": "ソマリア", "name:jv": "Somalia", "name:ka": "სომალი", "name:kg": "Sômâlia", "name:ki": "Somalia", "name:kk": "Сомали", "name:kn": "ಸೊಮಾಲಿಯ", "name:ko": "소말리아", "name:ku": "Somalya", "name:kw": "Somali", "name:la": "Somalia", "name:lb": "Somalia", "name:li": "Somalië", "name:ln": "Somalia", "name:lt": "Somalis", "name:lv": "Somālija", "name:mg": "Somalia", "name:mi": "Hūmārie", "name:mk": "Сомалија", "name:ml": "സൊമാലിയ", "name:mn": "Сомали", "name:mr": "सोमालिया प्रजासत्ताक", "name:ms": "Somalia", "name:mt": "Somalja", "name:my": "ဆိုမာလီယာနိုင်ငံ", "name:na": "Tomariya", "name:nl": "Somalië", "name:nn": "Somalia", "name:no": "Somalia", "name:nv": "Soomáálii Bikéyah", "name:oc": "Somalia", "name:om": "Somaaliyaa", "name:or": "ସୋମାଲିଆ", "name:os": "Сомали", "name:pa": "ਸੋਮਾਲੀਆ", "name:pl": "Somalia", "name:ps": "سومالیا", "name:pt": "Somália", "name:qu": "Sumalya", "name:rm": "Somalia", "name:ro": "Somalia", "name:ru": "Сомали", "name:rw": "Somaliya", "name:sa": "सोमालिया", "name:sc": "Somàlia", "name:se": "Somália", "name:sg": "Somalïi", "name:sh": "Somalija", "name:si": "සෝමාලියාව", "name:sk": "Somálsko", "name:sl": "Somalija", "name:sm": "Somalia", "name:sn": "Somalia", "name:so": "Soomaaliya", "name:sq": "Somalia", "name:sr": "Сомалија", "name:ss": "ISomaliya", "name:st": "Somalia", "name:su": "Somalia", "name:sv": "Somalia", "name:sw": "Somalia", "name:ta": "சோமாலியா", "name:te": "సొమాలియా", "name:tg": "Сумолӣ", "name:th": "ประเทศโซมาเลีย", "name:ti": "ሶማሊያ", "name:tk": "Somali", "name:tl": "Somalya", "name:tr": "Somali", "name:ts": "Somalia", "name:tt": "Сомали", "name:ug": "سومالى", "name:uk": "Сомалі", "name:ur": "صومالیہ", "name:uz": "Somali", "name:vi": "Somalia", "name:vo": "Somalän", "name:wo": "Somali", "name:yi": "סאמאליע", "name:yo": "Sòmálíà", "name:zh": "索马里", "name:zu": "ISomalia", "name:ace": "Somalia", "name:als": "Somalia", "name:ang": "Sōmalia", "name:arz": "الصومال", "name:ast": "Somalia", "name:bcl": "Somalya", "name:bjn": "Somalia", "name:bpy": "সোমালিয়া", "name:bxr": "Сомали", "name:ceb": "Somalia", "name:ckb": "سۆماڵیا", "name:crh": "Somaliya", "name:diq": "Somalya", "name:dsb": "Somalija", "name:ext": "Somália", "name:frp": "Somalie", "name:gag": "Somali", "name:hif": "Somalia", "name:hsb": "Somalija", "name:ilo": "Somalia", "name:jbo": "somalias", "name:lij": "Somalia", "name:lmo": "Sumalia", "name:lzh": "索馬里", "name:mhr": "Сомали", "name:nah": "Somalia", "name:nan": "Somalia", "name:nds": "Somalia", "name:new": "सोमालिया", "name:nov": "Somalia", "name:nso": "Somalia", "name:pam": "Somalia", "name:pap": "Somalia", "name:pdc": "Somaali", "name:pms": "Somalia", "name:pnb": "صومالیہ", "name:sah": "Сомалия", "name:scn": "Somalia", "name:sco": "Somalie", "name:stq": "Somalia", "name:szl": "Sůmalijo", "name:tzl": "Somalia", "name:vec": "Somałia", "name:war": "Somalia", "name:wuu": "索马里", "name:xal": "Сомалмудин Орн", "name:yue": "索馬里", "alt_name:eo": "Somalio", "name:bat-smg": "Suomalis", "name:fiu-vro": "Somaalia", "name:be-tarask": "Самалі", "is_in:continent": "Africa", "official_name:cs": "Somálská federativní republika", "official_name:en": "Federal Republic of Somalia"}}, "center_lat": 6.06, "center_lon": 45.87, "area_m2": 639634657642, "timezone": "Africa/Mogadishu", "population": 11031386, "wikidata_id": "Q1045", "wikipedia_id": "ar:الصومال"}}