{"type": "Feature", "geometry": {"type": "MultiPolygon", "coordinates": [[[[-64.344, 18.718], [-64.388, 18.727], [-64.382, 18.749], [-64.345, 18.742], [-64.335, 18.75], [-64.305, 18.739], [-64.273, 18.705], [-64.289, 18.699], [-64.33, 18.718], [-64.344, 18.718]]], [[[-64.447, 18.427], [-64.439, 18.462], [-64.415, 18.468], [-64.411, 18.5], [-64.382, 18.497], [-64.391, 18.469], [-64.426, 18.458], [-64.434, 18.431], [-64.447, 18.427]]], [[[-64.636, 18.397], [-64.671, 18.382], [-64.678, 18.402], [-64.659, 18.444], [-64.642, 18.454], [-64.592, 18.446], [-64.564, 18.46], [-64.553, 18.442], [-64.579, 18.414], [-64.609, 18.425], [-64.618, 18.406], [-64.636, 18.397]]]]}, "properties": {"name": "British Virgin Islands", "iso1": "VG", "admin_level": 2, "osm_id": 285454, "countrylevel_id": "iso1:VG", "osm_data": {"localname": "British Virgin Islands", "official_name": "", "alltags": {"flag": "http://upload.wikimedia.org/wikipedia/commons/4/42/Flag_of_the_British_Virgin_Islands.svg", "name:cs": "Britské Panenské ostrovy", "name:en": "British Virgin Islands", "name:eo": "Britaj Virgulinsuloj", "name:fr": "Îles Vierges britanniques", "name:hr": "Britanski Djevičanski Otoci", "name:hu": "Brit Virgin-szigetek", "name:lt": "Britų Mergelių salos", "name:mk": "Британски Девствени Острови", "name:nl": "Britse Maagdeneilanden", "name:ru": "Британские Виргинские острова", "name:sk": "Britské Panenské ostrovy", "name:sr": "Британска Девичанска Острва", "name:sv": "Brittiska Jungfruöarna", "name:uk": "Британські Віргінські острови", "is_in:continent": "North America", "default_language": "en", "official_name:lt": "Didžiosios Britanijos Mergelių Salos"}}, "center_lat": 18.51, "center_lon": -64.51, "area_m2": 154089497, "timezone": "America/Tortola", "population": 31758, "wikidata_id": "Q25305", "wikipedia_id": "en:British Virgin Islands"}}