{"type": "Feature", "geometry": {"type": "Polygon", "coordinates": [[[27.311, 27.738], [27.786, 28.635], [28.729, 28.82], [29.57, 29.556], [30.311, 29.92], [30.729, 30.23], [30.836, 30.326], [31.142, 30.172], [31.231, 30.093], [31.33, 29.753], [31.906, 29.748], [31.845, 29.011], [31.212, 29.187], [31.122, 29.436], [31.024, 29.716], [30.697, 29.7], [29.85, 29.092], [29.78, 28.803], [29.585, 28.345], [29.239, 28.131], [28.823, 27.98], [28.625, 27.74], [27.311, 27.738]]]}, "properties": {"name": "Giza Governorate", "iso2": "EG-GZ", "admin_level": 4, "osm_id": 3824206, "countrylevel_id": "iso2:EG-GZ", "osm_data": {"localname": "محافظة الجيزة‎", "official_name": "", "alltags": {"name:en": "Giza Governorate", "name:eo": "Provinco Gizo", "name:es": "Guiza", "name:fr": "Gouvernorat de Gizeh", "name:hu": "Gíza kormányzóság", "name:pl": "Muhafaza Giza", "name:ru": "мухафаза Гиза"}}, "center_lat": 28.88, "center_lon": 29.48, "area_m2": 38320830046, "timezone": "Africa/Cairo", "population": 8632021, "wikidata_id": "Q30832"}}