{"type": "Feature", "geometry": {"type": "Polygon", "coordinates": [[[34.219, 31.324], [34.219, 31.323], [34.267, 31.22], [34.848, 29.763], [34.876, 29.559], [34.334, 29.594], [33.722, 29.833], [32.833, 29.923], [32.782, 30.257], [32.629, 30.514], [32.594, 30.947], [32.578, 31.066], [32.587, 31.062], [32.793, 31.047], [33.423, 31.165], [33.583, 31.113], [34.05, 31.224], [34.219, 31.324]]]}, "properties": {"name": "North Sinai Governorate", "iso2": "EG-SIN", "admin_level": 4, "osm_id": 3060792, "countrylevel_id": "iso2:EG-SIN", "osm_data": {"localname": "شمال سيناء", "official_name": "", "alltags": {"name:el": "Κυβερνείο Βόρειου Σινά", "name:en": "North Sinai Governorate", "name:es": "Sinaí del Norte", "name:fi": "Porjois-Siinai", "name:fr": "Gouvernorat du Sinaï Nord", "name:hu": "Észak-Sínai kormányzóság", "name:ru": "мухафаза Северный Синай"}}, "center_lat": 30.42, "center_lon": 33.73, "area_m2": 27767643546, "timezone": "Africa/Cairo", "population": 450328, "wikidata_id": "Q30662"}}