{"type": "Feature", "geometry": {"type": "Polygon", "coordinates": [[[9.561, 47.5], [9.652, 47.408], [9.531, 47.271], [9.51, 47.232], [9.497, 47.207], [9.488, 47.19], [9.495, 47.157], [9.515, 47.122], [9.513, 47.085], [9.476, 47.052], [9.249, 46.916], [9.005, 47.173], [8.808, 47.22], [8.944, 47.376], [8.974, 47.406], [9.169, 47.498], [9.263, 47.475], [9.342, 47.504], [9.406, 47.492], [9.414, 47.498], [9.421, 47.496], [9.425, 47.502], [9.43, 47.505], [9.433, 47.506], [9.434, 47.506], [9.436, 47.507], [9.449, 47.501], [9.448, 47.501], [9.449, 47.5], [9.448, 47.498], [9.45, 47.497], [9.448, 47.494], [9.465, 47.487], [9.477, 47.489], [9.561, 47.5]], [[9.343, 47.249], [9.503, 47.347], [9.51, 47.395], [9.555, 47.396], [9.583, 47.41], [9.618, 47.438], [9.232, 47.388], [9.343, 47.249]]]}, "properties": {"name": "Sankt Gallen", "iso2": "CH-SG", "admin_level": 4, "osm_id": 1687006, "countrylevel_id": "iso2:CH-SG", "osm_data": {"localname": "Sankt Gallen", "official_name": "St. Gallen", "alltags": {"name:ca": "Sankt Gallen", "name:es": "San Galo", "name:fr": "Saint-Gall", "name:hu": "Szentgallen", "name:it": "San Gallo", "name:ja": "ザンクト・ガレン州", "name:lt": "Sankt Galenas", "name:rm": "Son Gagl", "name:ru": "Санкт-Галлен", "alt_name": "Kanton Sankt Gallen", "name:gsw": "San Galle", "alt_name:ca": "Cantó de Sankt Gallen", "alt_name:de": "Kanton Sankt Gallen", "alt_name:fr": "Canton de Saint-Gall", "alt_name:it": "Canton San Gallo", "name:prefix": "Kanton", "official_name": "St. Gallen", "swisstopo:KANTONSNUM": "17"}}, "center_lat": 47.23, "center_lon": 9.27, "area_m2": 1980468528, "timezone": "Europe/Zurich", "population": 507697, "wikidata_id": "Q12746", "wikipedia_id": "de:Kanton St. Gallen"}}