{"type": "Feature", "geometry": {"type": "MultiPolygon", "coordinates": [[[[9.477, 47.489], [9.465, 47.487], [9.448, 47.494], [9.45, 47.497], [9.448, 47.498], [9.449, 47.5], [9.448, 47.501], [9.449, 47.501], [9.45, 47.501], [9.451, 47.501], [9.453, 47.5], [9.454, 47.5], [9.456, 47.499], [9.457, 47.498], [9.458, 47.498], [9.459, 47.498], [9.46, 47.497], [9.461, 47.497], [9.462, 47.497], [9.463, 47.497], [9.465, 47.497], [9.466, 47.496], [9.467, 47.495], [9.468, 47.495], [9.469, 47.495], [9.469, 47.494], [9.471, 47.493], [9.471, 47.492], [9.472, 47.492], [9.473, 47.491], [9.476, 47.49], [9.477, 47.49], [9.477, 47.489]]], [[[9.436, 47.507], [9.434, 47.506], [9.433, 47.506], [9.43, 47.505], [9.425, 47.502], [9.421, 47.496], [9.414, 47.498], [9.406, 47.492], [9.342, 47.504], [9.263, 47.475], [9.169, 47.498], [8.974, 47.406], [8.944, 47.376], [8.749, 47.6], [8.746, 47.6], [8.746, 47.601], [8.745, 47.602], [8.743, 47.603], [8.742, 47.606], [8.742, 47.607], [8.762, 47.618], [8.763, 47.618], [8.768, 47.616], [8.77, 47.615], [8.669, 47.685], [8.718, 47.691], [8.728, 47.693], [8.796, 47.675], [8.863, 47.655], [9.157, 47.666], [9.182, 47.656], [9.436, 47.507]]]]}, "properties": {"name": "Thurgau", "iso2": "CH-TG", "admin_level": 4, "osm_id": 1693811, "countrylevel_id": "iso2:CH-TG", "osm_data": {"localname": "Thurgau", "official_name": "", "alltags": {"name:be": "Тургаў", "name:ca": "Turgòvia", "name:en": "Thurgau", "name:eo": "Turgovio", "name:es": "Turgovia", "name:fr": "Thurgovie", "name:it": "Turgovia", "name:la": "Turgovia", "name:rm": "Turgovia", "name:ru": "Тургау", "alt_name": "Kanton Thurgau", "name:prefix": "Kanton", "swisstopo:KANTONSNUM": "20"}}, "center_lat": 47.56, "center_lon": 9.06, "area_m2": 863718713, "timezone": "Europe/Zurich", "population": 276472, "wikidata_id": "Q12713", "wikipedia_id": "de:Kanton Thurgau"}}