{"type": "Feature", "geometry": {"type": "MultiPolygon", "coordinates": [[[[-83.712, 10.945], [-83.713, 10.945], [-83.717, 10.948], [-83.712, 10.945]]], [[[-83.714, 10.944], [-83.722, 10.942], [-83.763, 10.979], [-83.818, 11.051], [-84.178, 11.151], [-84.563, 11.485], [-84.604, 11.848], [-84.726, 12.003], [-84.776, 12.279], [-84.952, 12.625], [-85.121, 12.785], [-85.197, 12.98], [-85.082, 13.13], [-84.762, 13.226], [-84.129, 13.3], [-83.861, 13.266], [-83.539, 13.027], [-83.539, 13.026], [-83.545, 12.636], [-83.737, 12.476], [-83.702, 11.854], [-83.648, 11.596], [-83.866, 11.396], [-83.805, 11.059], [-83.752, 10.974], [-83.714, 10.944]]]]}, "properties": {"name": "South Atlantic Autonomous Region", "iso2": "NI-AS", "admin_level": 4, "osm_id": 2195081, "countrylevel_id": "iso2:NI-AS", "osm_data": {"localname": "Región Autónoma de la Costa Caribe Sur", "official_name": "", "alltags": {"name:ca": "Regió Autònoma de l'Atlàntic Sud", "name:el": "Νότια Ατλαντική Αυτόνομη Περιοχή", "name:en": "South Atlantic Autonomous Region", "name:fr": "Atlántico Sur", "name:gl": "Rexión Autónoma do Atlántico Sur", "name:it": "Regione Autonoma Atlantico Sud", "name:ja": "南アトランティコ自治地域", "name:ka": "სამხრეთ ატლანტიკის ავტონომიური რეგიონი", "name:lt": "Pietų Atlantiko autonominis regionas", "name:pl": "Region Autonomiczny Atlántico Sur", "name:ro": "Regiunea Autonomă a Atlanticului de Sud", "name:ru": "Атлантический Южный (регион)", "name:zh": "南大西洋自治區", "old_name": "Región Autónoma del Atlántico Sur (RAAS)", "old_name_1": "RAAS", "population": "396397", "short_name": "RACCN", "is_in:state": "Región Autónoma de la Costa Caribe Sur", "is_in:country": "Nicaragua"}}, "center_lat": 12.37, "center_lon": -84.24, "area_m2": 27079110437, "timezone": "America/Managua", "population": 369254, "wikidata_id": "Q291279", "wikipedia_id": "es:Región Autónoma de la Costa Caribe Sur"}}