{"type": "Feature", "geometry": {"type": "Polygon", "coordinates": [[[32.936, 35.269], [32.942, 35.264], [32.949, 35.263], [32.959, 35.26], [32.962, 35.258], [32.967, 35.257], [32.974, 35.253], [32.98, 35.252], [32.984, 35.251], [32.989, 35.251], [32.991, 35.252], [32.991, 35.256], [33.002, 35.255], [33.008, 35.256], [33.013, 35.254], [33.018, 35.256], [33.021, 35.256], [33.023, 35.254], [33.026, 35.256], [33.036, 35.259], [33.039, 35.259], [33.041, 35.261], [33.046, 35.266], [33.047, 35.261], [33.044, 35.255], [33.046, 35.254], [33.053, 35.253], [33.053, 35.251], [33.056, 35.251], [33.057, 35.248], [33.06, 35.248], [33.068, 35.243], [33.071, 35.242], [33.074, 35.242], [33.08, 35.247], [33.083, 35.247], [33.085, 35.248], [33.093, 35.248], [33.098, 35.246], [33.1, 35.245], [33.106, 35.249], [33.111, 35.249], [33.112, 35.248], [33.115, 35.248], [33.123, 35.247], [33.125, 35.248], [33.127, 35.248], [33.137, 35.243], [33.141, 35.245], [33.139, 35.249], [33.142, 35.249], [33.152, 35.243], [33.155, 35.244], [33.155, 35.245], [33.153, 35.248], [33.153, 35.25], [33.157, 35.253], [33.16, 35.252], [33.16, 35.247], [33.165, 35.248], [33.168, 35.247], [33.17, 35.247], [33.171, 35.249], [33.166, 35.251], [33.166, 35.253], [33.168, 35.255], [33.175, 35.254], [33.178, 35.251], [33.181, 35.251], [33.181, 35.247], [33.182, 35.246], [33.195, 35.246], [33.2, 35.245], [33.202, 35.248], [33.208, 35.245], [33.209, 35.243], [33.215, 35.242], [33.215, 35.237], [33.218, 35.235], [33.219, 35.23], [33.221, 35.23], [33.223, 35.231], [33.227, 35.23], [33.23, 35.23], [33.234, 35.232], [33.237, 35.228], [33.238, 35.229], [33.237, 35.232], [33.238, 35.235], [33.239, 35.237], [33.239, 35.239], [33.241, 35.24], [33.244, 35.238], [33.248, 35.238], [33.251, 35.24], [33.25, 35.242], [33.249, 35.244], [33.253, 35.245], [33.256, 35.243], [33.258, 35.244], [33.259, 35.247], [33.262, 35.246], [33.265, 35.243], [33.269, 35.248], [33.272, 35.246], [33.276, 35.246], [33.28, 35.241], [33.287, 35.237], [33.289, 35.24], [33.294, 35.24], [33.296, 35.239], [33.318, 35.236], [33.32, 35.235], [33.324, 35.235], [33.325, 35.234], [33.326, 35.23], [33.328, 35.231], [33.33, 35.234], [33.345, 35.234], [33.346, 35.232], [33.35, 35.234], [33.362, 35.234], [33.364, 35.233], [33.367, 35.234], [33.375, 35.233], [33.377, 35.232], [33.38, 35.232], [33.385, 35.234], [33.394, 35.236], [33.409, 35.235], [33.415, 35.239], [33.425, 35.241], [33.438, 35.247], [33.44, 35.245], [33.443, 35.246], [33.445, 35.251], [33.444, 35.254], [33.442, 35.257], [33.442, 35.26], [33.444, 35.265], [33.448, 35.266], [33.449, 35.27], [33.456, 35.276], [33.461, 35.276], [33.465, 35.274], [33.477, 35.275], [33.489, 35.274], [33.493, 35.276], [33.503, 35.275], [33.505, 35.28], [33.51, 35.278], [33.519, 35.276], [33.516, 35.274], [33.51, 35.273], [33.507, 35.272], [33.516, 35.27], [33.524, 35.275], [33.529, 35.276], [33.533, 35.277], [33.54, 35.275], [33.542, 35.276], [33.546, 35.272], [33.554, 35.275], [33.554, 35.264], [33.557, 35.255], [33.56, 35.249], [33.559, 35.238], [33.569, 35.235], [33.572, 35.228], [33.573, 35.222], [33.566, 35.219], [33.56, 35.218], [33.559, 35.212], [33.559, 35.208], [33.561, 35.202], [33.562, 35.188], [33.568, 35.185], [33.572, 35.179], [33.571, 35.173], [33.57, 35.157], [33.572, 35.14], [33.571, 35.134], [33.568, 35.127], [33.569, 35.122], [33.576, 35.122], [33.583, 35.123], [33.586, 35.12], [33.589, 35.12], [33.595, 35.108], [33.59, 35.102], [33.587, 35.101], [33.582, 35.087], [33.566, 35.088], [33.56, 35.093], [33.551, 35.093], [33.546, 35.093], [33.543, 35.095], [33.541, 35.101], [33.535, 35.103], [33.529, 35.103], [33.526, 35.106], [33.519, 35.099], [33.51, 35.098], [33.508, 35.095], [33.505, 35.092], [33.505, 35.09], [33.51, 35.087], [33.51, 35.086], [33.507, 35.083], [33.511, 35.08], [33.507, 35.076], [33.503, 35.075], [33.5, 35.071], [33.496, 35.071], [33.493, 35.07], [33.487, 35.064], [33.485, 35.062], [33.484, 35.055], [33.485, 35.048], [33.485, 35.045], [33.492, 35.045], [33.499, 35.042], [33.502, 35.037], [33.503, 35.026], [33.505, 35.024], [33.507, 35.018], [33.51, 35.015], [33.511, 35.009], [33.519, 35.005], [33.519, 35.004], [33.52, 34.999], [33.519, 34.998], [33.514, 35.001], [33.512, 34.998], [33.514, 34.995], [33.512, 34.991], [33.515, 34.989], [33.514, 34.987], [33.511, 34.987], [33.512, 34.983], [33.511, 34.982], [33.505, 34.981], [33.505, 34.978], [33.502, 34.978], [33.502, 34.976], [33.499, 34.975], [33.5, 34.97], [33.497, 34.967], [33.498, 34.965], [33.502, 34.963], [33.501, 34.96], [33.497, 34.962], [33.492, 34.963], [33.489, 34.967], [33.482, 34.967], [33.478, 34.97], [33.475, 34.972], [33.468, 34.97], [33.46, 34.964], [33.45, 34.958], [33.446, 34.963], [33.444, 34.963], [33.44, 34.96], [33.428, 34.969], [33.425, 34.969], [33.42, 34.972], [33.413, 34.972], [33.413, 34.96], [33.419, 34.95], [33.419, 34.948], [33.413, 34.935], [33.406, 34.93], [33.402, 34.93], [33.4, 34.928], [33.389, 34.93], [33.384, 34.933], [33.379, 34.932], [33.376, 34.934], [33.373, 34.933], [33.361, 34.932], [33.353, 34.927], [33.345, 34.926], [33.343, 34.927], [33.343, 34.931], [33.341, 34.934], [33.333, 34.939], [33.327, 34.941], [33.325, 34.94], [33.32, 34.933], [33.308, 34.927], [33.308, 34.925], [33.309, 34.921], [33.298, 34.908], [33.29, 34.904], [33.282, 34.902], [33.277, 34.898], [33.271, 34.897], [33.263, 34.889], [33.257, 34.889], [33.255, 34.891], [33.248, 34.89], [33.254, 34.894], [33.252, 34.897], [33.254, 34.899], [33.253, 34.902], [33.249, 34.903], [33.245, 34.903], [33.243, 34.9], [33.239, 34.903], [33.242, 34.906], [33.241, 34.908], [33.235, 34.909], [33.226, 34.905], [33.224, 34.903], [33.22, 34.901], [33.215, 34.902], [33.21, 34.901], [33.203, 34.901], [33.2, 34.903], [33.2, 34.91], [33.189, 34.91], [33.187, 34.909], [33.187, 34.906], [33.184, 34.906], [33.183, 34.909], [33.182, 34.91], [33.179, 34.908], [33.178, 34.911], [33.176, 34.914], [33.174, 34.914], [33.168, 34.909], [33.167, 34.907], [33.17, 34.9], [33.157, 34.901], [33.154, 34.9], [33.147, 34.895], [33.143, 34.89], [33.14, 34.888], [33.136, 34.884], [33.126, 34.887], [33.119, 34.886], [33.116, 34.887], [33.113, 34.892], [33.11, 34.895], [33.102, 34.897], [33.094, 34.898], [33.086, 34.897], [33.082, 34.895], [33.081, 34.892], [33.079, 34.889], [33.071, 34.888], [33.067, 34.891], [33.064, 34.895], [33.061, 34.896], [33.058, 34.898], [33.057, 34.901], [33.051, 34.906], [33.051, 34.909], [33.049, 34.912], [33.048, 34.917], [33.04, 34.918], [33.036, 34.923], [33.029, 34.925], [33.026, 34.927], [33.015, 34.928], [33.007, 34.938], [33.004, 34.944], [32.994, 34.951], [32.988, 34.949], [32.984, 34.951], [32.975, 34.949], [32.974, 34.951], [32.967, 34.951], [32.963, 34.954], [32.96, 34.954], [32.949, 34.95], [32.947, 34.947], [32.938, 34.943], [32.936, 34.94], [32.932, 34.939], [32.924, 34.933], [32.92, 34.933], [32.912, 34.935], [32.907, 34.937], [32.902, 34.937], [32.897, 34.937], [32.89, 34.934], [32.879, 34.935], [32.867, 34.936], [32.867, 34.94], [32.863, 34.942], [32.859, 34.943], [32.853, 34.942], [32.849, 34.943], [32.843, 34.947], [32.838, 34.948], [32.836, 34.95], [32.826, 34.952], [32.822, 34.956], [32.817, 34.956], [32.811, 34.96], [32.803, 34.959], [32.8, 34.957], [32.799, 34.951], [32.798, 34.949], [32.781, 34.949], [32.778, 34.943], [32.78, 34.94], [32.781, 34.937], [32.774, 34.92], [32.775, 34.914], [32.773, 34.911], [32.774, 34.905], [32.769, 34.905], [32.763, 34.901], [32.762, 34.902], [32.764, 34.905], [32.763, 34.909], [32.755, 34.912], [32.746, 34.917], [32.74, 34.914], [32.736, 34.91], [32.736, 34.903], [32.734, 34.898], [32.732, 34.897], [32.73, 34.899], [32.725, 34.888], [32.724, 34.886], [32.72, 34.889], [32.701, 34.895], [32.701, 34.897], [32.707, 34.897], [32.711, 34.899], [32.714, 34.902], [32.714, 34.904], [32.713, 34.905], [32.708, 34.904], [32.706, 34.904], [32.703, 34.907], [32.701, 34.908], [32.693, 34.906], [32.696, 34.899], [32.692, 34.889], [32.69, 34.889], [32.686, 34.897], [32.678, 34.906], [32.67, 34.909], [32.671, 34.915], [32.666, 34.924], [32.666, 34.933], [32.667, 34.935], [32.67, 34.936], [32.676, 34.935], [32.679, 34.938], [32.677, 34.942], [32.677, 34.947], [32.679, 34.952], [32.684, 34.958], [32.684, 34.96], [32.681, 34.967], [32.683, 34.97], [32.681, 34.973], [32.681, 34.977], [32.674, 34.977], [32.673, 34.978], [32.68, 34.984], [32.682, 34.987], [32.681, 34.993], [32.673, 35.007], [32.671, 35.008], [32.666, 35.008], [32.663, 35.014], [32.665, 35.021], [32.656, 35.028], [32.642, 35.029], [32.634, 35.032], [32.632, 35.034], [32.629, 35.043], [32.625, 35.047], [32.625, 35.05], [32.62, 35.056], [32.615, 35.056], [32.613, 35.058], [32.621, 35.066], [32.621, 35.071], [32.625, 35.073], [32.627, 35.071], [32.633, 35.071], [32.636, 35.072], [32.636, 35.074], [32.639, 35.077], [32.637, 35.08], [32.639, 35.083], [32.633, 35.092], [32.635, 35.097], [32.632, 35.101], [32.633, 35.105], [32.635, 35.106], [32.635, 35.115], [32.631, 35.116], [32.62, 35.116], [32.618, 35.117], [32.614, 35.122], [32.611, 35.124], [32.611, 35.127], [32.613, 35.128], [32.614, 35.132], [32.613, 35.134], [32.615, 35.137], [32.613, 35.139], [32.61, 35.141], [32.604, 35.142], [32.599, 35.143], [32.595, 35.144], [32.591, 35.146], [32.589, 35.151], [32.585, 35.153], [32.585, 35.154], [32.582, 35.159], [32.576, 35.162], [32.57, 35.164], [32.567, 35.169], [32.569, 35.17], [32.57, 35.17], [32.571, 35.17], [32.576, 35.171], [32.581, 35.173], [32.582, 35.173], [32.587, 35.175], [32.589, 35.178], [32.594, 35.179], [32.598, 35.179], [32.599, 35.175], [32.602, 35.172], [32.604, 35.172], [32.61, 35.172], [32.617, 35.174], [32.619, 35.175], [32.62, 35.178], [32.623, 35.18], [32.624, 35.189], [32.627, 35.191], [32.629, 35.189], [32.632, 35.19], [32.634, 35.189], [32.639, 35.191], [32.642, 35.193], [32.649, 35.195], [32.65, 35.195], [32.653, 35.195], [32.653, 35.194], [32.654, 35.194], [32.656, 35.193], [32.657, 35.194], [32.661, 35.194], [32.661, 35.193], [32.662, 35.192], [32.666, 35.192], [32.669, 35.194], [32.67, 35.193], [32.67, 35.192], [32.671, 35.19], [32.674, 35.188], [32.684, 35.186], [32.689, 35.185], [32.696, 35.184], [32.7, 35.183], [32.702, 35.184], [32.708, 35.184], [32.714, 35.183], [32.715, 35.182], [32.719, 35.181], [32.719, 35.18], [32.723, 35.18], [32.729, 35.179], [32.732, 35.179], [32.733, 35.18], [32.737, 35.18], [32.741, 35.178], [32.741, 35.175], [32.749, 35.172], [32.758, 35.169], [32.759, 35.168], [32.77, 35.164], [32.772, 35.164], [32.775, 35.163], [32.779, 35.162], [32.782, 35.162], [32.786, 35.161], [32.787, 35.158], [32.789, 35.157], [32.793, 35.152], [32.798, 35.151], [32.801, 35.149], [32.803, 35.149], [32.807, 35.148], [32.815, 35.147], [32.817, 35.144], [32.819, 35.142], [32.823, 35.142], [32.825, 35.141], [32.828, 35.141], [32.834, 35.142], [32.838, 35.143], [32.842, 35.145], [32.848, 35.148], [32.849, 35.148], [32.85, 35.148], [32.853, 35.148], [32.861, 35.154], [32.865, 35.158], [32.87, 35.16], [32.874, 35.16], [32.882, 35.162], [32.885, 35.164], [32.889, 35.168], [32.891, 35.169], [32.898, 35.175], [32.902, 35.18], [32.903, 35.182], [32.906, 35.186], [32.911, 35.196], [32.916, 35.207], [32.922, 35.221], [32.928, 35.239], [32.929, 35.241], [32.932, 35.253], [32.935, 35.263], [32.935, 35.266], [32.936, 35.269]]]}, "properties": {"name": "Nicosia", "iso2": "CY-01", "admin_level": 5, "osm_id": 3264382, "countrylevel_id": "iso2:CY-01", "osm_data": {"localname": "Λευκωσία - Lefkoşa", "official_name": "Επαρχία Πάφου - Lefkoşa kazası", "alltags": {"name:af": "Nicosia", "name:am": "ሌፍኮዚያ", "name:an": "Nicosia", "name:ar": "نيقوسيا", "name:az": "Nikosiya", "name:be": "Нікасія", "name:bg": "Никозия", "name:bn": "নিকোসিয়া", "name:bo": "ནེ་ཁོ་ཤི་ཡ།", "name:br": "Nikozia", "name:bs": "Nikozija", "name:ca": "Nicòsia", "name:cs": "Nikósie", "name:cy": "Nicosia", "name:da": "Nicosia", "name:el": "Λευκωσία", "name:en": "Nicosia", "name:eo": "Nikozio", "name:es": "Nicosia", "name:fa": "نیکوزیا", "name:fr": "Nicosie", "name:ga": "An Leafcóis", "name:gd": "Nicosia", "name:gl": "Nicosia", "name:gv": "Lefkosia", "name:he": "ניקוסיה", "name:hi": "निकोसिया", "name:hr": "Nikozija", "name:ht": "Nikozi", "name:hu": "Nicosia", "name:hy": "Նիկոսիա", "name:is": "Nikósía", "name:it": "Nicosia", "name:ja": "ニコシア", "name:ka": "ნიქოზია", "name:kk": "Никосия", "name:kl": "Nicosia", "name:ko": "니코시아", "name:ky": "Лефкоша", "name:la": "Nicosia", "name:lt": "Nikosija", "name:lv": "Nikosija", "name:mi": "Nicosia", "name:mk": "Левкозија", "name:mr": "निकोसिया", "name:ms": "Nicosia", "name:nl": "Nicosia", "name:oc": "Nicosia", "name:os": "Никоси", "name:pl": "Nikozja", "name:pt": "Nicósia", "name:ro": "Nicosia", "name:ru": "Никосия", "name:rw": "Nikosiya", "name:sh": "Nikozija", "name:sk": "Nikózia", "name:sl": "Nikozija", "name:sq": "Nicosia", "name:sr": "Никозија", "name:sv": "Nicosia", "name:ta": "நிக்கோசியா", "name:tg": "Никосия", "name:th": "นิโคเซีย", "name:tl": "Nicosia", "name:tr": "Lefkoşa", "name:tt": "Никосия", "name:ug": "نىكوسىيە", "name:uk": "Нікосія", "name:ur": "نیکوسیا", "name:vi": "Nicosia", "name:yi": "ניקאסיע", "name:yo": "Nicosia", "name:zh": "尼科西亚", "int_name": "Nicosia", "name:arz": "نيكوسيا", "name:ckb": "نیکۆسیا", "name:crh": "Lefkoşa", "name:gag": "Lefkoşa", "name:kaa": "Arqa Nikosiya", "name:lad": "Nikosiya", "name:lij": "Nicosia", "name:lmo": "Nicoséa", "name:mdf": "Никосия", "name:mzn": "نیکوزیا", "name:nah": "Nicosia", "name:nan": "Nicosia", "name:nap": "Nicosìa", "name:pms": "Nicosìa", "name:pnb": "نیکوسیا", "name:pnt": "Λευκωσίαν", "name:sah": "Никосия", "name:sco": "Nicosia", "name:stq": "Nicosia", "name:udm": "Никосия", "name:vep": "Nikosii", "name:war": "Nicosia", "alt_name:ar": "الأفقوسية;منطقة الأفقوسية", "alt_name:ru": "Левкосия", "description": "This fomal district is partitioned between two governing states", "official_name": "Επαρχία Πάφου - Lefkoşa kazası", "official_name:ar": "منطقة نيقوسيا", "official_name:el": "Επαρχία Πάφου", "official_name:en": "Nicosia District", "official_name:fr": "District de Nicosie", "official_name:tr": "Lefkoşa kazası"}}, "center_lat": 35.08, "center_lon": 33.11, "area_m2": 2726054444, "timezone": "Asia/Nicosia", "population": 326980, "wikidata_id": "Q59147", "wikipedia_id": "en:Nicosia District"}}