{"type": "Feature", "geometry": {"type": "Polygon", "coordinates": [[[10.285, 36.812], [10.26, 36.809], [10.206, 36.779], [10.093, 36.697], [10.115, 36.827], [10.252, 36.943], [10.253, 36.943], [10.284, 36.926], [10.288, 36.924], [10.29, 36.923], [10.295, 36.922], [10.309, 36.819], [10.308, 36.818], [10.308, 36.817], [10.307, 36.812], [10.285, 36.812]]]}, "properties": {"name": "Tunis", "iso2": "TN-11", "admin_level": 4, "osm_id": 1435835, "countrylevel_id": "iso2:TN-11", "osm_data": {"localname": "تونس", "official_name": "", "alltags": {"name:ar": "تونس", "name:en": "Tunis", "name:fr": "Tunis", "name:it": "Tunisi", "name:ko": "튀니스", "name:ru": "Тунис", "population": "983861", "long_name:ar": "ولاية تونس", "long_name:en": "Tunis Governorate", "long_name:fr": "Gouvernorat de Tunis", "long_name:it": "Governatorato di Tunisi", "ref:tn:codegeo": "11"}}, "center_lat": 36.8, "center_lon": 10.18, "area_m2": 287149515, "timezone": "Africa/Tunis", "population": 1056247, "wikidata_id": "Q328109", "wikipedia_id": "ar:ولاية تونس"}}