{"type": "Feature", "geometry": {"type": "Polygon", "coordinates": [[[8.94, 36.453], [9.016, 36.463], [9.28, 36.353], [9.43, 36.462], [9.739, 36.451], [9.598, 36.25], [9.756, 36.114], [9.487, 35.905], [9.464, 35.493], [9.339, 35.479], [9.012, 35.701], [9.164, 36.002], [8.945, 36.31], [8.94, 36.453]]]}, "properties": {"name": "Siliana", "iso2": "TN-34", "admin_level": 4, "osm_id": 1435829, "countrylevel_id": "iso2:TN-34", "osm_data": {"localname": "سليانة", "official_name": "ولاية سليانة", "alltags": {"name:ar": "سليانة", "name:en": "Siliana", "name:fa": "سلیانه", "name:fr": "Siliana", "name:it": "Siliana", "name:ur": "سلیانہ", "population": "233985", "official_name": "ولاية سليانة", "ref:tn:codegeo": "24", "population:date": "2004", "official_name:ar": "ولاية سليانة", "official_name:en": "Siliana Governorate", "official_name:fr": "Gouvernorat de Siliana", "official_name:it": "Governatorato di Siliana"}}, "center_lat": 36.05, "center_lon": 9.34, "area_m2": 4679331932, "timezone": "Africa/Tunis", "population": 223087, "wikidata_id": "Q328115", "wikipedia_id": "ar:ولاية سليانة"}}