{"type": "Feature", "geometry": {"type": "Polygon", "coordinates": [[[-4.833, 25], [-3.602, 24.203], [-2.594, 23.551], [-1.668, 22.951], [-0.021, 21.885], [-0.237, 21.232], [-1.292, 20.389], [-2.056, 20.001], [-0.972, 19.155], [-0.888, 19.039], [-0.944, 18.003], [-1.707, 17.515], [-1.559, 16.967], [-0.685, 16.898], [-0.694, 16.047], [-0.456, 15.084], [-0.745, 15.066], [-1.214, 15.179], [-1.386, 15.322], [-1.686, 15.431], [-2.147, 15.407], [-2.45, 15.304], [-2.597, 15.369], [-2.816, 15.774], [-2.925, 15.848], [-3.482, 15.733], [-3.658, 15.486], [-4.135, 15.81], [-4.688, 15.581], [-5.151, 15.609], [-5.357, 15.553], [-5.5, 15.5], [-5.333, 16.333], [-5.609, 16.5], [-5.826, 18.487], [-6.001, 20.041], [-6.105, 20.969], [-6.354, 23.158], [-6.49, 24.269], [-6.572, 25], [-4.833, 25]]]}, "properties": {"name": "Timbuktu", "iso2": "ML-6", "admin_level": 4, "osm_id": 2096902, "countrylevel_id": "iso2:ML-6", "osm_data": {"localname": "Tombouctou", "official_name": "Région de Tombouctou", "alltags": {"name:ar": "تمبكتو", "name:ca": "Timbuctú", "name:cs": "Timbuktu", "name:en": "Timbuktu", "name:es": "Tombuctú", "name:fr": "Tombouctou", "name:hi": "टिम्बकटू", "name:kn": "ಟಿಂಬಕ್ಟೂ", "name:lt": "Timbuktu", "name:nl": "Timboektoe", "name:ru": "Тимбукту", "name:uk": "Тімбукту", "name:zh": "廷巴克图", "name:ssa": "Tumbutu", "name:tmh": "Tin-Buktu", "population": "54400", "admin_type:ML": "région", "official_name": "Région de Tombouctou"}}, "center_lat": 20.05, "center_lon": -3.58, "area_m2": 503298197150, "timezone": "Africa/Bamako", "population": 681691, "wikidata_id": "Q339462", "wikipedia_id": "fr:Région de Tombouctou"}}