{"type": "Feature", "geometry": {"type": "MultiPolygon", "coordinates": [[[[-5.141, 48.449], [-5.107, 48.472], [-5.059, 48.467], [-5.06, 48.45], [-5.099, 48.457], [-5.141, 48.449]]], [[[-3.661, 48.656], [-3.649, 48.61], [-3.631, 48.59], [-3.589, 48.583], [-3.593, 48.555], [-3.553, 48.541], [-3.584, 48.504], [-3.604, 48.497], [-3.593, 48.464], [-3.556, 48.443], [-3.6, 48.422], [-3.607, 48.387], [-3.556, 48.379], [-3.557, 48.336], [-3.539, 48.314], [-3.525, 48.256], [-3.558, 48.229], [-3.54, 48.207], [-3.565, 48.186], [-3.631, 48.168], [-3.667, 48.152], [-3.714, 48.143], [-3.724, 48.095], [-3.702, 48.097], [-3.703, 48.066], [-3.674, 48.059], [-3.639, 47.985], [-3.596, 47.991], [-3.531, 47.989], [-3.492, 47.975], [-3.481, 47.952], [-3.421, 47.968], [-3.387, 47.926], [-3.409, 47.91], [-3.401, 47.874], [-3.452, 47.858], [-3.458, 47.837], [-3.484, 47.827], [-3.54, 47.835], [-3.54, 47.823], [-3.534, 47.821], [-3.533, 47.82], [-3.533, 47.819], [-3.533, 47.82], [-3.538, 47.816], [-3.536, 47.813], [-3.524, 47.81], [-3.523, 47.801], [-3.54, 47.763], [-3.682, 47.777], [-3.734, 47.804], [-3.762, 47.79], [-3.837, 47.797], [-3.847, 47.792], [-3.894, 47.833], [-3.903, 47.859], [-3.96, 47.897], [-3.981, 47.888], [-3.985, 47.854], [-4.041, 47.844], [-4.077, 47.867], [-4.114, 47.869], [-4.162, 47.849], [-4.16, 47.819], [-4.193, 47.795], [-4.268, 47.79], [-4.299, 47.8], [-4.367, 47.795], [-4.38, 47.822], [-4.346, 47.84], [-4.363, 47.889], [-4.387, 47.926], [-4.45, 47.981], [-4.502, 48.002], [-4.697, 48.026], [-4.716, 48.063], [-4.615, 48.07], [-4.573, 48.082], [-4.572, 48.081], [-4.529, 48.087], [-4.527, 48.086], [-4.489, 48.087], [-4.457, 48.097], [-4.445, 48.097], [-4.362, 48.109], [-4.305, 48.089], [-4.287, 48.103], [-4.271, 48.135], [-4.275, 48.156], [-4.306, 48.196], [-4.332, 48.206], [-4.368, 48.205], [-4.462, 48.239], [-4.498, 48.233], [-4.518, 48.192], [-4.551, 48.181], [-4.554, 48.211], [-4.584, 48.253], [-4.613, 48.262], [-4.567, 48.287], [-4.578, 48.326], [-4.545, 48.325], [-4.553, 48.295], [-4.503, 48.281], [-4.459, 48.293], [-4.427, 48.291], [-4.383, 48.275], [-4.308, 48.297], [-4.26, 48.28], [-4.229, 48.297], [-4.231, 48.314], [-4.231, 48.313], [-4.244, 48.311], [-4.244, 48.31], [-4.315, 48.316], [-4.308, 48.338], [-4.366, 48.345], [-4.372, 48.327], [-4.448, 48.325], [-4.431, 48.365], [-4.396, 48.387], [-4.433, 48.397], [-4.501, 48.378], [-4.538, 48.357], [-4.609, 48.338], [-4.681, 48.356], [-4.71, 48.331], [-4.77, 48.328], [-4.782, 48.354], [-4.761, 48.372], [-4.795, 48.415], [-4.78, 48.451], [-4.759, 48.47], [-4.777, 48.496], [-4.75, 48.544], [-4.693, 48.57], [-4.612, 48.573], [-4.598, 48.608], [-4.563, 48.599], [-4.563, 48.622], [-4.51, 48.633], [-4.459, 48.629], [-4.35, 48.677], [-4.329, 48.678], [-4.275, 48.649], [-4.233, 48.649], [-4.184, 48.687], [-4.112, 48.695], [-4.058, 48.689], [-4.036, 48.712], [-4.001, 48.712], [-3.976, 48.699], [-3.969, 48.676], [-3.932, 48.657], [-3.907, 48.669], [-3.893, 48.643], [-3.845, 48.627], [-3.865, 48.671], [-3.842, 48.705], [-3.814, 48.714], [-3.784, 48.701], [-3.766, 48.71], [-3.723, 48.706], [-3.703, 48.691], [-3.639, 48.673], [-3.661, 48.656]]]]}, "properties": {"name": "Finistère", "iso2": "FR-29", "admin_level": 6, "osm_id": 102430, "countrylevel_id": "iso2:FR-29", "osm_data": {"localname": "Finistère", "official_name": "", "alltags": {"name:an": "Finisterre", "name:ar": "فنستير", "name:be": "Фіністэр", "name:bg": "Финистер", "name:br": "Penn-ar-Bed", "name:ca": "Finisterre", "name:cv": "Финистер", "name:cy": "Penn-ar-Bed", "name:es": "Finisterre", "name:fa": "فینیستر", "name:fr": "Finistère", "name:ga": "Penn-ar-Bed", "name:gd": "Penn-ar-Bed", "name:gv": "Penn-ar-Bed", "name:he": "פיניסטר", "name:hy": "Ֆինիստեր", "name:ja": "フィニステール県", "name:ka": "ფინისტერი", "name:kk": "Финистер", "name:ko": "피니스테르", "name:kw": "Penn-ar-Bed", "name:la": "Finis Terrae", "name:lt": "Finisteras", "name:lv": "Finistēra", "name:mr": "फिनिस्तर", "name:oc": "Finistèrra", "name:ru": "Финистер", "name:sr": "Финистер", "name:tg": "Финистер", "name:th": "ฟีนิสแตร์", "name:uk": "Фіністер", "name:zh": "非尼斯泰尔省", "website": "http://www.cg29.fr/", "name:frp": "Finistèro", "name:pnb": "ضلع فنستر", "ref:NUTS": "FR522", "ref:INSEE": "29", "border_type": "departement"}}, "center_lat": 48.26, "center_lon": -4.06, "area_m2": 6777538194, "timezone": "Europe/Paris", "population": 909028, "wikidata_id": "Q3389", "wikipedia_id": "fr:Finistère"}}