{"type": "Feature", "geometry": {"type": "Polygon", "coordinates": [[[5.255, 46.98], [5.317, 47.016], [5.275, 47.027], [5.284, 47.048], [5.324, 47.074], [5.385, 47.081], [5.438, 47.142], [5.459, 47.183], [5.45, 47.203], [5.481, 47.219], [5.48, 47.255], [5.519, 47.304], [5.543, 47.28], [5.591, 47.259], [5.641, 47.256], [5.67, 47.275], [5.699, 47.265], [5.719, 47.24], [5.72, 47.22], [5.786, 47.188], [5.788, 47.174], [5.823, 47.142], [5.802, 47.11], [5.769, 47.09], [5.784, 47.055], [5.753, 47.04], [5.756, 47.015], [5.788, 47.021], [5.911, 46.999], [5.922, 46.985], [5.976, 46.976], [5.956, 46.949], [5.997, 46.934], [5.983, 46.908], [6.032, 46.869], [6.105, 46.845], [6.152, 46.82], [6.207, 46.765], [6.181, 46.742], [6.07, 46.69], [6.106, 46.651], [6.06, 46.626], [6.048, 46.608], [6.131, 46.554], [6.138, 46.558], [6.157, 46.545], [6.113, 46.51], [6.097, 46.481], [6.073, 46.465], [6.086, 46.441], [6.064, 46.416], [6.016, 46.378], [5.983, 46.363], [5.946, 46.313], [5.926, 46.314], [5.909, 46.284], [5.879, 46.269], [5.827, 46.261], [5.767, 46.268], [5.725, 46.261], [5.714, 46.309], [5.685, 46.311], [5.665, 46.326], [5.615, 46.329], [5.598, 46.298], [5.565, 46.294], [5.537, 46.268], [5.474, 46.264], [5.457, 46.275], [5.475, 46.316], [5.435, 46.319], [5.418, 46.346], [5.379, 46.346], [5.372, 46.382], [5.353, 46.398], [5.299, 46.413], [5.318, 46.432], [5.311, 46.447], [5.323, 46.462], [5.374, 46.46], [5.418, 46.476], [5.422, 46.5], [5.358, 46.52], [5.37, 46.58], [5.406, 46.582], [5.414, 46.615], [5.441, 46.638], [5.415, 46.653], [5.422, 46.673], [5.387, 46.731], [5.366, 46.751], [5.39, 46.767], [5.34, 46.791], [5.336, 46.821], [5.408, 46.833], [5.457, 46.831], [5.461, 46.855], [5.406, 46.866], [5.391, 46.893], [5.362, 46.883], [5.316, 46.904], [5.309, 46.937], [5.261, 46.939], [5.255, 46.98]]]}, "properties": {"name": "Jura", "iso2": "FR-39", "admin_level": 6, "osm_id": 7460, "countrylevel_id": "iso2:FR-39", "osm_data": {"localname": "Jura", "official_name": "", "alltags": {"name:an": "جورا", "name:be": "Юра", "name:bg": "Жура", "name:cv": "Юра", "name:eo": "Ĵuraso", "name:fa": "ژورا", "name:fr": "Jura", "name:hy": "Յուրա", "name:it": "Giura", "name:ja": "ジュラ県", "name:ka": "იურის", "name:kk": "Юра", "name:ko": "쥐라", "name:la": "Iura", "name:mr": "श्युरॅ", "name:ru": "Юра", "name:sr": "Жира", "name:tg": "Юра", "name:th": "ฌูว์รา", "name:uk": "Жура", "name:zh": "汝拉省", "name:pnb": "جورا", "name:vec": "Giura", "ref:NUTS": "FR432", "ref:INSEE": "39", "border_type": "departement", "ref:FR:SIREN": "223900010"}}, "center_lat": 46.73, "center_lon": 5.7, "area_m2": 5047341282, "timezone": "Europe/Paris", "population": 260188, "wikidata_id": "Q3120", "wikipedia_id": "fr:Jura (département)"}}