{"type": "Feature", "geometry": {"type": "Polygon", "coordinates": [[[1.107, 49.937], [1.203, 49.972], [1.329, 50.046], [1.38, 50.065], [1.418, 50.07], [1.457, 50.063], [1.455, 50.038], [1.516, 50.012], [1.527, 49.995], [1.574, 49.974], [1.595, 49.949], [1.669, 49.922], [1.713, 49.886], [1.734, 49.812], [1.784, 49.758], [1.742, 49.751], [1.715, 49.709], [1.689, 49.695], [1.705, 49.681], [1.744, 49.699], [1.752, 49.681], [1.723, 49.672], [1.709, 49.646], [1.718, 49.615], [1.695, 49.6], [1.72, 49.584], [1.748, 49.539], [1.717, 49.506], [1.753, 49.497], [1.789, 49.506], [1.777, 49.474], [1.724, 49.435], [1.714, 49.409], [1.652, 49.401], [1.628, 49.415], [1.605, 49.412], [1.576, 49.441], [1.503, 49.438], [1.476, 49.451], [1.399, 49.456], [1.345, 49.448], [1.314, 49.419], [1.308, 49.395], [1.285, 49.383], [1.272, 49.346], [1.2, 49.351], [1.161, 49.342], [1.134, 49.31], [1.087, 49.31], [1.048, 49.298], [1.069, 49.277], [1.014, 49.252], [0.974, 49.273], [0.929, 49.314], [0.892, 49.314], [0.859, 49.34], [0.899, 49.345], [0.924, 49.359], [0.918, 49.385], [0.884, 49.376], [0.873, 49.392], [0.83, 49.394], [0.797, 49.417], [0.717, 49.412], [0.665, 49.402], [0.636, 49.437], [0.608, 49.429], [0.569, 49.441], [0.525, 49.478], [0.487, 49.483], [0.426, 49.456], [0.363, 49.441], [0.302, 49.438], [0.215, 49.453], [0.117, 49.457], [0.07, 49.506], [0.069, 49.525], [0.108, 49.585], [0.153, 49.644], [0.164, 49.686], [0.206, 49.714], [0.287, 49.738], [0.326, 49.743], [0.386, 49.771], [0.513, 49.82], [0.572, 49.849], [0.642, 49.864], [0.709, 49.873], [0.789, 49.875], [0.834, 49.889], [0.931, 49.907], [0.963, 49.92], [1.025, 49.916], [1.107, 49.937]]]}, "properties": {"name": "Seine-Maritime", "iso2": "FR-76", "admin_level": 6, "osm_id": 7426, "countrylevel_id": "iso2:FR-76", "osm_data": {"localname": "Seine-Maritime", "official_name": "", "alltags": {"name:an": "Sena-Maritimo", "name:ar": "السان-البحرية", "name:be": "Сена-Прыморская", "name:bg": "Сена-Маритим", "name:br": "Saena-an-Arvor", "name:ca": "Sena-Marítim", "name:cv": "Тинĕсçум-Сена", "name:es": "Sena-Marítimo", "name:fa": "سن-ماریتیم", "name:fr": "Seine-Maritime", "name:he": "סן-מריטים", "name:hy": "Ծովամերձ-Սեն", "name:ja": "セーヌ＝マリティーム県", "name:ka": "ზღვისპირა-სენა", "name:kk": "Сена-Маритим", "name:ko": "센마리팀", "name:la": "Sequana-Maritima", "name:lt": "Pajūrio-Sena", "name:lv": "Piejūras-Sēna", "name:mr": "सीन-मरितीम", "name:oc": "Sèina-Maritima", "name:pl": "Sekwana-Nadmorska", "name:pt": "Sena-Marítimo", "name:ru": "Приморская-Сена", "name:sr": "Приморска-Сена", "name:tg": "Сена-Приморская", "name:th": "จังหวัดแซน-มารีตีม", "name:uk": "Приморська-Сена", "name:zh": "滨海塞纳省", "name:frp": "Sêna-Maritima", "name:pms": "Sen-a-Marìtima", "name:pnb": "ضلع-سین-میریٹائم", "ref:NUTS": "FR232", "ref:INSEE": "76", "border_type": "departement"}}, "center_lat": 49.65, "center_lon": 1.03, "area_m2": 6321517671, "timezone": "Europe/Paris", "population": 1254378, "wikidata_id": "Q12758", "wikipedia_id": "fr:Seine-Maritime"}}