{"type": "Feature", "geometry": {"type": "Polygon", "coordinates": [[[2.937, 48.163], [2.94, 48.183], [2.973, 48.206], [3.007, 48.215], [3.044, 48.272], [3.015, 48.306], [3.043, 48.332], [3.046, 48.358], [3.108, 48.353], [3.14, 48.373], [3.2, 48.364], [3.262, 48.368], [3.291, 48.38], [3.365, 48.372], [3.367, 48.394], [3.415, 48.39], [3.427, 48.359], [3.471, 48.375], [3.497, 48.37], [3.534, 48.339], [3.544, 48.321], [3.588, 48.301], [3.588, 48.28], [3.618, 48.27], [3.624, 48.254], [3.6, 48.236], [3.622, 48.226], [3.6, 48.202], [3.642, 48.185], [3.668, 48.139], [3.705, 48.144], [3.747, 48.166], [3.755, 48.15], [3.804, 48.103], [3.797, 48.092], [3.844, 48.036], [3.872, 48.01], [3.841, 47.996], [3.862, 47.977], [3.901, 47.997], [3.915, 47.976], [3.902, 47.951], [3.926, 47.935], [4.018, 47.929], [4.093, 47.942], [4.11, 47.926], [4.157, 47.956], [4.184, 47.956], [4.203, 47.973], [4.242, 47.932], [4.293, 47.926], [4.309, 47.904], [4.277, 47.9], [4.261, 47.876], [4.271, 47.839], [4.33, 47.846], [4.32, 47.812], [4.333, 47.757], [4.289, 47.734], [4.261, 47.743], [4.253, 47.716], [4.267, 47.705], [4.249, 47.661], [4.212, 47.628], [4.172, 47.55], [4.156, 47.551], [4.136, 47.517], [4.115, 47.514], [4.13, 47.471], [4.118, 47.445], [4.065, 47.407], [4.08, 47.376], [4.106, 47.37], [4.106, 47.339], [4.044, 47.34], [4.022, 47.311], [4.002, 47.31], [3.974, 47.331], [3.963, 47.369], [3.945, 47.38], [3.909, 47.382], [3.872, 47.366], [3.86, 47.393], [3.893, 47.41], [3.867, 47.434], [3.813, 47.38], [3.784, 47.404], [3.741, 47.397], [3.667, 47.446], [3.579, 47.466], [3.581, 47.498], [3.552, 47.502], [3.513, 47.527], [3.48, 47.494], [3.449, 47.508], [3.39, 47.509], [3.391, 47.497], [3.355, 47.479], [3.296, 47.492], [3.236, 47.488], [3.204, 47.524], [3.165, 47.518], [3.122, 47.541], [3.101, 47.588], [3.023, 47.556], [2.976, 47.569], [2.944, 47.593], [2.932, 47.627], [2.954, 47.646], [2.918, 47.67], [2.915, 47.691], [2.861, 47.71], [2.853, 47.729], [2.87, 47.765], [2.95, 47.766], [2.988, 47.786], [3.024, 47.786], [3.015, 47.832], [3.031, 47.851], [3.007, 47.884], [3.009, 47.906], [3.051, 47.911], [3.128, 47.971], [3.104, 48.013], [3.114, 48.034], [3.051, 48.072], [3.029, 48.134], [3.012, 48.145], [2.937, 48.163]]]}, "properties": {"name": "Yonne", "iso2": "FR-89", "admin_level": 6, "osm_id": 7392, "countrylevel_id": "iso2:FR-89", "osm_data": {"localname": "Yonne", "official_name": "", "alltags": {"name:ar": "يون", "name:be": "Іона", "name:bg": "Йон", "name:cv": "Йонна", "name:el": "Ιόν", "name:fa": "یون", "name:fr": "Yonne", "name:he": "יון", "name:hy": "Յոն", "name:ja": "ヨンヌ県", "name:ka": "იონა", "name:kk": "Йонна", "name:ko": "욘", "name:la": "Icauna", "name:lt": "Jonas", "name:lv": "Jona", "name:mr": "योन", "name:ru": "Йонна", "name:sr": "Јон", "name:tg": "Йонна", "name:th": "อียอน", "name:uk": "Йонна", "name:ur": "یوننے", "name:zh": "约讷省", "name:frp": "Yona", "name:pnb": "جون", "ref:NUTS": "FR264", "ref:INSEE": "89", "border_type": "departement"}}, "center_lat": 47.84, "center_lon": 3.56, "area_m2": 7457392417, "timezone": "Europe/Paris", "population": 338291, "wikidata_id": "Q12816", "wikipedia_id": "fr:Yonne (département)"}}