{"type": "Feature", "geometry": {"type": "MultiPolygon", "coordinates": [[[[-2.307, 47.024], [-2.251, 47.028], [-2.218, 47.008], [-2.226, 46.976], [-2.157, 46.95], [-2.147, 46.934], [-2.166, 46.904], [-2.188, 46.943], [-2.225, 46.965], [-2.263, 46.96], [-2.303, 46.994], [-2.307, 47.024]]], [[[-2.4, 46.726], [-2.382, 46.733], [-2.318, 46.718], [-2.312, 46.696], [-2.333, 46.686], [-2.393, 46.711], [-2.4, 46.726]]], [[[-2.457, 47.448], [-2.423, 47.477], [-2.4, 47.456], [-2.368, 47.464], [-2.352, 47.455], [-2.312, 47.465], [-2.313, 47.486], [-2.296, 47.515], [-2.262, 47.513], [-2.244, 47.494], [-2.188, 47.512], [-2.182, 47.49], [-2.154, 47.496], [-2.156, 47.522], [-2.099, 47.534], [-2.102, 47.596], [-2.084, 47.617], [-2.097, 47.631], [-2.082, 47.65], [-2.054, 47.649], [-2.039, 47.67], [-2.013, 47.666], [-1.969, 47.69], [-1.935, 47.687], [-1.877, 47.696], [-1.828, 47.71], [-1.771, 47.698], [-1.752, 47.707], [-1.704, 47.7], [-1.64, 47.726], [-1.62, 47.764], [-1.586, 47.78], [-1.529, 47.785], [-1.471, 47.803], [-1.48, 47.835], [-1.382, 47.823], [-1.365, 47.799], [-1.246, 47.777], [-1.239, 47.81], [-1.189, 47.867], [-1.197, 47.889], [-1.176, 47.898], [-1.16, 47.959], [-1.132, 47.969], [-1.114, 47.989], [-1.071, 47.982], [-1.023, 47.994], [-1.033, 48.031], [-1.021, 48.068], [-1.05, 48.09], [-1.06, 48.15], [-1.08, 48.184], [-1.074, 48.201], [-1.099, 48.25], [-1.1, 48.268], [-1.083, 48.298], [-1.045, 48.328], [-1.064, 48.37], [-1.053, 48.381], [-1.081, 48.415], [-1.081, 48.441], [-1.064, 48.467], [-1.078, 48.489], [-1.07, 48.509], [-1.049, 48.51], [-1.003, 48.489], [-0.977, 48.493], [-0.964, 48.511], [-0.924, 48.513], [-0.905, 48.496], [-0.86, 48.502], [-0.797, 48.466], [-0.765, 48.436], [-0.715, 48.449], [-0.676, 48.483], [-0.656, 48.473], [-0.651, 48.444], [-0.595, 48.473], [-0.551, 48.473], [-0.51, 48.509], [-0.478, 48.502], [-0.447, 48.515], [-0.372, 48.496], [-0.32, 48.523], [-0.272, 48.507], [-0.234, 48.562], [-0.208, 48.564], [-0.179, 48.542], [-0.144, 48.528], [-0.173, 48.511], [-0.149, 48.481], [-0.15, 48.46], [-0.125, 48.449], [-0.049, 48.448], [-0.057, 48.429], [-0.055, 48.382], [-0.002, 48.398], [0.022, 48.38], [0.069, 48.407], [0.1, 48.41], [0.12, 48.437], [0.153, 48.438], [0.214, 48.474], [0.301, 48.481], [0.353, 48.46], [0.38, 48.426], [0.371, 48.411], [0.383, 48.334], [0.431, 48.307], [0.493, 48.306], [0.494, 48.286], [0.562, 48.246], [0.624, 48.245], [0.652, 48.264], [0.683, 48.255], [0.738, 48.189], [0.758, 48.179], [0.798, 48.195], [0.844, 48.165], [0.86, 48.168], [0.911, 48.149], [0.91, 48.136], [0.853, 48.134], [0.841, 48.103], [0.842, 48.072], [0.8, 48.071], [0.797, 48.037], [0.842, 48.03], [0.819, 47.986], [0.848, 47.942], [0.813, 47.932], [0.813, 47.914], [0.76, 47.899], [0.758, 47.884], [0.775, 47.84], [0.746, 47.826], [0.711, 47.788], [0.689, 47.78], [0.581, 47.713], [0.615, 47.694], [0.615, 47.683], [0.551, 47.659], [0.457, 47.639], [0.45, 47.619], [0.425, 47.618], [0.383, 47.643], [0.365, 47.62], [0.397, 47.594], [0.379, 47.569], [0.341, 47.58], [0.322, 47.595], [0.279, 47.598], [0.253, 47.613], [0.23, 47.608], [0.234, 47.581], [0.215, 47.57], [0.199, 47.541], [0.226, 47.526], [0.181, 47.453], [0.185, 47.423], [0.166, 47.404], [0.167, 47.385], [0.138, 47.336], [0.117, 47.332], [0.078, 47.283], [0.073, 47.215], [0.054, 47.163], [0.019, 47.176], [-0.014, 47.155], [-0.036, 47.125], [-0.044, 47.093], [-0.095, 47.095], [-0.102, 47.065], [-0.129, 47.054], [-0.148, 47.07], [-0.14, 47.098], [-0.18, 47.108], [-0.208, 47.096], [-0.242, 47.106], [-0.287, 47.102], [-0.336, 47.088], [-0.386, 47.087], [-0.409, 47.066], [-0.429, 47.073], [-0.485, 47.065], [-0.502, 47.08], [-0.557, 47.064], [-0.565, 47.02], [-0.619, 46.992], [-0.674, 47.003], [-0.716, 46.984], [-0.801, 46.994], [-0.843, 46.99], [-0.861, 46.969], [-0.892, 46.976], [-0.88, 46.946], [-0.849, 46.946], [-0.832, 46.934], [-0.817, 46.881], [-0.766, 46.834], [-0.709, 46.821], [-0.727, 46.782], [-0.716, 46.752], [-0.694, 46.744], [-0.658, 46.7], [-0.681, 46.687], [-0.641, 46.664], [-0.649, 46.645], [-0.614, 46.622], [-0.625, 46.605], [-0.612, 46.588], [-0.602, 46.542], [-0.638, 46.522], [-0.616, 46.462], [-0.61, 46.414], [-0.538, 46.386], [-0.562, 46.36], [-0.603, 46.361], [-0.605, 46.347], [-0.637, 46.337], [-0.657, 46.315], [-0.697, 46.325], [-0.75, 46.304], [-0.834, 46.342], [-0.861, 46.318], [-0.888, 46.327], [-0.919, 46.313], [-0.963, 46.323], [-0.943, 46.338], [-0.975, 46.351], [-1.013, 46.356], [-1.052, 46.343], [-1.075, 46.318], [-1.124, 46.315], [-1.132, 46.305], [-1.178, 46.311], [-1.206, 46.289], [-1.272, 46.282], [-1.303, 46.294], [-1.328, 46.327], [-1.368, 46.349], [-1.404, 46.341], [-1.47, 46.344], [-1.496, 46.391], [-1.516, 46.404], [-1.585, 46.408], [-1.648, 46.42], [-1.649, 46.431], [-1.689, 46.443], [-1.755, 46.474], [-1.77, 46.489], [-1.813, 46.494], [-1.824, 46.532], [-1.858, 46.61], [-1.909, 46.652], [-1.948, 46.695], [-1.966, 46.692], [-1.981, 46.719], [-2.068, 46.779], [-2.121, 46.805], [-2.144, 46.822], [-2.157, 46.885], [-2.127, 46.893], [-2.106, 46.92], [-2.058, 46.951], [-2.029, 47.008], [-1.984, 47.03], [-2.004, 47.06], [-2.039, 47.077], [-2.053, 47.094], [-2.111, 47.11], [-2.158, 47.114], [-2.248, 47.134], [-2.226, 47.152], [-2.176, 47.157], [-2.159, 47.198], [-2.181, 47.232], [-2.17, 47.269], [-2.182, 47.284], [-2.267, 47.238], [-2.299, 47.233], [-2.371, 47.277], [-2.418, 47.277], [-2.417, 47.258], [-2.548, 47.291], [-2.531, 47.302], [-2.5, 47.287], [-2.505, 47.336], [-2.534, 47.383], [-2.488, 47.411], [-2.467, 47.416], [-2.446, 47.437], [-2.457, 47.448]]]]}, "properties": {"name": "Pays de la Loire", "iso2": "FR-PDL", "admin_level": 4, "osm_id": 8650, "countrylevel_id": "iso2:FR-PDL", "osm_data": {"localname": "Pays de la Loire", "official_name": "", "alltags": {"name:an": "Países d'a Loira", "name:ar": "وادي اللوار", "name:az": "Luara Torpağı", "name:be": "Землі Луары", "name:bg": "Пеи дьо ла Лоар", "name:br": "Broioù al Liger", "name:ca": "País del Loira", "name:ce": "Луаран латтанаш", "name:en": "Pays de la Loire", "name:eo": "Luarlandoj", "name:es": "Países del Loira", "name:eu": "Pays de la Loire", "name:fa": "پیی دو لا لوآر", "name:fr": "Pays de la Loire", "name:gd": "Broioù al Liger", "name:gl": "Países do Loira", "name:he": "פיי דה לה לואר", "name:hr": "Zemlja Loire", "name:hu": "Loire-mente", "name:hy": "Լուարայի երկիր", "name:io": "Lando di Loire", "name:it": "Paesi della Loira", "name:ja": "ペイ・ド・ラ・ロワール", "name:ka": "ლუარის რეგიონი", "name:ko": "페이드라루아르", "name:la": "Pagi Ligeris", "name:lt": "Luaros Kraštas", "name:lv": "Luāras Zeme", "name:mk": "Лоарски Крај", "name:mr": "पेई दा ला लोआर", "name:oc": "Païses de Léger", "name:pa": "ਪੇ ਡ ਲਾ ਲੁਆਰ", "name:pl": "Kraj Loary", "name:pt": "País do Loire", "name:ro": "Ținuturile Loarei", "name:ru": "Земли Луары", "name:sl": "Regija Loire", "name:sr": "Регион Лоара", "name:th": "แคว้นเปอีเดอลาลัวร์", "name:uk": "Пеї де ла Луар", "name:zh": "卢瓦尔河地区", "website": "http://www.paysdelaloire.fr/", "name:frp": "Payis de la Lêre", "name:pms": "Pais ëd la Lòira", "name:pnb": "لوائیر وادی", "name:scn": "Paisi dâ Loira", "name:xmf": "ლუარაშ რეგიონი", "ref:NUTS": "FR51", "ref:INSEE": "52", "population": "3601113", "name:be-tarask": "Пэй-дэ-ля-Люар"}}, "center_lat": 47.48, "center_lon": -0.82, "area_m2": 32405230381, "timezone": "Europe/Paris", "population": 3757600, "wikidata_id": "Q16994", "wikipedia_id": "fr:Pays de la Loire"}}