{"type": "Feature", "geometry": {"type": "Polygon", "coordinates": [[[-0.388, 5.482], [-0.4, 5.505], [-0.405, 5.516], [-0.41, 5.529], [-0.417, 5.538], [-0.437, 5.572], [-0.431, 5.599], [-0.49, 5.665], [-0.499, 5.725], [-0.091, 5.837], [0.164, 6.025], [0.287, 6.003], [0.519, 5.993], [0.672, 5.774], [0.671, 5.772], [0.665, 5.77], [0.657, 5.771], [0.631, 5.775], [0.611, 5.777], [0.32, 5.782], [0.044, 5.671], [0.036, 5.659], [0.033, 5.655], [0.024, 5.645], [-0.009, 5.619], [-0.021, 5.614], [-0.073, 5.591], [-0.075, 5.589], [-0.209, 5.533], [-0.369, 5.492], [-0.387, 5.483], [-0.388, 5.483], [-0.388, 5.482]]]}, "properties": {"name": "Greater Accra Region", "iso2": "GH-AA", "admin_level": 4, "osm_id": 1991849, "countrylevel_id": "iso2:GH-AA", "osm_data": {"localname": "Greater Accra Region", "official_name": "", "alltags": {"name:ar": "إقليم أكرا الكبرى", "name:en": "Greater Accra Region", "name:es": "Región Gran Acra", "name:fr": "Région du Grand Accra", "name:ru": "Большая Аккра", "name:uk": "Велика Аккра"}}, "center_lat": 5.78, "center_lon": 0.04, "area_m2": 3225189166, "timezone": "Africa/Accra", "wikidata_id": "Q431729", "wikipedia_id": "en:Greater Accra Region"}}