{"type": "Feature", "geometry": {"type": "MultiPolygon", "coordinates": [[[[170.971, -44.91], [170.97, -44.91], [170.969, -44.912], [170.91, -44.9], [170.971, -44.91]]], [[[171.12, -44.932], [171.117, -44.932], [171.117, -44.931], [171.118, -44.931], [171.12, -44.932]]], [[[169.699, -43.964], [170.238, -43.514], [170.592, -43.434], [170.993, -43.215], [171.316, -42.947], [171.691, -42.901], [172.479, -42.277], [172.721, -42.103], [173.036, -42.483], [173.72, -41.961], [174.05, -41.968], [173.938, -42.168], [173.509, -42.506], [173.32, -42.882], [172.729, -43.261], [172.716, -43.547], [173.109, -43.703], [173.102, -43.831], [172.287, -43.875], [171.427, -44.23], [171.171, -44.573], [171.153, -44.926], [170.898, -44.895], [170.094, -44.94], [169.944, -44.654], [169.644, -44.586], [169.546, -44.423], [169.699, -43.964]]]]}, "properties": {"name": "Canterbury", "iso2": "NZ-CAN", "admin_level": 4, "osm_id": 1640137, "countrylevel_id": "iso2:NZ-CAN", "osm_data": {"localname": "Canterbury", "official_name": "", "alltags": {"name:ar": "كانتربيري", "name:en": "Canterbury", "name:fa": "کنتربری", "name:ja": "カンタベリー", "name:mi": "Waitaha", "name:mk": "Кантербери", "name:ru": "Кентербери", "name:ur": "کینٹربری", "population": "628600"}}, "center_lat": -43.58, "center_lon": 171.55, "area_m2": 45239141570, "timezone": "Pacific/Auckland", "population": 624200, "wikidata_id": "Q657004"}}