{"type": "Feature", "geometry": {"type": "Polygon", "coordinates": [[[43.337, 35.717], [43.445, 36.018], [43.734, 36.326], [44.005, 36.608], [44.303, 36.729], [43.834, 37.014], [44.066, 37.315], [44.268, 37.244], [44.267, 36.976], [44.627, 37.19], [44.784, 37.144], [45.031, 36.74], [45.054, 36.483], [44.649, 36.466], [44.545, 36.325], [44.869, 35.953], [44.628, 35.884], [44.172, 35.803], [43.798, 35.478], [43.413, 35.503], [43.337, 35.717]]]}, "properties": {"name": "Erbil", "iso2": "IQ-AR", "admin_level": 4, "osm_id": 2969761, "countrylevel_id": "iso2:IQ-AR", "osm_data": {"localname": "پارێزگای هەولێر", "official_name": "پارێزگای ھەولێر", "alltags": {"name:ar": "أربيل", "name:az": "Erbil", "name:cs": "Irbíl", "name:en": "Erbil", "name:es": "Gobernación de Erbil", "name:fr": "Erbil", "name:ja": "アルビール", "name:ku": "Parêzgeha Pewlêr", "name:pl": "Irbil", "name:ru": "Эрбиль", "name:uk": "Ербіль провінція (мугафаза)", "alt_name": "هەولێر", "name:ckb": "پارێزگای هەولێر", "name:syc": "ܐܪܒܝܠ", "alt_name:cs": "Arbíl;Erbíl", "alt_name:de": "Arbil", "alt_name:syc": "Arbel", "official_name": "پارێزگای ھەولێر"}}, "center_lat": 36.32, "center_lon": 44.2, "area_m2": 15423165111, "timezone": "Asia/Baghdad", "population": 1532081, "wikidata_id": "Q213189", "wikipedia_id": "ckb:پارێزگای ھەولێر"}}