{"type": "Feature", "geometry": {"type": "Polygon", "coordinates": [[[43.813, 29.873], [44.011, 30.134], [44.228, 30.609], [44.556, 30.933], [44.78, 31.404], [44.96, 31.301], [45.255, 31.755], [45.801, 31.624], [45.77, 31.141], [45.629, 30.991], [45.79, 30.823], [46.221, 30.806], [46.59, 30.529], [46.749, 30.094], [46.57, 29.328], [46.567, 29.12], [46.553, 29.1], [46.051, 29.092], [44.727, 29.192], [43.813, 29.873]]]}, "properties": {"name": "Muthanna", "iso2": "IQ-MU", "admin_level": 4, "osm_id": 3244383, "countrylevel_id": "iso2:IQ-MU", "osm_data": {"localname": "المثنى", "official_name": "", "alltags": {"name:ar": "المثنى", "name:cs": "Mutanná", "name:en": "Muthanna", "name:es": "Gobernación de Mutana", "name:fr": "Al-Muthanna", "name:ja": "ムサンナー", "name:ku": "Misena", "name:pl": "Al-Musanna", "name:ru": "Мутанна", "name:uk": "Мутанна", "alt_name": "Al Muthannā", "alt_name:en": "Al Muthanna"}}, "center_lat": 30.19, "center_lon": 45.37, "area_m2": 52669875120, "timezone": "Asia/Baghdad", "population": 683126, "wikidata_id": "Q212761", "wikipedia_id": "en:Muthanna Governorate"}}