{"type": "Feature", "geometry": {"type": "Polygon", "coordinates": [[[15.542, 48.908], [15.587, 48.947], [16.246, 49.1], [16.251, 49.251], [16.39, 49.476], [16.392, 49.58], [16.804, 49.599], [16.86, 49.381], [17.16, 49.275], [17.15, 49.133], [17.213, 49.093], [17.647, 48.854], [17.396, 48.813], [17.093, 48.799], [16.94, 48.617], [16.464, 48.81], [16.093, 48.747], [15.542, 48.908]]]}, "properties": {"name": "Jihomoravský kraj", "iso2": "CZ-64", "admin_level": 6, "osm_id": 442311, "countrylevel_id": "iso2:CZ-64", "osm_data": {"localname": "Jihomoravský kraj", "official_name": "", "alltags": {"name:cs": "Jihomoravský kraj", "name:eo": "Sudmoravia regiono", "name:fi": "Etelä-Määrin lääni", "name:fr": "Moravie du Sud", "name:hr": "Južna Moravska", "name:hu": "Dél-morvaországi kerület", "name:nl": "Zuid-Moravië", "name:ru": "Южноморавский край", "ref:NUTS": "CZ064", "population": "1161832"}}, "center_lat": 49.08, "center_lon": 16.64, "area_m2": 7180944883, "timezone": "Europe/Prague", "population": 1191989, "wikidata_id": "Q192697", "wikipedia_id": "cs:Jihomoravský kraj"}}