{"type": "Feature", "geometry": {"type": "Polygon", "coordinates": [[[17.22, 50.102], [17.43, 50.254], [17.773, 50.042], [18.035, 50.066], [18.322, 49.916], [18.632, 49.719], [18.851, 49.517], [18.404, 49.397], [18.292, 49.492], [17.917, 49.538], [17.683, 49.709], [17.698, 49.725], [17.525, 49.79], [17.147, 49.878], [17.22, 50.102]]]}, "properties": {"name": "Moravskoslezský kraj", "iso2": "CZ-80", "admin_level": 6, "osm_id": 442461, "countrylevel_id": "iso2:CZ-80", "osm_data": {"localname": "Moravskoslezský kraj", "official_name": "", "alltags": {"name:cs": "Moravskoslezský kraj", "name:eo": "Moraviasilezia regiono", "name:hr": "Moravsko-šleski kraj", "name:hu": "Morva-sziléziai kerület", "name:nl": "Moravië-Silezië", "name:pl": "kraj morawsko-śląski", "name:ru": "Моравскосилезский край", "ref:NUTS": "CZ080", "population": "1243315"}}, "center_lat": 49.82, "center_lon": 17.98, "area_m2": 5423567498, "timezone": "Europe/Prague", "population": 1200539, "wikidata_id": "Q190550", "wikipedia_id": "cs:Moravskoslezský kraj"}}