{"type": "Feature", "geometry": {"type": "Polygon", "coordinates": [[[28.823, 46.422], [28.795, 46.445], [28.887, 46.484], [28.878, 46.496], [28.917, 46.511], [28.934, 46.537], [28.964, 46.535], [28.987, 46.507], [28.981, 46.489], [29.023, 46.48], [29.025, 46.462], [28.931, 46.458], [28.967, 46.376], [28.987, 46.343], [28.985, 46.318], [28.952, 46.259], [28.898, 46.295], [28.733, 46.27], [28.728, 46.315], [28.872, 46.339], [28.848, 46.399], [28.823, 46.422]]]}, "properties": {"name": "Basarabeasca District", "iso2": "MD-BS", "admin_level": 4, "osm_id": 1104136, "countrylevel_id": "iso2:MD-BS", "osm_data": {"localname": "Raionul Basarabeasca", "official_name": "", "alltags": {"name:bg": "Бесарабски район", "name:en": "Basarabeasca District", "name:ro": "Raionul Basarabeasca", "name:ru": "Бессарабский район", "name:uk": "Бессарабський район", "website": "http://www.basarabeasca.md/"}}, "center_lat": 46.38, "center_lon": 28.9, "area_m2": 294821246, "timezone": "Europe/Chisinau", "population": 23012, "wikidata_id": "Q1980044", "wikipedia_id": "en:Basarabeasca District"}}