{"type": "Feature", "geometry": {"type": "MultiPolygon", "coordinates": [[[[56.106, 24.82], [56.204, 24.824], [56.104, 24.736], [56.076, 24.739], [56.106, 24.82]]], [[[55.35, 25.312], [55.362, 25.3], [55.629, 25.21], [55.739, 24.753], [55.523, 24.651], [55.202, 24.659], [55.024, 24.868], [54.942, 24.897], [54.94, 24.898], [54.907, 24.906], [54.904, 24.907], [54.89, 24.911], [54.891, 24.911], [55.35, 25.312]]]]}, "properties": {"name": "Dubai", "iso2": "AE-DU", "admin_level": 4, "osm_id": 3766483, "countrylevel_id": "iso2:AE-DU", "osm_data": {"localname": "دبي‎", "official_name": "", "alltags": {"name:ar": "دبي", "name:en": "Dubai", "name:eo": "Dubajo", "name:es": "Dubái", "name:fr": "Dubaï", "name:io": "Dubai", "name:ko": "두바이", "name:pl": "Dubaj", "name:ru": "Дубай", "state_code": "DU", "is_in:country": "United Arab Emirates", "is_in:continent": "Asia", "is_in:country_code": "AE"}}, "center_lat": 24.94, "center_lon": 55.39, "area_m2": 4011755948, "timezone": "Asia/Dubai", "population": 3355900, "wikidata_id": "Q613", "wikipedia_id": "ar:دبي"}}