{"type": "Feature", "geometry": {"type": "Polygon", "coordinates": [[[-14.301, 21.342], [-13, 21.337], [-13.016, 21.577], [-12.364, 21.347], [-10.774, 21.515], [-6.49, 24.269], [-6.354, 23.158], [-7.988, 19.725], [-11.035, 19.711], [-11.423, 19.409], [-11.678, 19.32], [-12.342, 18.9], [-12.669, 18.557], [-13.244, 19], [-14.222, 19], [-14.22, 19.429], [-14.154, 21.118], [-14.173, 21.145], [-14.301, 21.342]]]}, "properties": {"name": "Adrar", "iso2": "MR-07", "admin_level": 4, "osm_id": 3394986, "countrylevel_id": "iso2:MR-07", "osm_data": {"localname": "أدرار", "official_name": "", "alltags": {"name:ar": "أدرار", "name:en": "Adrar", "name:fr": "Adrar", "name:pl": "Adrar", "name:ru": "Адрар", "name:ber": "ⴰⴷⵔⴰⵔ", "long_name:ar": "ولاية أدرار", "long_name:en": "Adrar Province", "long_name:fr": "Wilaya d'Adrar"}}, "center_lat": 21.01, "center_lon": -10.22, "area_m2": 222271640982, "timezone": "Africa/Nouakchott", "population": 59577, "wikidata_id": "Q366626", "wikipedia_id": "ar:ولاية أدرار (موريتانيا)"}}