{"type": "Feature", "geometry": {"type": "Polygon", "coordinates": [[[-15.992, 21.339], [-15.041, 21.337], [-14.301, 21.342], [-14.173, 21.145], [-15.84, 21.151], [-15.578, 20.738], [-16.283, 19.495], [-16.336, 19.459], [-16.334, 19.46], [-16.425, 19.525], [-16.418, 19.536], [-16.256, 19.782], [-16.23, 20.003], [-16.227, 20.042], [-16.202, 20.207], [-16.361, 20.424], [-16.679, 20.69], [-16.944, 21.107], [-17.05, 20.77], [-16.948, 21.334], [-15.992, 21.339]]]}, "properties": {"name": "Dakhlet Nouadhibou", "iso2": "MR-08", "admin_level": 4, "osm_id": 3395035, "countrylevel_id": "iso2:MR-08", "osm_data": {"localname": "داخلة نواذيبو", "official_name": "", "alltags": {"name:ar": "داخلة نواذيبو", "name:en": "Dakhlet Nouadhibou", "name:fr": "Dakhlet Nouadhibou", "name:lt": "Dachlet Nuadibu vilaja", "name:pl": "Dachlat Nawazibu", "name:ru": "Дахлет-Нуадибу"}}, "center_lat": 20.82, "center_lon": -15.99, "area_m2": 17517409901, "timezone": "Africa/Nouakchott", "wikidata_id": "Q859573", "wikipedia_id": "ar:داخلة نواذيبو"}}