{"type": "Feature", "geometry": {"type": "Polygon", "coordinates": [[[127.762, 34.971], [127.578, 35.309], [127.65, 35.489], [127.65, 35.49], [127.65, 35.491], [127.651, 35.494], [127.651, 35.495], [127.646, 35.498], [127.645, 35.499], [127.662, 35.759], [127.885, 35.91], [128.371, 35.611], [128.526, 35.682], [128.759, 35.568], [129.003, 35.621], [129.203, 35.388], [128.822, 35.098], [128.822, 35.097], [128.821, 35.095], [128.821, 35.093], [128.82, 35.093], [128.819, 35.092], [128.818, 35.091], [128.818, 35.078], [128.611, 35.149], [128.425, 34.939], [128.16, 34.907], [127.762, 34.971]]]}, "properties": {"name": "Gyeongsangnam-do", "iso2": "KR-48", "admin_level": 4, "osm_id": 2393403, "countrylevel_id": "iso2:KR-48", "osm_data": {"localname": "경상남도", "official_name": "", "alltags": {"name:bg": "Кьонсан-Намдо", "name:ca": "Gyeongsangnam-do", "name:el": "Γκιόνγκσανγκναμ-ντο", "name:en": "Gyeongsangnam-do", "name:es": "Gyeongsang del Sur", "name:et": "Lõuna-Kyŏngsangi provints", "name:fa": "جئونسانگنام-دو", "name:fi": "Etelä-Gyeongsang", "name:fr": "Gyeongsang du Sud", "name:id": "Gyeongsang Selatan", "name:it": "Sud Gyeongsang", "name:ja": "慶尚南道", "name:ko": "경상남도", "name:lt": "Pietų Kiongsango provincija", "name:ms": "Gyeongsang Selatan", "name:nl": "Gyeongsangnam-do", "name:no": "Sør-Gyeongsang", "name:pl": "Gyeongsang Południowy", "name:pt": "Gyeongsang do Sul", "name:ru": "Кёнсан-Намдо", "name:sv": "Sydgyeongsang", "name:sw": "Gyeongsangnam-do", "name:th": "จังหวัดคย็องซังใต้", "name:uk": "Південна провінція Кьонсан", "name:vi": "Gyeongsang Nam", "name:zh": "庆尚南道", "alt_name:en": "South Gyeongsang Province", "loc_name:ko": "경남도", "name:ko-Latn": "Gyeongsangnam-do", "name:zh-Hant": "慶尙南道", "name:ko_hanja": "慶尙南道", "short_name:en": "Gyeongnam", "short_name:ko": "경남", "short_name:zh": "慶南", "loc_name:ko-Latn": "Gyeongnam-do", "official_name:ko": "경상남도", "loc_name:ko_hanja": "慶南道", "short_name:ko-Latn": "Gyeongnam", "short_name:zh-Hans": "庆南", "short_name:ko_hanja": "慶南"}}, "center_lat": 35.32, "center_lon": 128.26, "area_m2": 10557819031, "timezone": "Asia/Seoul", "population": 3350350, "wikidata_id": "Q41151", "wikipedia_id": "ko:경상남도"}}