{"type": "Feature", "geometry": {"type": "Polygon", "coordinates": [[[126.916, 33.427], [126.829, 33.306], [126.471, 33.226], [126.263, 33.436], [126.773, 33.565], [126.916, 33.427]]]}, "properties": {"name": "Jeju-do", "iso2": "KR-49", "admin_level": 4, "osm_id": 2398560, "countrylevel_id": "iso2:KR-49", "osm_data": {"localname": "제주특별자치도", "official_name": "제주특별자치도", "alltags": {"name:ar": "مقاطعة جيجو", "name:be": "Чэджуда", "name:bg": "Чеджу-до", "name:bn": "জেজু দ্বীপ", "name:ca": "Jeju-do", "name:cs": "Čedžu", "name:cv": "Чеджу", "name:da": "Jeju-do", "name:en": "Jeju-do", "name:eo": "Jeju-do", "name:es": "Jeju", "name:et": "Cheju provints", "name:eu": "Jejudo", "name:fa": "ججو-دو", "name:fi": "Jeju", "name:fr": "Jeju", "name:gl": "Jeju", "name:he": "ג'ג'ו", "name:hr": "Jeju", "name:hu": "Csedzsu-sziget", "name:ia": "Jeju-do", "name:id": "Jeju", "name:io": "Jeju insulo", "name:it": "Jeju-do", "name:ja": "済州特別自治道", "name:jv": "Jejudo", "name:ko": "제주특별자치도", "name:lt": "Čedžu", "name:ms": "Jeju", "name:nl": "Jeju-do", "name:no": "Jeju", "name:pl": "Czedżu", "name:pt": "Jeju", "name:ro": "Insula Jeju", "name:ru": "Чеджудо", "name:sr": "Чеџу", "name:sv": "Jeju", "name:sw": "Jeju-do", "name:th": "เกาะเชจู", "name:uk": "Провінція Чеджу", "name:vi": "Jeju (tỉnh)", "name:zh": "济州特别自治道", "short_name": "제주", "alt_name:en": "Jeju Special Autonomous Province", "old_name:en": "Cheju-do", "official_name": "제주특별자치도", "short_name:en": "Jeju", "short_name:ja": "済州", "short_name:ko": "제주", "short_name:zh": "濟州", "official_name:en": "Jeju Special Self-Governing Province", "official_name:ja": "済州特別自治道", "official_name:ko": "제주특별자치도", "official_name:zh": "濟州特別自治道", "official_name:ko-Hani": "濟州特別自治道"}}, "center_lat": 33.39, "center_lon": 126.55, "area_m2": 1861811450, "timezone": "Asia/Seoul", "population": 658282, "wikidata_id": "Q41164", "wikipedia_id": "en:Jeju Province"}}