{"type": "Feature", "geometry": {"type": "Polygon", "coordinates": [[[129.364, 37.146], [129.183, 37.05], [128.652, 37.065], [128.195, 37.246], [127.745, 37.212], [127.813, 37.563], [127.609, 37.65], [127.43, 38.115], [127.096, 38.281], [127.385, 38.337], [128.067, 38.308], [128.359, 38.615], [128.61, 38.148], [129.056, 37.676], [129.364, 37.146]]]}, "properties": {"name": "Gangwon-do", "iso2": "KR-42", "admin_level": 4, "osm_id": 2308426, "countrylevel_id": "iso2:KR-42", "osm_data": {"localname": "강원도", "official_name": "", "alltags": {"name:bg": "Кануън-до", "name:ca": "Gangwon-do", "name:el": "Γκάνγουον-ντο", "name:en": "Gangwon-do", "name:es": "Gangwon", "name:et": "Kangwŏni provints", "name:fa": "گانکون-دو", "name:fi": "Gangwon", "name:fr": "Gangwon", "name:id": "Gangwon", "name:it": "Gangwon", "name:ja": "江原道", "name:ko": "강원도", "name:lt": "Kangvono provincija", "name:mn": "Өмнөд Солонгосын Канвон", "name:ms": "Gangwon", "name:nl": "Gangwon-do", "name:no": "Gangwon", "name:pl": "Gangwon", "name:pt": "Gangwon", "name:ru": "Канвондо", "name:sv": "Gangwon", "name:th": "จังหวัดคังว็อน", "name:uk": "Провінція Канвон", "name:vi": "Gangwon", "name:zh": "江原道", "alt_name:vi": "Giang Nguyên", "name:ko-Latn": "Gangwon-do", "is_in:country": "Republic of Korea", "name:ko_hanja": "江原道", "is_in:continent": "Asia", "is_in:country_code": "KR"}}, "center_lat": 37.73, "center_lon": 128.3, "area_m2": 16878365613, "timezone": "Asia/Seoul", "population": 1520391, "wikidata_id": "Q41071", "wikipedia_id": "ko:강원도 (남)"}}