{"type": "Feature", "geometry": {"type": "Polygon", "coordinates": [[[23.742, -5.659], [23.955, -5.825], [24.067, -6.383], [23.797, -6.406], [23.77, -6.675], [23.591, -6.777], [23.367, -6.529], [23.145, -6.466], [22.952, -5.958], [22.964, -5.782], [23.47, -5.755], [23.742, -5.659]]]}, "properties": {"name": "Kasai-Oriental", "iso2": "CD-KE", "admin_level": 4, "osm_id": 3654168, "countrylevel_id": "iso2:CD-KE", "osm_data": {"localname": "Kasaï-Oriental", "official_name": "", "alltags": {"name:en": "Kasai-Oriental", "name:es": "Kasai Oriental", "name:fr": "Kasaï-Oriental", "name:it": "Kasai Orientale", "name:nl": "Oost-Kasaï", "name:ru": "Восточное Касаи", "start_date": "2015-06", "description": "ancien district devenu province en juin 2015", "admin_type:CD": "province", "admin_level:-2015-06": "5", "admin_level:2015-06-": "4", "admin_type:CD:-2005-06": "district", "admin_type:CD:2005-06-": "province"}}, "center_lat": -6.16, "center_lon": 23.52, "area_m2": 10199562811, "timezone": "Africa/Lubumbashi", "wikidata_id": "Q917992"}}