{"type": "Feature", "geometry": {"type": "Polygon", "coordinates": [[[25.084, 65.589], [25.425, 65.743], [26.825, 65.701], [27.407, 65.938], [28.224, 65.801], [28.768, 66.185], [28.695, 66.486], [29.574, 66.433], [30.068, 65.895], [29.755, 65.497], [29.32, 65.521], [28.034, 65.239], [27.894, 65.091], [27.33, 65.091], [27.148, 64.835], [26.291, 64.479], [26.767, 64.265], [26.87, 64.037], [26.218, 63.832], [26.139, 63.458], [25.251, 63.612], [25.036, 63.458], [24.247, 63.877], [24.011, 64.086], [23.617, 64.049], [23.701, 64.222], [24.371, 64.545], [24.719, 64.87], [25.243, 65.127], [25.349, 65.458], [25.084, 65.589]]]}, "properties": {"name": "North Ostrobothnia", "iso2": "FI-14", "admin_level": 6, "osm_id": 1724360, "countrylevel_id": "iso2:FI-14", "osm_data": {"localname": "Pohjois-Pohjanmaa", "official_name": "", "alltags": {"name:cs": "Severní Pohjanmaa", "name:en": "North Ostrobothnia", "name:fi": "Pohjois-Pohjanmaa", "name:fr": "Ostrobotnie du Nord", "name:nl": "Noord-Oost-Botnië", "name:ru": "Похьойс-Похьянмаа", "name:se": "Davvi-Pohjanmaa", "name:sv": "Norra Österbotten", "is_in:country_code": "FI"}}, "center_lat": 64.97, "center_lon": 26.61, "area_m2": 37251734871, "timezone": "Europe/Helsinki", "wikidata_id": "Q5704"}}