{"type": "Feature", "geometry": {"type": "Polygon", "coordinates": [[[24.144, 65.841], [23.646, 66.3], [23.995, 66.823], [23.557, 67.166], [23.763, 67.426], [23.51, 67.88], [23.07, 68.3], [21.43, 68.691], [20.549, 69.06], [21.279, 69.312], [21.984, 69.073], [22.341, 68.827], [23.168, 68.629], [23.983, 68.827], [24.917, 68.605], [25.157, 68.8], [25.777, 69.02], [25.694, 69.196], [25.893, 69.665], [26.676, 69.965], [27.575, 70.067], [28.404, 69.818], [29.134, 69.695], [29.336, 69.478], [28.832, 69.224], [28.929, 69.052], [28.434, 68.54], [28.646, 68.196], [29.327, 68.075], [29.931, 67.523], [29.073, 66.996], [29.323, 66.663], [29.574, 66.433], [28.695, 66.486], [28.768, 66.185], [28.224, 65.801], [27.407, 65.938], [26.825, 65.701], [25.425, 65.743], [25.084, 65.589], [24.144, 65.841]]]}, "properties": {"name": "Lapland", "iso2": "FI-10", "admin_level": 6, "osm_id": 1724359, "countrylevel_id": "iso2:FI-10", "osm_data": {"localname": "Lappi", "official_name": "", "alltags": {"name:cs": "Laponsko (Finsko)", "name:en": "Lapland", "name:fi": "Lappi", "name:it": "Lapponia", "name:nl": "Lapland", "name:ru": "Лапландия", "name:sv": "Lappland", "int_name": "Lappi", "name:sme": "Sápmi", "is_in:country_code": "FI"}}, "center_lat": 67.73, "center_lon": 26.32, "area_m2": 98489833180, "timezone": "Europe/Helsinki", "population": 182844, "wikidata_id": "Q5700"}}