{"type": "Feature", "geometry": {"type": "MultiPolygon", "coordinates": [[[[21.337, 61.956], [21.329, 61.954], [21.361, 62.366], [21.134, 62.476], [21.176, 62.73], [21.612, 63.083], [21.52, 63.226], [22.392, 63.336], [22.21, 63.479], [22.872, 63.83], [22.934, 63.779], [22.954, 63.782], [23.478, 63.779], [23.697, 63.38], [23.265, 63.47], [22.741, 63.359], [22.654, 63.14], [22.201, 62.752], [21.592, 62.605], [21.647, 62.02], [21.339, 61.956], [21.337, 61.956]]], [[[22.84, 63.866], [22.839, 63.865], [22.835, 63.869], [22.84, 63.866]]]]}, "properties": {"name": "Ostrobothnia", "iso2": "FI-12", "admin_level": 6, "osm_id": 2000320, "countrylevel_id": "iso2:FI-12", "osm_data": {"localname": "Österbotten", "official_name": "", "alltags": {"name:en": "Ostrobothnia", "name:fi": "Pohjanmaa", "name:fr": "Ostrobotnie", "name:nl": "Oost-Botnië", "name:ru": "Похьянмаа", "name:sv": "Österbotten", "old_name": "Ostrobothnia", "population": "181283", "population:date": "2015-08-31", "is_in:country_code": "FI", "start_date:old_name": "before 1532"}}, "center_lat": 63.08, "center_lon": 22.14, "area_m2": 7863591958, "timezone": "Europe/Helsinki", "wikidata_id": "Q5702"}}