{"type": "Feature", "geometry": {"type": "MultiPolygon", "coordinates": [[[[42.286, 15.873], [42.285, 15.873], [42.285, 15.874], [42.286, 15.874], [42.286, 15.873]]], [[[42.772, 16.404], [43.121, 16.529], [43.235, 16.643], [43.532, 16.63], [43.516, 16.237], [43.754, 15.734], [43.633, 15.536], [43.241, 15.508], [43.243, 15.87], [42.811, 15.867], [42.772, 16.404]]]]}, "properties": {"name": "Hajjah Governorate", "iso2": "YE-HJ", "admin_level": 4, "osm_id": 383905, "countrylevel_id": "iso2:YE-HJ", "osm_data": {"localname": "محافظة حجة", "official_name": "", "alltags": {"GNS:id": "9236594", "name:ar": "محافظة حجة", "name:cs": "provincie Hadža", "name:en": "Hajjah Governorate", "name:es": "Gobernación de Hajjah", "name:fr": "Gouvernorat de Hajjah", "name:ru": "Хадджа", "alt_name": "Muḩāfaz̧at Ḩajjah", "population": "1479568", "GNS:dsg_code": "ADM1", "GNS:dsg_name": "first-order administrative division", "is_in:continent": "Asia", "population:date": "2004-12-17", "sorting_name:cs": "Hadža"}}, "center_lat": 16.09, "center_lon": 43.26, "area_m2": 8339481725, "timezone": "Asia/Aden", "population": 1959000, "wikidata_id": "Q328158", "wikipedia_id": "ar:حجة (محافظة)"}}