{"type": "Feature", "geometry": {"type": "Polygon", "coordinates": [[[43.506, 15.05], [43.545, 15.2], [43.911, 15.427], [43.901, 15.534], [44.046, 15.586], [44.349, 16.045], [44.575, 16.002], [44.793, 15.577], [44.689, 15.448], [45.109, 15.286], [44.908, 14.794], [44.837, 14.747], [44.702, 15.009], [44.226, 14.927], [44.049, 14.999], [43.755, 14.84], [43.641, 14.942], [43.506, 15.05]], [[44.121, 15.459], [44.263, 15.331], [44.278, 15.501], [44.121, 15.459]]]}, "properties": {"name": "Sana'a Governorate", "iso2": "YE-SN", "admin_level": 4, "osm_id": 383891, "countrylevel_id": "iso2:YE-SN", "osm_data": {"localname": "محافظة صنعاء", "official_name": "", "alltags": {"GNS:id": "-3191447", "name:ar": "محافظة صنعاء", "name:cs": "provincie San'á", "name:en": "Sana'a Governorate", "name:es": "Gobernación de Saná", "name:fr": "Gouvernorat de Sanaa", "name:ru": "Сана", "alt_name": "Muḩāfaz̧at Sanʿaʾ", "name:ckb": "سەنعا", "population": "919215", "GNS:dsg_code": "ADM1", "GNS:dsg_name": "first-order administrative division", "population:date": "2004-12-17", "sorting_name:cs": "San'á"}}, "center_lat": 15.33, "center_lon": 44.34, "area_m2": 11927042649, "timezone": "Asia/Aden", "population": 1095000, "wikidata_id": "Q388291", "wikipedia_id": "ar:صنعاء (محافظة)"}}