{"type": "Feature", "geometry": {"type": "MultiPolygon", "coordinates": [[[[17.001, 57.108], [16.478, 56.237], [16.371, 56.528], [16.526, 56.757], [17.001, 57.108]]], [[[16.05, 56.322], [15.365, 56.482], [15.52, 56.914], [15.83, 56.991], [15.515, 57.202], [15.421, 57.705], [15.599, 57.854], [16.265, 58.142], [16.665, 57.997], [16.7, 57.492], [16.488, 57.29], [16.415, 56.78], [16.05, 56.322]]]]}, "properties": {"name": "Kalmar County", "iso2": "SE-H", "admin_level": 4, "osm_id": 54417, "countrylevel_id": "iso2:SE-H", "osm_data": {"localname": "Kalmar län", "official_name": "", "alltags": {"name:ar": "مقاطعة كالمار", "name:en": "Kalmar County", "name:es": "Provincia de Kalmar", "name:fi": "Kalmarin lääni", "name:fr": "Comté de Kalmar", "name:gl": "Condado de Kalmar", "name:hi": "कल्मार लैन", "name:hr": "Županija Kalmar", "name:hu": "Kalmar megye", "name:id": "Daerah Kalmar", "name:it": "Contea di Kalmar", "name:ja": "カルマル県", "name:ko": "칼마르 주", "name:kw": "Konteth Kalmar", "name:la": "Calmariae Comitatus", "name:lt": "Kalmaro lėnas", "name:lv": "Kalmaras lēne", "name:ms": "Daerah Kalmar", "name:ru": "Кальмар", "name:se": "Kalmara leatna", "name:vo": "Kalmariän", "ref:fips": "SW09", "ref:nuts:1": "SE2", "ref:nuts:2": "SE21", "ref:nuts:3": "SE213", "ref:se:scb": "08"}}, "center_lat": 57.2, "center_lon": 16.13, "area_m2": 11622248319, "timezone": "Europe/Stockholm", "population": 245446, "wikidata_id": "Q103707", "wikipedia_id": "sv:Kalmar län"}}