{"type": "Feature", "geometry": {"type": "Polygon", "coordinates": [[[11.925, 57.563], [12.277, 57.598], [12.605, 57.347], [13.1, 57.146], [13.498, 57.109], [13.681, 56.972], [13.298, 56.824], [13.311, 56.687], [13.312, 56.688], [13.462, 56.428], [13.216, 56.327], [12.898, 56.449], [12.358, 56.922], [11.903, 57.441], [11.925, 57.563]]]}, "properties": {"name": "Halland County", "iso2": "SE-N", "admin_level": 4, "osm_id": 54403, "countrylevel_id": "iso2:SE-N", "osm_data": {"localname": "Hallands län", "official_name": "", "alltags": {"name:ar": "محافظة هاللاند", "name:bs": "Kotar Halland", "name:ca": "Comtat de Halland", "name:cs": "Halland", "name:en": "Halland County", "name:es": "Provincia de Halland", "name:et": "Hallandi lään", "name:eu": "Hallandeko konderria", "name:fa": "شهرستان هاللاند", "name:fi": "Hallandin lääni", "name:fr": "Comté de Halland", "name:gl": "Condado de Halland", "name:he": "הלנד", "name:hi": "हल्लान्द लैन", "name:hr": "Županija Halland", "name:hu": "Halland megye", "name:id": "Daerah Halland", "name:it": "Contea di Halland", "name:ja": "ハッランド県", "name:ko": "할란드 주", "name:kw": "Konteth Halland", "name:la": "Hallandiae Comitatus", "name:lt": "Halando lėnas", "name:lv": "Hallandes lēne", "name:ms": "Daerah Halland", "name:pt": "Halândia (condado)", "name:ru": "Халланд", "name:se": "Hallándda leatna", "name:tr": "Halland ili", "name:ur": "ہالاند کاؤنٹی", "name:vi": "Halland (hạt)", "name:vo": "Halläniän (provin)", "name:zh": "哈兰省", "ref:fips": "SW06", "ref:nuts:1": "SE2", "ref:nuts:2": "SE23", "ref:nuts:3": "SE231", "ref:se:scb": "13"}}, "center_lat": 56.96, "center_lon": 12.84, "area_m2": 5693859682, "timezone": "Europe/Stockholm", "population": 333848, "wikidata_id": "Q103691", "wikipedia_id": "sv:Hallands län"}}