{"type": "Feature", "geometry": {"type": "Polygon", "coordinates": [[[17.489, 62.137], [16.013, 62.259], [15.326, 62.272], [14.801, 62.404], [15.128, 62.559], [15.966, 62.713], [16.37, 62.696], [16.671, 62.917], [16.999, 62.947], [15.966, 63.444], [16.087, 63.704], [16.614, 63.714], [16.719, 64.027], [17.733, 63.88], [18.406, 63.996], [18.485, 63.843], [18.962, 63.761], [19.287, 63.47], [19.088, 63.219], [18.664, 63.168], [18.457, 62.876], [17.989, 62.704], [17.848, 62.49], [17.332, 62.485], [17.494, 62.137], [17.49, 62.137], [17.489, 62.137]]]}, "properties": {"name": "Västernorrland County", "iso2": "SE-Y", "admin_level": 4, "osm_id": 52827, "countrylevel_id": "iso2:SE-Y", "osm_data": {"localname": "Västernorrlands län", "official_name": "", "alltags": {"name:ar": "محافظة وسترنورلاند", "name:en": "Västernorrland County", "name:es": "Provincia de Västernorrland", "name:fi": "Västernorrlandin lääni", "name:fr": "Comté de Västernorrland", "name:lt": "Vesternorlando lėnas", "name:ru": "Вестерноррланд", "name:sv": "Västernorrlands län", "ref:fips": "SW24", "ref:nuts:1": "SE3", "ref:nuts:2": "SE32", "ref:nuts:3": "SE321", "ref:se:scb": "22", "is_in:country": "Sweden", "is_in:continent": "Europe", "is_in:country_code": "SE"}}, "center_lat": 63.1, "center_lon": 17.26, "area_m2": 23068852612, "timezone": "Europe/Stockholm", "population": 245347, "wikidata_id": "Q104891", "wikipedia_id": "sv:Västernorrlands län"}}