{"type": "Feature", "geometry": {"type": "Polygon", "coordinates": [[[101.41, 15], [101.275, 15.092], [101.3, 15.302], [101.428, 15.215], [101.885, 15.385], [102.035, 15.651], [102.335, 15.806], [102.426, 15.693], [102.789, 15.639], [102.943, 15.504], [102.981, 15.187], [102.444, 14.807], [102.594, 14.149], [102.12, 14.144], [101.483, 14.462], [101.409, 14.425], [101.243, 14.48], [101.274, 14.729], [101.41, 15]]]}, "properties": {"name": "Nakhon Ratchasima Province", "iso2": "TH-30", "admin_level": 4, "osm_id": 1908790, "countrylevel_id": "iso2:TH-30", "osm_data": {"localname": "จังหวัดนครราชสีมา", "official_name": "", "alltags": {"name:en": "Nakhon Ratchasima Province", "name:ja": "ナコーンラーチャシーマー県", "name:ko": "라콘나차시마", "name:pl": "Nakhon Ratchasima", "name:ru": "Накхонратчасима", "name:th": "จังหวัดนครราชสีมา", "name:uk": "Накхонратчасіма", "name:th-Latn": "Changwat Nakhon Ratchasima"}}, "center_lat": 14.96, "center_lon": 102.12, "area_m2": 20854805189, "timezone": "Asia/Bangkok", "population": 2646401, "wikidata_id": "Q271737", "wikipedia_id": "en:Nakhon Ratchasima Province"}}