{"type": "Feature", "geometry": {"type": "Polygon", "coordinates": [[[97.36, 18.599], [97.444, 18.495], [97.768, 18.578], [97.736, 19.041], [97.835, 19.093], [97.792, 19.395], [97.863, 19.576], [98.467, 19.693], [98.609, 19.475], [98.649, 19.067], [98.116, 19.081], [98.081, 18.824], [98.16, 18.483], [98.086, 17.997], [98.302, 17.696], [97.911, 17.567], [97.672, 17.882], [97.736, 17.987], [97.639, 18.288], [97.444, 18.34], [97.36, 18.599]]]}, "properties": {"name": "Mae Hong Son Province", "iso2": "TH-58", "admin_level": 4, "osm_id": 1908785, "countrylevel_id": "iso2:TH-58", "osm_data": {"localname": "จังหวัดแม่ฮ่องสอน", "official_name": "", "alltags": {"name:en": "Mae Hong Son Province", "name:ja": "メーホンソーン県", "name:pl": "Mae Hong Son", "name:ru": "Мэхонгсон", "name:th": "จังหวัดแม่ฮ่องสอน", "name:uk": "Мехонгсон", "name:zh": "夜丰颂府", "name:th-Latn": "Changwat Mae Hong Son"}}, "center_lat": 18.75, "center_lon": 98.03, "area_m2": 13461070317, "timezone": "Asia/Bangkok", "population": 282566, "wikidata_id": "Q269270", "wikipedia_id": "en:Mae Hong Son Province"}}