{"type": "Feature", "geometry": {"type": "Polygon", "coordinates": [[[99.768, 9.322], [99.879, 9.219], [99.957, 8.62], [100.215, 8.441], [100.336, 7.931], [100.129, 7.802], [99.952, 7.906], [99.744, 7.851], [99.338, 7.943], [99.266, 8.341], [99.451, 8.602], [99.527, 8.846], [99.777, 9.048], [99.768, 9.322]]]}, "properties": {"name": "Nakhon Si Thammarat Province", "iso2": "TH-80", "admin_level": 4, "osm_id": 1908792, "countrylevel_id": "iso2:TH-80", "osm_data": {"localname": "จังหวัดนครศรีธรรมราช", "official_name": "", "alltags": {"name:en": "Nakhon Si Thammarat Province", "name:ja": "ナコーンシータンマラート県", "name:ko": "나콘시탐마랏 주", "name:pl": "Nakhon Si Thammarat", "name:ru": "Накхонситхаммарат", "name:th": "จังหวัดนครศรีธรรมราช", "name:uk": "Накхонсітхаммарат", "name:zh": "洛坤府", "name:th-Latn": "Changwat Nakhon Si Thammarat"}}, "center_lat": 8.37, "center_lon": 99.78, "area_m2": 10272542371, "timezone": "Asia/Bangkok", "population": 1560433, "wikidata_id": "Q244691", "wikipedia_id": "en:Nakhon Si Thammarat Province"}}