{"type": "Feature", "geometry": {"type": "MultiPolygon", "coordinates": [[[[-36.392, -10.508], [-36.391, -10.509], [-36.393, -10.509], [-36.392, -10.508]]], [[[-37.363, -11.447], [-37.381, -11.468], [-37.422, -11.504], [-37.46, -11.522], [-37.504, -11.524], [-37.518, -11.548], [-37.56, -11.549], [-37.588, -11.528], [-37.62, -11.536], [-37.633, -11.518], [-37.663, -11.531], [-37.672, -11.559], [-37.699, -11.563], [-37.726, -11.553], [-37.758, -11.525], [-37.798, -11.522], [-37.814, -11.514], [-37.824, -11.492], [-37.853, -11.468], [-37.877, -11.436], [-37.898, -11.438], [-37.92, -11.404], [-37.937, -11.422], [-37.952, -11.395], [-37.975, -11.393], [-37.983, -11.347], [-38.007, -11.286], [-37.987, -11.271], [-37.991, -11.229], [-37.978, -11.221], [-37.976, -11.197], [-38.003, -11.194], [-38.028, -11.177], [-38.062, -11.172], [-38.071, -11.142], [-38.065, -11.124], [-38.089, -11.116], [-38.075, -11.077], [-38.092, -11.057], [-38.108, -11.01], [-38.135, -11.015], [-38.17, -10.989], [-38.199, -10.928], [-38.227, -10.916], [-38.239, -10.867], [-38.232, -10.84], [-38.243, -10.82], [-38.238, -10.8], [-38.219, -10.783], [-38.209, -10.757], [-38.217, -10.729], [-38.208, -10.713], [-38.183, -10.705], [-38.144, -10.719], [-38.098, -10.712], [-38.068, -10.716], [-38.04, -10.702], [-38.017, -10.731], [-37.985, -10.759], [-37.814, -10.691], [-37.833, -10.561], [-37.818, -10.521], [-37.821, -10.484], [-37.859, -10.43], [-37.838, -10.382], [-37.799, -10.362], [-37.783, -10.346], [-37.737, -10.336], [-37.765, -10.196], [-37.783, -10.18], [-37.774, -10.144], [-37.798, -10.109], [-37.821, -10.057], [-37.828, -10.003], [-37.875, -9.978], [-37.957, -9.971], [-37.968, -9.962], [-37.997, -9.91], [-37.985, -9.889], [-37.968, -9.815], [-37.998, -9.803], [-38.03, -9.773], [-38.038, -9.749], [-38.045, -9.697], [-38.025, -9.681], [-38.022, -9.666], [-38, -9.649], [-38.04, -9.6], [-38.038, -9.57], [-38.003, -9.515], [-37.992, -9.525], [-37.92, -9.549], [-37.894, -9.539], [-37.872, -9.56], [-37.82, -9.595], [-37.786, -9.638], [-37.752, -9.627], [-37.712, -9.631], [-37.671, -9.657], [-37.652, -9.688], [-37.575, -9.737], [-37.515, -9.746], [-37.473, -9.747], [-37.422, -9.762], [-37.402, -9.777], [-37.343, -9.796], [-37.327, -9.815], [-37.285, -9.832], [-37.253, -9.866], [-37.241, -9.895], [-37.218, -9.902], [-37.172, -9.893], [-37.148, -9.899], [-37.121, -9.92], [-37.064, -9.977], [-37.041, -9.988], [-36.999, -9.977], [-36.979, -9.981], [-36.956, -10.01], [-36.957, -10.046], [-36.952, -10.074], [-36.929, -10.102], [-36.913, -10.134], [-36.874, -10.142], [-36.848, -10.163], [-36.846, -10.189], [-36.825, -10.212], [-36.745, -10.232], [-36.711, -10.267], [-36.661, -10.27], [-36.629, -10.251], [-36.611, -10.262], [-36.602, -10.288], [-36.556, -10.327], [-36.562, -10.346], [-36.557, -10.376], [-36.561, -10.414], [-36.55, -10.426], [-36.502, -10.431], [-36.465, -10.409], [-36.429, -10.433], [-36.407, -10.49], [-36.395, -10.5], [-36.41, -10.513], [-36.442, -10.519], [-36.606, -10.582], [-36.686, -10.638], [-36.743, -10.662], [-36.812, -10.708], [-36.871, -10.761], [-36.947, -10.843], [-37.006, -10.918], [-37.035, -10.967], [-37.035, -10.979], [-37.075, -11.027], [-37.143, -11.13], [-37.173, -11.135], [-37.167, -11.181], [-37.208, -11.223], [-37.252, -11.278], [-37.287, -11.334], [-37.309, -11.393], [-37.313, -11.424], [-37.346, -11.43], [-37.363, -11.447]]]]}, "properties": {"name": "Sergipe", "iso2": "BR-SE", "admin_level": 4, "osm_id": 303940, "countrylevel_id": "iso2:BR-SE", "osm_data": {"localname": "Sergipe", "official_name": "", "alltags": {"flag": "https://upload.wikimedia.org/wikipedia/commons/b/be/Bandeira_de_Sergipe.svg", "name:ar": "سيرجيبي", "name:be": "Сержыпі", "name:bg": "Сержипи", "name:en": "Sergipe", "name:eo": "Serĝipo", "name:fa": "سرژیپه", "name:he": "סרז'יפה", "name:hi": "सर्जिपे", "name:hy": "Սերժիպի", "name:ja": "セルジッペ", "name:ka": "სერჟიპი", "name:ko": "세르지피", "name:la": "Seregipe", "name:lt": "Seržipė", "name:lv": "Seržipi", "name:mk": "Сергипе", "name:mr": "सर्जिपे", "name:os": "Сержипи", "name:pl": "Sergipe", "name:pt": "Sergipe", "name:ru": "Сержипи", "name:sh": "Seržipi", "name:sr": "Сержипе", "name:tg": "Сержипи", "name:th": "เซร์ชิเป", "name:uk": "Сержипі", "name:uz": "Serjipi", "name:zh": "塞尔希培", "website": "http://www.se.gov.br/", "short_name": "SE", "is_in:country": "Brazil", "IBGE:GEOCODIGO": "28"}}, "center_lat": -10.58, "center_lon": -37.44, "area_m2": 22056359518, "timezone": "America/Maceio", "population": 2288116, "wikidata_id": "Q43783", "wikipedia_id": "pt:Sergipe"}}