{"type": "Feature", "geometry": {"type": "MultiPolygon", "coordinates": [[[[69.122, 41.266], [69.123, 41.27], [69.125, 41.27], [69.126, 41.272], [69.128, 41.274], [69.129, 41.276], [69.134, 41.281], [69.135, 41.284], [69.132, 41.287], [69.138, 41.292], [69.14, 41.297], [69.145, 41.302], [69.149, 41.305], [69.149, 41.308], [69.148, 41.313], [69.153, 41.32], [69.155, 41.327], [69.16, 41.328], [69.163, 41.333], [69.164, 41.339], [69.165, 41.345], [69.166, 41.351], [69.169, 41.357], [69.174, 41.362], [69.21, 41.384], [69.212, 41.387], [69.216, 41.387], [69.229, 41.396], [69.232, 41.398], [69.239, 41.399], [69.256, 41.398], [69.262, 41.397], [69.265, 41.395], [69.281, 41.385], [69.287, 41.384], [69.301, 41.384], [69.312, 41.385], [69.315, 41.385], [69.319, 41.383], [69.325, 41.37], [69.338, 41.36], [69.344, 41.356], [69.351, 41.355], [69.354, 41.355], [69.358, 41.357], [69.362, 41.361], [69.365, 41.363], [69.375, 41.361], [69.377, 41.362], [69.391, 41.366], [69.394, 41.365], [69.396, 41.363], [69.395, 41.358], [69.396, 41.354], [69.4, 41.355], [69.408, 41.344], [69.397, 41.34], [69.395, 41.343], [69.387, 41.34], [69.386, 41.341], [69.38, 41.342], [69.379, 41.338], [69.379, 41.334], [69.376, 41.331], [69.358, 41.318], [69.35, 41.313], [69.35, 41.31], [69.349, 41.307], [69.36, 41.306], [69.361, 41.302], [69.363, 41.3], [69.37, 41.301], [69.372, 41.3], [69.369, 41.299], [69.373, 41.293], [69.37, 41.292], [69.371, 41.29], [69.377, 41.29], [69.378, 41.285], [69.374, 41.282], [69.374, 41.278], [69.378, 41.274], [69.379, 41.274], [69.382, 41.27], [69.383, 41.266], [69.386, 41.265], [69.396, 41.266], [69.398, 41.265], [69.392, 41.258], [69.384, 41.254], [69.392, 41.248], [69.393, 41.245], [69.393, 41.243], [69.387, 41.239], [69.383, 41.243], [69.378, 41.243], [69.373, 41.242], [69.376, 41.246], [69.373, 41.247], [69.366, 41.24], [69.364, 41.243], [69.356, 41.237], [69.345, 41.226], [69.344, 41.228], [69.339, 41.227], [69.338, 41.225], [69.331, 41.226], [69.33, 41.223], [69.327, 41.224], [69.323, 41.22], [69.321, 41.225], [69.317, 41.22], [69.311, 41.215], [69.302, 41.212], [69.295, 41.208], [69.293, 41.208], [69.287, 41.205], [69.281, 41.204], [69.28, 41.203], [69.264, 41.197], [69.259, 41.193], [69.256, 41.192], [69.26, 41.189], [69.262, 41.184], [69.26, 41.171], [69.249, 41.171], [69.248, 41.171], [69.241, 41.171], [69.236, 41.169], [69.231, 41.172], [69.226, 41.177], [69.232, 41.182], [69.233, 41.184], [69.232, 41.187], [69.234, 41.191], [69.202, 41.189], [69.197, 41.187], [69.194, 41.183], [69.18, 41.182], [69.187, 41.192], [69.19, 41.193], [69.188, 41.195], [69.189, 41.197], [69.197, 41.2], [69.201, 41.203], [69.201, 41.206], [69.193, 41.203], [69.191, 41.204], [69.188, 41.208], [69.2, 41.222], [69.2, 41.225], [69.197, 41.227], [69.194, 41.227], [69.192, 41.225], [69.188, 41.224], [69.188, 41.221], [69.186, 41.219], [69.188, 41.217], [69.185, 41.214], [69.182, 41.215], [69.184, 41.217], [69.18, 41.218], [69.176, 41.22], [69.174, 41.22], [69.176, 41.225], [69.175, 41.228], [69.169, 41.235], [69.165, 41.237], [69.167, 41.24], [69.163, 41.25], [69.16, 41.253], [69.155, 41.256], [69.148, 41.262], [69.147, 41.265], [69.146, 41.276], [69.148, 41.281], [69.145, 41.28], [69.141, 41.278], [69.14, 41.275], [69.135, 41.272], [69.131, 41.269], [69.122, 41.266]], [[69.214, 41.238], [69.214, 41.237], [69.222, 41.224], [69.224, 41.225], [69.225, 41.228], [69.231, 41.233], [69.232, 41.236], [69.242, 41.235], [69.245, 41.216], [69.262, 41.222], [69.272, 41.214], [69.276, 41.216], [69.278, 41.218], [69.287, 41.22], [69.302, 41.229], [69.306, 41.23], [69.308, 41.232], [69.312, 41.233], [69.317, 41.237], [69.321, 41.238], [69.314, 41.243], [69.31, 41.244], [69.302, 41.244], [69.243, 41.244], [69.221, 41.244], [69.216, 41.24], [69.214, 41.238]]], [[[69.428, 41.4], [69.43, 41.403], [69.432, 41.403], [69.429, 41.407], [69.431, 41.407], [69.435, 41.407], [69.433, 41.403], [69.436, 41.401], [69.441, 41.404], [69.439, 41.406], [69.444, 41.408], [69.441, 41.411], [69.441, 41.413], [69.441, 41.416], [69.444, 41.419], [69.446, 41.421], [69.45, 41.422], [69.454, 41.422], [69.458, 41.421], [69.463, 41.418], [69.464, 41.416], [69.465, 41.412], [69.472, 41.416], [69.474, 41.415], [69.464, 41.409], [69.47, 41.406], [69.46, 41.402], [69.456, 41.402], [69.441, 41.398], [69.438, 41.398], [69.434, 41.399], [69.429, 41.398], [69.428, 41.4]]]]}, "properties": {"name": "Tashkent", "iso2": "UZ-TK", "admin_level": 4, "osm_id": 2216724, "countrylevel_id": "iso2:UZ-TK", "osm_data": {"localname": "Toshkent", "official_name": "", "alltags": {"capital": "yes", "name:af": "Tasjkent", "name:am": "ታሽኬንት", "name:ar": "طشقند", "name:az": "Daşkənd", "name:be": "Ташкент", "name:bg": "Ташкент", "name:bn": "তাশখন্দ", "name:bo": "ཐ་ཧྲི་ཀན།", "name:br": "Tochkent", "name:bs": "Taškent", "name:ca": "Taixkent", "name:cs": "Taškent", "name:cv": "Ташкент", "name:cy": "Tashkent", "name:da": "Tasjkent", "name:el": "Τασκένδη", "name:en": "Tashkent", "name:eo": "Taŝkento", "name:es": "Taskent", "name:et": "Toshkent", "name:eu": "Tashkent", "name:fa": "تاشکند", "name:fi": "Taškent", "name:fr": "Tachkent", "name:fy": "Tasjkent", "name:ga": "Tashkent", "name:gd": "Tashkent", "name:gl": "Tashkent", "name:he": "טשקנט", "name:hi": "ताशकन्द", "name:hr": "Taškent", "name:ht": "Tachkènt", "name:hu": "Taskent", "name:hy": "Տաշքենդ", "name:id": "Tashkent", "name:ie": "Tashkent", "name:io": "Tashkent", "name:is": "Taskent", "name:it": "Tashkent", "name:ja": "タシュケント", "name:ka": "ტაშკენტი", "name:kk": "Ташкент", "name:kn": "ತಾಷ್ಕೆಂಟ್", "name:ko": "타슈켄트", "name:ku": "Taşkent, Ûzbêkistan", "name:kv": "Ташкент", "name:ky": "Ташкен", "name:la": "Lithopolis", "name:lt": "Taškentas", "name:lv": "Taškenta", "name:mk": "Ташкент", "name:ml": "താഷ്കന്റ്", "name:mn": "Ташкент", "name:mr": "ताश्कंद", "name:ms": "Tashkent", "name:nl": "Tasjkent", "name:nn": "Tasjkent", "name:no": "Tasjkent", "name:oc": "Tashkent", "name:os": "Ташкент", "name:pl": "Taszkent", "name:ps": "تاشكند", "name:pt": "Tashkent", "name:ro": "Tașkent", "name:ru": "Ташкент", "name:sh": "Taškent", "name:sk": "Taškent", "name:sq": "Tashkenti", "name:sr": "Ташкент", "name:sv": "Tasjkent", "name:sw": "Tashkent", "name:ta": "தாஷ்கந்து", "name:te": "తాష్కెంట్", "name:tg": "Тошканд", "name:th": "ทาชเคนต์", "name:tk": "Daşkent", "name:tl": "Tashkent", "name:tr": "Taşkent", "name:tt": "Ташкент", "name:ug": "Tashkent", "name:uk": "Ташкент", "name:ur": "تاشقند", "name:uz": "Toshkent", "name:vi": "Tashkent", "name:vo": "Toshkent", "name:yi": "טאשקענט", "name:yo": "Tashkent", "name:zh": "塔什干", "int_name": "Tashkent", "name:ace": "Tashkent", "name:ckb": "تاشکەند", "name:crh": "Taşkent", "name:hif": "Tashkent", "name:hsb": "Taškent", "name:lmo": "Taškent", "name:mhr": "Ташкент", "name:myv": "Ташкент ош", "name:mzn": "تاشکند", "name:nan": "Tashkent", "name:nov": "Tashkent", "name:pms": "Tashkent", "name:pnb": "تاشقند", "name:sah": "Ташкент", "name:sco": "Tashkent", "name:udm": "Ташкент", "name:vec": "Taškent", "name:vep": "Taškent", "name:war": "Tashkent", "old_name": "Chach", "addr:region": "Toshkent", "alt_name:ru": "Ташкентъ", "alt_name:uz": "Тошкент", "alt_name:vi": "Toshkent", "border_type": "region", "name:simple": "Tashkent", "old_name:ru": "Ташкентъ;Чач;Шаш;Джадж;Бинкент", "old_name:vi": "Khang Cư", "addr:country": "UZ", "is_in:country": "O'zbekiston", "name:be-tarask": "Ташкент"}}, "center_lat": 41.3, "center_lon": 69.26, "area_m2": 341773651, "timezone": "Asia/Tashkent", "population": 2522800, "wikidata_id": "Q269", "wikipedia_id": "ru:Ташкент"}}