{"type": "Feature", "geometry": {"type": "Polygon", "coordinates": [[[-16.051, 18.39], [-15.781, 18.393], [-15.781, 17.887], [-16.036, 17.887], [-16.035, 17.891], [-16.035, 17.897], [-16.034, 17.911], [-16.033, 17.92], [-16.031, 17.927], [-16.028, 17.944], [-16.022, 17.961], [-16.021, 17.966], [-16.023, 17.968], [-16.022, 17.97], [-16.019, 17.979], [-16.02, 17.983], [-16.02, 17.986], [-16.026, 17.987], [-16.027, 17.992], [-16.032, 17.992], [-16.034, 17.992], [-16.03, 18.008], [-16.027, 18.019], [-16.026, 18.03], [-16.026, 18.036], [-16.025, 18.047], [-16.025, 18.056], [-16.026, 18.075], [-16.026, 18.078], [-16.026, 18.094], [-16.027, 18.113], [-16.028, 18.115], [-16.029, 18.125], [-16.029, 18.134], [-16.029, 18.14], [-16.03, 18.149], [-16.03, 18.153], [-16.029, 18.157], [-16.028, 18.173], [-16.028, 18.174], [-16.029, 18.183], [-16.031, 18.186], [-16.031, 18.19], [-16.034, 18.202], [-16.035, 18.205], [-16.036, 18.213], [-16.037, 18.217], [-16.037, 18.228], [-16.036, 18.235], [-16.037, 18.239], [-16.037, 18.246], [-16.038, 18.251], [-16.038, 18.261], [-16.038, 18.27], [-16.039, 18.274], [-16.039, 18.28], [-16.04, 18.285], [-16.041, 18.288], [-16.044, 18.298], [-16.045, 18.302], [-16.046, 18.309], [-16.047, 18.315], [-16.048, 18.325], [-16.048, 18.332], [-16.049, 18.335], [-16.05, 18.346], [-16.049, 18.355], [-16.05, 18.363], [-16.05, 18.369], [-16.051, 18.381], [-16.051, 18.39]]]}, "properties": {"name": "Nouakchott", "iso2": "MR-NKC", "admin_level": 4, "osm_id": 3395130, "countrylevel_id": "iso2:MR-NKC", "osm_data": {"localname": "نواكشوط", "official_name": "", "alltags": {"name:am": "ኑዋክሾት", "name:ar": "نواكشوط", "name:az": "Nuakşot", "name:be": "Нуакшот", "name:bg": "Нуакшот", "name:bn": "নুওয়াকশুত", "name:bo": "ནའུ་ཀ་ཅོ་ཊི།", "name:cs": "Nuakšott", "name:da": "Nouakchott", "name:el": "Νουακσότ", "name:en": "Nouakchott", "name:eo": "Nuakŝoto", "name:es": "Nuakchot", "name:eu": "Nuakchot", "name:fa": "نوآکشوت", "name:fr": "Nouakchott", "name:he": "נואקשוט", "name:hr": "Nouakchott", "name:ht": "Nouakchot", "name:hy": "Նուակշոտ", "name:is": "Núaksjott", "name:ja": "ヌアクショット", "name:ka": "ნუაქშოტი", "name:kk": "Нуакшот қаласы", "name:ko": "누악쇼트", "name:ku": "Nûakşot", "name:ky": "Нуакшот", "name:lt": "Nuakšotas", "name:lv": "Nuakšota", "name:mk": "Нуакшот", "name:mr": "नवाकसुत", "name:pl": "Nawakszut", "name:ru": "Нуакшот", "name:so": "Nawakshot", "name:sr": "Нуакшот", "name:sv": "Nouakchott", "name:ta": "நவாக்சோட்", "name:tg": "Нуакшот", "name:th": "นูแอกชอต", "name:tr": "Nuakşot", "name:uk": "Нуакшот", "name:ur": "نواکشوط", "name:vi": "Nouakchott", "name:vo": "Nävakjut", "name:zh": "努瓦克肖特", "name:ast": "Nuakxot", "name:ckb": "نۆئاکشۆت", "name:mrj": "Нуакшот", "name:nov": "Nouakchot", "name:pnb": "نوواکوٹ", "name:udm": "Нуакшот", "name:yue": "或索", "alt_name:de": "Nouakchott", "border_type": "region", "name:be-tarask": "Нуакшот"}}, "center_lat": 18.14, "center_lon": -15.91, "area_m2": 1501806638, "timezone": "Africa/Nouakchott", "population": 1077169, "wikidata_id": "Q3688", "wikipedia_id": "ar:نواكشوط"}}